City,City_Content,State,City State Zip,City2,State_Abbr,Zip
Alabaster,Alabaster AL 35007 ph: 205-564-2608,Alabama,Alabaster AL 35007 ,Alabaster AL,AL,abaster  35007 
Bessemer,Bessemer AL 35022 ph: 205-565-3760,Alabama,Bessemer AL 35022 ,Bessemer AL,AL,ssemer  35022 
Birmingham,Birmingham AL 35235 ph: 205-655-6950,Alabama,Birmingham AL 35235 ,Birmingham AL,AL,rmingham  35235 
Birmingham,Birmingham AL 35242 ph: 205-408-7687,Alabama,Birmingham AL 35242 ,Birmingham AL,AL,rmingham  35242 
Birmingham,Birmingham AL 35226 ph: 205-747-1654,Alabama,Birmingham AL 35226 ,Birmingham AL,AL,rmingham  35226 
Daphne,Daphne AL 36526 ph: 251-621-3540,Alabama,Daphne AL 36526 ,Daphne AL,AL,phne  36526 
Decatur,Decatur AL 35601 ph: 256-898-3036,Alabama,Decatur AL 35601 ,Decatur AL,AL,catur  35601 
Dothan,Dothan AL 36303 ph: 334-340-1112,Alabama,Dothan AL 36303 ,Dothan AL,AL,than  36303 
Florence,Florence AL 35630 ph: 256-764-6924,Alabama,Florence AL 35630 ,Florence AL,AL,orence  35630 
Fultondale,Fultondale AL 35068 ph: 205-453-6032,Alabama,Fultondale AL 35068 ,Fultondale AL,AL,ltondale  35068 
Gulf Shores,Gulf Shores AL 36542 ph: 251-967-7001,Alabama,Gulf Shores AL 36542 ,Gulf Shores AL,AL,lf ores  36542 
Homewood,Homewood AL 35209-4501 ph: 205-994-7531,Alabama,Homewood AL 35209-4501 ,Homewood AL,AL,mewood  35209-4501 
Huntsville,Huntsville AL 35802 ph: 256-650-3491,Alabama,Huntsville AL 35802 ,Huntsville AL,AL,ntsville  35802 
Huntsville,Huntsville AL 35806 ph: 256-922-0189,Alabama,Huntsville AL 35806 ,Huntsville AL,AL,ntsville  35806 
Madison,Madison AL 35758 ph: 256-690-5890,Alabama,Madison AL 35758 ,Madison AL,AL,dison  35758 
Mobile,Mobile AL 36606 ph: 251-471-9760,Alabama,Mobile AL 36606 ,Mobile AL,AL,bile  36606 
Mobile,Mobile AL 36695 ph: 251-607-0265,Alabama,Mobile AL 36695 ,Mobile AL,AL,bile  36695 
Montgomery,Montgomery AL 36117 ph: 334-356-6265,Alabama,Montgomery AL 36117 ,Montgomery AL,AL,ntgomery  36117 
Opelika,Opelika AL 36801 ph: 334-705-0152,Alabama,Opelika AL 36801 ,Opelika AL,AL,elika  36801 
Oxford,Oxford AL 36203 ph: 256-231-2900,Alabama,Oxford AL 36203 ,Oxford AL,AL,ford  36203 
Prattville,Prattville AL 36066 ph: 334-290-6000,Alabama,Prattville AL 36066 ,Prattville AL,AL,attville  36066 
Tuscaloosa,Tuscaloosa AL 35404 ph: 205-462-1064,Alabama,Tuscaloosa AL 35404 ,Tuscaloosa AL,AL,scaloosa  35404 
Anchorage,Anchorage AK 99504 ph: 907-269-2100,Alaska,Anchorage AK 99504 ,Anchorage AK,AK,chorage  99504 
Anchorage,Anchorage AK 99515 ph: 907-267-7500,Alaska,Anchorage AK 99515 ,Anchorage AK,AK,chorage  99515 
Wasilla,Wasilla AK 99654 ph: 907-631-7200,Alaska,Wasilla AK 99654 ,Wasilla AK,AK,silla  99654 
Bullhead City,Bullhead City AZ 86442 ph: 928-704-5064,Arizona,Bullhead City AZ 86442 ,Bullhead City AZ,AZ,llhead ty  86442 
Casa Grande,Casa Grande AZ 85194 ph: 520-413-6971,Arizona,Casa Grande AZ 85194 ,Casa Grande AZ,AZ,sa ande  85194 
Chandler,Chandler AZ 85225 ph: 480-899-7986,Arizona,Chandler AZ 85225 ,Chandler AZ,AZ,andler  85225 
Chandler,Chandler AZ 85226 ph: 480-281-0007,Arizona,Chandler AZ 85226 ,Chandler AZ,AZ,andler  85226 
Chandler,Chandler AZ 85248 ph: 480-612-6101,Arizona,Chandler AZ 85248 ,Chandler AZ,AZ,andler  85248 
Flagstaff,Flagstaff AZ 86001 ph: 928-774-3500,Arizona,Flagstaff AZ 86001 ,Flagstaff AZ,AZ,agstaff  86001 
Fountain Hills,Fountain Hills AZ 85268 ph: 480-837-8557,Arizona,Fountain Hills AZ 85268 ,Fountain Hills AZ,AZ,untain lls  85268 
Gilbert,Gilbert AZ 85296 ph: 480-892-2282,Arizona,Gilbert AZ 85296 ,Gilbert AZ,AZ,lbert  85296 
Gilbert,Gilbert AZ 85297 ph: 480-281-0201,Arizona,Gilbert AZ 85297 ,Gilbert AZ,AZ,lbert  85297 
Glendale,Glendale AZ 85302 ph: 623-931-4434,Arizona,Glendale AZ 85302 ,Glendale AZ,AZ,endale  85302 
Glendale,Glendale AZ 85305 ph: 623-877-8440,Arizona,Glendale AZ 85305 ,Glendale AZ,AZ,endale  85305 
Goodyear,Goodyear AZ 85395 ph: 623-935-3510,Arizona,Goodyear AZ 85395 ,Goodyear AZ,AZ,odyear  85395 
Goodyear,Goodyear AZ 85338 ph: 480-627-3275,Arizona,Goodyear AZ 85338 ,Goodyear AZ,AZ,odyear  85338 
Mesa,Mesa AZ 85204 ph: 480-926-3443,Arizona,Mesa AZ 85204 ,Mesa AZ,AZ,sa  85204 
Mesa,Mesa AZ 85202 ph: 480-281-0105,Arizona,Mesa AZ 85202 ,Mesa AZ,AZ,sa  85202 
Mesa,Mesa AZ 85206 ph: 480-396-0403,Arizona,Mesa AZ 85206 ,Mesa AZ,AZ,sa  85206 
Mesa,Mesa AZ 85215 ph: 480-830-2035,Arizona,Mesa AZ 85215 ,Mesa AZ,AZ,sa  85215 
Mesa,Mesa AZ 85212 ph: 480-281-0268,Arizona,Mesa AZ 85212 ,Mesa AZ,AZ,sa  85212 
Oro Valley,Oro Valley AZ 85737 ph: 520-219-9862,Arizona,Oro Valley AZ 85737 ,Oro Valley AZ,AZ,o lley  85737 
Peoria,Peoria AZ 85383 ph: 623-376-7300,Arizona,Peoria AZ 85383 ,Peoria AZ,AZ,oria  85383 
Peoria,Peoria AZ 85382 ph: 623-979-0250,Arizona,Peoria AZ 85382 ,Peoria AZ,AZ,oria  85382 
Phoenix,Phoenix AZ 85032 ph: 602-953-2151,Arizona,Phoenix AZ 85032 ,Phoenix AZ,AZ,oenix  85032 
Phoenix,Phoenix AZ 85022 ph: 602-794-3601,Arizona,Phoenix AZ 85022 ,Phoenix AZ,AZ,oenix  85022 
Phoenix,Phoenix AZ 85050 ph: 480-419-9380,Arizona,Phoenix AZ 85050 ,Phoenix AZ,AZ,oenix  85050 
Phoenix,Phoenix AZ 85042 ph: 602-281-1119,Arizona,Phoenix AZ 85042 ,Phoenix AZ,AZ,oenix  85042 
Phoenix,Phoenix AZ 85027 ph: 623-869-8070,Arizona,Phoenix AZ 85027 ,Phoenix AZ,AZ,oenix  85027 
Phoenix,Phoenix AZ 85018 ph: 602-952-1797,Arizona,Phoenix AZ 85018 ,Phoenix AZ,AZ,oenix  85018 
Phoenix,Phoenix AZ 85044 ph: 480-893-9333,Arizona,Phoenix AZ 85044 ,Phoenix AZ,AZ,oenix  85044 
Phoenix,Phoenix AZ 85015 ph: 602-308-3604,Arizona,Phoenix AZ 85015 ,Phoenix AZ,AZ,oenix  85015 
Phoenix,Phoenix AZ 85035 ph: 623-245-1800,Arizona,Phoenix AZ 85035 ,Phoenix AZ,AZ,oenix  85035 
Prescott,Prescott AZ 86301 ph: 928-771-8400,Arizona,Prescott AZ 86301 ,Prescott AZ,AZ,escott  86301 
Queen Creek,Queen Creek AZ 85142 ph: 480-214-4810,Arizona,Queen Creek AZ 85142 ,Queen Creek AZ,AZ,een eek  85142 
Scottsdale,Scottsdale AZ 85260 ph: 480-860-2800,Arizona,Scottsdale AZ 85260 ,Scottsdale AZ,AZ,ottsdale  85260 
Scottsdale,Scottsdale AZ 85262 ph: 480-575-7043,Arizona,Scottsdale AZ 85262 ,Scottsdale AZ,AZ,ottsdale  85262 
Scottsdale,Scottsdale AZ 85250 ph: 480-951-4403,Arizona,Scottsdale AZ 85250 ,Scottsdale AZ,AZ,ottsdale  85250 
Sierra Vista,Sierra Vista AZ 85635 ph: 520-452-0035,Arizona,Sierra Vista AZ 85635 ,Sierra Vista AZ,AZ,erra sta  85635 
Surprise,Surprise AZ 85374 ph: 623-975-4122,Arizona,Surprise AZ 85374 ,Surprise AZ,AZ,rprise  85374 
Tempe,Tempe AZ 85281 ph: 480-214-2667,Arizona,Tempe AZ 85281 ,Tempe AZ,AZ,mpe  85281 
Tempe,Tempe AZ 85283 ph: 480-831-9162,Arizona,Tempe AZ 85283 ,Tempe AZ,AZ,mpe  85283 
Tolleson,Tolleson AZ 85353 ph: 623-687-2136,Arizona,Tolleson AZ 85353 ,Tolleson AZ,AZ,lleson  85353 
Tucson,Tucson AZ 85714 ph: 520-295-1277,Arizona,Tucson AZ 85714 ,Tucson AZ,AZ,cson  85714 
Tucson,Tucson AZ 85716 ph: 520-917-0116,Arizona,Tucson AZ 85716 ,Tucson AZ,AZ,cson  85716 
Tucson,Tucson AZ 85741 ph: 520-744-3553,Arizona,Tucson AZ 85741 ,Tucson AZ,AZ,cson  85741 
Tucson,Tucson AZ 85705 ph: 520-202-1501,Arizona,Tucson AZ 85705 ,Tucson AZ,AZ,cson  85705 
Tucson,Tucson AZ 85711 ph: 520-745-8001,Arizona,Tucson AZ 85711 ,Tucson AZ,AZ,cson  85711 
Tucson,Tucson AZ 85715 ph: 520-290-1711,Arizona,Tucson AZ 85715 ,Tucson AZ,AZ,cson  85715 
Tucson,Tucson AZ 85748 ph: 520-296-4290,Arizona,Tucson AZ 85748 ,Tucson AZ,AZ,cson  85748 
Yuma,Yuma AZ 85365 ph: 928-343-7470,Arizona,Yuma AZ 85365 ,Yuma AZ,AZ,ma  85365 
Bryant,Bryant AR 72022 ph: 501-776-4360,Arkansas,Bryant AR 72022 ,Bryant AR,AR,yant  72022 
Conway,Conway AR 72032 ph: 501-328-5739,Arkansas,Conway AR 72032 ,Conway AR,AR,nway  72032 
Fayetteville,Fayetteville AR 72703 ph: 479-443-5517,Arkansas,Fayetteville AR 72703 ,Fayetteville AR,AR,yetteville  72703 
Fort Smith,Fort Smith AR 72903 ph: 479-709-8940,Arkansas,Fort Smith AR 72903 ,Fort Smith AR,AR,rt ith  72903 
Jonesboro,Jonesboro AR 72401 ph: 870-934-9661,Arkansas,Jonesboro AR 72401 ,Jonesboro AR,AR,nesboro  72401 
Little Rock,Little Rock AR 72211 ph: 501-217-0200,Arkansas,Little Rock AR 72211 ,Little Rock AR,AR,ttle ck  72211 
Little Rock,Little Rock AR 72205 ph: 501-801-3412,Arkansas,Little Rock AR 72205 ,Little Rock AR,AR,ttle ck  72205 
North Little Rock,North Little Rock AR 72116 ph: 501-771-4220,Arkansas,North Little Rock AR 72116 ,North Little Rock AR,AR,rth ttle ck  72116 
Rogers,Rogers AR 72758 ph: 479-986-1100,Arkansas,Rogers AR 72758 ,Rogers AR,AR,gers  72758 
Albany,Albany CA 94710 ph: 510-982-0512,California,Albany CA 94710 ,Albany CA,CA,bany  94710 
Alhambra,Alhambra CA 91801 ph: 626-308-3290,California,Alhambra CA 91801 ,Alhambra CA,CA,hambra  91801 
Aliso Viejo,Aliso Viejo CA 92656 ph: 949-643-0337,California,Aliso Viejo CA 92656 ,Aliso Viejo CA,CA,iso ejo  92656 
Anaheim,Anaheim CA 92802 ph: 714-422-1120,California,Anaheim CA 92802 ,Anaheim CA,CA,aheim  92802 
Anaheim,Anaheim CA 92808 ph: 714-921-9091,California,Anaheim CA 92808 ,Anaheim CA,CA,aheim  92808 
Antioch,Antioch CA 94531 ph: 925-752-0002,California,Antioch CA 94531 ,Antioch CA,CA,tioch  94531 
Apple Valley,Apple Valley CA 92308 ph: 760-247-4111,California,Apple Valley CA 92308 ,Apple Valley CA,CA,ple lley  92308 
Apple Valley,Apple Valley CA 92307 ph: 760-240-7654,California,Apple Valley CA 92307 ,Apple Valley CA,CA,ple lley  92307 
Atwater,Atwater CA 95301 ph: 209-357-4820,California,Atwater CA 95301 ,Atwater CA,CA,water  95301 
Auburn,Auburn CA 95603 ph: 530-889-5650,California,Auburn CA 95603 ,Auburn CA,CA,burn  95603 
Azusa,Azusa CA 91702 ph: 626-629-1121,California,Azusa CA 91702 ,Azusa CA,CA,usa  91702 
Bakersfield,Bakersfield CA 93311 ph: 661-617-3657,California,Bakersfield CA 93311 ,Bakersfield CA,CA,kersfield  93311 
Bakersfield,Bakersfield CA 93304 ph: 661-617-2000,California,Bakersfield CA 93304 ,Bakersfield CA,CA,kersfield  93304 
Bakersfield,Bakersfield CA 93306 ph: 661-872-9929,California,Bakersfield CA 93306 ,Bakersfield CA,CA,kersfield  93306 
Bakersfield,Bakersfield CA 93312 ph: 661-589-0554,California,Bakersfield CA 93312 ,Bakersfield CA,CA,kersfield  93312 
Baldwin Park,Baldwin Park CA 91706 ph: 626-851-9404,California,Baldwin Park CA 91706 ,Baldwin Park CA,CA,ldwin rk  91706 
Brea,Brea CA 92821 ph: 714-989-5013,California,Brea CA 92821 ,Brea CA,CA,ea  92821 
Buena Park,Buena Park CA 90621 ph: 714-676-0013,California,Buena Park CA 90621 ,Buena Park CA,CA,ena rk  90621 
Burbank,Burbank CA 91504 ph: 818-238-0132,California,Burbank CA 91504 ,Burbank CA,CA,rbank  91504 
Camarillo,Camarillo CA 93010 ph: 805-384-0040,California,Camarillo CA 93010 ,Camarillo CA,CA,marillo  93010 
Canoga Park,Canoga Park CA 91303 ph: 818-746-9922,California,Canoga Park CA 91303 ,Canoga Park CA,CA,noga rk  91303 
Capitola,Capitola CA 95010 ph: 831-227-2101,California,Capitola CA 95010 ,Capitola CA,CA,pitola  95010 
Carson,Carson CA 90746 ph: 310-819-3011,California,Carson CA 90746 ,Carson CA,CA,rson  90746 
Carson,Carson CA 90745 ph: 310-507-0020,California,Carson CA 90745 ,Carson CA,CA,rson  90745 
Cathedral City,Cathedral City CA 92234 ph: 760-321-7425,California,Cathedral City CA 92234 ,Cathedral City CA,CA,thedral ty  92234 
Cerritos,Cerritos CA 90703 ph: 562-274-0063,California,Cerritos CA 90703 ,Cerritos CA,CA,rritos  90703 
Cerritos,Cerritos CA 90703 ph: 562-860-9909,California,Cerritos CA 90703 ,Cerritos CA,CA,rritos  90703 
Chico,Chico CA 95928 ph: 530-343-3770,California,Chico CA 95928 ,Chico CA,CA,ico  95928 
Chino,Chino CA 91710 ph: 909-465-5804,California,Chino CA 91710 ,Chino CA,CA,ino  91710 
Chino,Chino CA 91710 ph: 909-627-8433,California,Chino CA 91710 ,Chino CA,CA,ino  91710 
Chula Vista,Chula Vista CA 91911 ph: 619-425-3850,California,Chula Vista CA 91911 ,Chula Vista CA,CA,ula sta  91911 
Chula Vista,Chula Vista CA 91910 ph: 619-425-5120,California,Chula Vista CA 91910 ,Chula Vista CA,CA,ula sta  91910 
Chula Vista,Chula Vista CA 91914 ph: 619-213-1010,California,Chula Vista CA 91914 ,Chula Vista CA,CA,ula sta  91914 
Citrus Heights,Citrus Heights CA 95610 ph: 916-966-5267,California,Citrus Heights CA 95610 ,Citrus Heights CA,CA,trus ights  95610 
Clovis,Clovis CA 93612 ph: 559-321-0009,California,Clovis CA 93612 ,Clovis CA,CA,ovis  93612 
Clovis,Clovis CA 93612 ph: 559-297-4691,California,Clovis CA 93612 ,Clovis CA,CA,ovis  93612 
Colma,Colma CA 94014 ph: 650-992-8433,California,Colma CA 94014 ,Colma CA,CA,lma  94014 
Compton,Compton CA 90220 ph: 310-735-0096,California,Compton CA 90220 ,Compton CA,CA,mpton  90220 
Corona,Corona CA 92881 ph: 951-277-3075,California,Corona CA 92881 ,Corona CA,CA,rona  92881 
Costa Mesa,Costa Mesa CA 92626 ph: 714-979-0372,California,Costa Mesa CA 92626 ,Costa Mesa CA,CA,sta sa  92626 
Culver City,Culver City CA 90230 ph: 310-839-5200,California,Culver City CA 90230 ,Culver City CA,CA,lver ty  90230 
Culver City,Culver City CA 90230 ph: 310-754-4614,California,Culver City CA 90230 ,Culver City CA,CA,lver ty  90230 
Cupertino,Cupertino CA 95014 ph: 408-725-2651,California,Cupertino CA 95014 ,Cupertino CA,CA,pertino  95014 
Cypress,Cypress CA 90630 ph: 714-220-2000,California,Cypress CA 90630 ,Cypress CA,CA,press  90630 
Daly City,Daly City CA 94015 ph: 650-755-2393,California,Daly City CA 94015 ,Daly City CA,CA,ly ty  94015 
Davis,Davis CA 95618 ph: 530-761-0126,California,Davis CA 95618 ,Davis CA,CA,vis  95618 
Diamond Bar,Diamond Bar CA 91765 ph: 909-610-2149,California,Diamond Bar CA 91765 ,Diamond Bar CA,CA,amond r  91765 
Duarte,Duarte CA 91010 ph: 626-303-8858,California,Duarte CA 91010 ,Duarte CA,CA,arte  91010 
Dublin,Dublin CA 94568 ph: 925-241-1042,California,Dublin CA 94568 ,Dublin CA,CA,blin  94568 
Dublin,Dublin CA 94568 ph: 925-829-8900,California,Dublin CA 94568 ,Dublin CA,CA,blin  94568 
Eastvale,Eastvale CA 91752 ph: 951-256-5261,California,Eastvale CA 91752 ,Eastvale CA,CA,stvale  91752 
El Cajon,El Cajon CA 92021 ph: 619-442-9641,California,El Cajon CA 92021 ,El Cajon CA,CA, jon  92021 
El Cajon,El Cajon CA 92019 ph: 619-660-2948,California,El Cajon CA 92019 ,El Cajon CA,CA, jon  92019 
El Centro,El Centro CA 92243 ph: 760-482-5400,California,El Centro CA 92243 ,El Centro CA,CA, ntro  92243 
El Dorado Hills,El Dorado Hills CA 95762 ph: 916-605-0184,California,El Dorado Hills CA 95762 ,El Dorado Hills CA,CA, rado lls  95762 
Elk Grove,Elk Grove CA 95758 ph: 916-683-5356,California,Elk Grove CA 95758 ,Elk Grove CA,CA,k ove  95758 
Emeryville,Emeryville CA 94608 ph: 510-285-0559,California,Emeryville CA 94608 ,Emeryville CA,CA,eryville  94608 
Encinitas,Encinitas CA 92024 ph: 760-633-1406,California,Encinitas CA 92024 ,Encinitas CA,CA,cinitas  92024 
Escondido,Escondido CA 92029 ph: 760-489-6119,California,Escondido CA 92029 ,Escondido CA,CA,condido  92029 
Eureka,Eureka CA 95501 ph: 707-442-0201,California,Eureka CA 95501 ,Eureka CA,CA,reka  95501 
Fairfield,Fairfield CA 94533 ph: 707-426-1105,California,Fairfield CA 94533 ,Fairfield CA,CA,irfield  94533 
Folsom,Folsom CA 95630 ph: 916-984-9131,California,Folsom CA 95630 ,Folsom CA,CA,lsom  95630 
Fontana,Fontana CA 92336 ph: 909-463-9872,California,Fontana CA 92336 ,Fontana CA,CA,ntana  92336 
Fontana,Fontana CA 92337 ph: 909-356-4242,California,Fontana CA 92337 ,Fontana CA,CA,ntana  92337 
Foothill Ranch,Foothill Ranch CA 92610 ph: 949-454-2360,California,Foothill Ranch CA 92610 ,Foothill Ranch CA,CA,othill nch  92610 
Fremont,Fremont CA 94538 ph: 510-795-6305,California,Fremont CA 94538 ,Fremont CA,CA,emont  94538 
Fremont,Fremont CA 94538 ph: 510-771-1616,California,Fremont CA 94538 ,Fremont CA,CA,emont  94538 
Fresno,Fresno CA 93711 ph: 559-275-7059,California,Fresno CA 93711 ,Fresno CA,CA,esno  93711 
Fresno,Fresno CA 93726 ph: 559-228-8471,California,Fresno CA 93726 ,Fresno CA,CA,esno  93726 
Fresno,Fresno CA 93710 ph: 559-431-8622,California,Fresno CA 93710 ,Fresno CA,CA,esno  93710 
Fresno,Fresno CA 93720 ph: 559-431-0104,California,Fresno CA 93720 ,Fresno CA,CA,esno  93720 
Fullerton,Fullerton CA 92833 ph: 714-278-1024,California,Fullerton CA 92833 ,Fullerton CA,CA,llerton  92833 
Fullerton,Fullerton CA 92832 ph: 714-992-4565,California,Fullerton CA 92832 ,Fullerton CA,CA,llerton  92832 
Fullerton,Fullerton CA 92831 ph: 714-579-3090,California,Fullerton CA 92831 ,Fullerton CA,CA,llerton  92831 
Garden Grove,Garden Grove CA 92840 ph: 714-971-4826,California,Garden Grove CA 92840 ,Garden Grove CA,CA,rden ove  92840 
Garden Grove,Garden Grove CA 92843 ph: 714-534-2142,California,Garden Grove CA 92843 ,Garden Grove CA,CA,rden ove  92843 
Gardena,Gardena CA 90247 ph: 310-327-0762,California,Gardena CA 90247 ,Gardena CA,CA,rdena  90247 
Gilroy,Gilroy CA 95020 ph: 408-848-6466,California,Gilroy CA 95020 ,Gilroy CA,CA,lroy  95020 
Glendale,Glendale CA 91210 ph: 818-334-1400,California,Glendale CA 91210 ,Glendale CA,CA,endale  91210 
Granada Hills,Granada Hills CA 91344 ph: 818-360-2999,California,Granada Hills CA 91344 ,Granada Hills CA,CA,anada lls  91344 
Hanford,Hanford CA 93230 ph: 559-582-9298,California,Hanford CA 93230 ,Hanford CA,CA,nford  93230 
Hawthorne,Hawthorne CA 90250 ph: 323-492-1000,California,Hawthorne CA 90250 ,Hawthorne CA,CA,wthorne  90250 
Hayward,Hayward CA 94541 ph: 510-731-0001,California,Hayward CA 94541 ,Hayward CA,CA,yward  94541 
Hayward,Hayward CA 94544 ph: 510-471-9166,California,Hayward CA 94544 ,Hayward CA,CA,yward  94544 
Hemet,Hemet CA 92545 ph: 951-652-9585,California,Hemet CA 92545 ,Hemet CA,CA,met  92545 
Hesperia,Hesperia CA 92345 ph: 760-949-3062,California,Hesperia CA 92345 ,Hesperia CA,CA,speria  92345 
Hollister,Hollister CA 95023 ph: 831-636-3722,California,Hollister CA 95023 ,Hollister CA,CA,llister  95023 
Huntington Beach,Huntington Beach CA 92646 ph: 714-849-1814,California,Huntington Beach CA 92646 ,Huntington Beach CA,CA,ntington ach  92646 
Indio,Indio CA 92203 ph: 760-863-3600,California,Indio CA 92203 ,Indio CA,CA,dio  92203 
Inglewood,Inglewood CA 90303 ph: 310-677-2436,California,Inglewood CA 90303 ,Inglewood CA,CA,glewood  90303 
Irvine,Irvine CA 92618 ph: 949-885-0114,California,Irvine CA 92618 ,Irvine CA,CA,vine  92618 
Irvine,Irvine CA 92602 ph: 714-838-1209,California,Irvine CA 92602 ,Irvine CA,CA,vine  92602 
Irvine,Irvine CA 92606 ph: 949-857-8337,California,Irvine CA 92606 ,Irvine CA,CA,vine  92606 
La Habra,La Habra CA 90631 ph: 714-459-6034,California,La Habra CA 90631 ,La Habra CA,CA, bra  90631 
La Mesa,La Mesa CA 91942 ph: 619-461-1960,California,La Mesa CA 91942 ,La Mesa CA,CA, sa  91942 
La Quinta,La Quinta CA 92253 ph: 760-564-0492,California,La Quinta CA 92253 ,La Quinta CA,CA, inta  92253 
La Verne,La Verne CA 91750 ph: 909-593-2421,California,La Verne CA 91750 ,La Verne CA,CA, rne  91750 
Lake Elsinore,Lake Elsinore CA 92530 ph: 951-674-2620,California,Lake Elsinore CA 92530 ,Lake Elsinore CA,CA,ke sinore  92530 
Lakewood,Lakewood CA 90712 ph: 562-894-0019,California,Lakewood CA 90712 ,Lakewood CA,CA,kewood  90712 
Lancaster,Lancaster CA 93534 ph: 661-949-8584,California,Lancaster CA 93534 ,Lancaster CA,CA,ncaster  93534 
Lathrop,Lathrop CA 95330 ph: 209-242-5041,California,Lathrop CA 95330 ,Lathrop CA,CA,throp  95330 
Lincoln,Lincoln CA 95648 ph: 916-251-3002,California,Lincoln CA 95648 ,Lincoln CA,CA,ncoln  95648 
Livermore,Livermore CA 94551 ph: 925-606-1445,California,Livermore CA 94551 ,Livermore CA,CA,vermore  94551 
Lodi,Lodi CA 95242 ph: 209-369-9371,California,Lodi CA 95242 ,Lodi CA,CA,di  95242 
Long Beach,Long Beach CA 90815 ph: 562-493-5411,California,Long Beach CA 90815 ,Long Beach CA,CA,ng ach  90815 
Long Beach,Long Beach CA 90805 ph: 562-295-2971,California,Long Beach CA 90805 ,Long Beach CA,CA,ng ach  90805 
Los Angeles,Los Angeles CA 90024 ph: 310-893-2360,California,Los Angeles CA 90024 ,Los Angeles CA,CA,s geles  90024 
Los Angeles,Los Angeles CA 90041 ph: 323-258-1355,California,Los Angeles CA 90041 ,Los Angeles CA,CA,s geles  90041 
Los Angeles,Los Angeles CA 90016 ph: 310-895-1131,California,Los Angeles CA 90016 ,Los Angeles CA,CA,s geles  90016 
Los Angeles,Los Angeles CA 90022 ph: 323-725-1121,California,Los Angeles CA 90022 ,Los Angeles CA,CA,s geles  90022 
Los Banos,Los Banos CA 93635 ph: 209-827-2080,California,Los Banos CA 93635 ,Los Banos CA,CA,s nos  93635 
Manhattan Beach,Manhattan Beach CA 90266 ph: 310-546-5601,California,Manhattan Beach CA 90266 ,Manhattan Beach CA,CA,nhattan ach  90266 
Manteca,Manteca CA 95336 ph: 209-823-9982,California,Manteca CA 95336 ,Manteca CA,CA,nteca  95336 
Marina,Marina CA 93933 ph: 831-883-5720,California,Marina CA 93933 ,Marina CA,CA,rina  93933 
Menifee,Menifee CA 92584 ph: 951-723-6151,California,Menifee CA 92584 ,Menifee CA,CA,nifee  92584 
Merced,Merced CA 95348 ph: 209-725-3482,California,Merced CA 95348 ,Merced CA,CA,rced  95348 
Mission Viejo,Mission Viejo CA 92691 ph: 949-583-1298,California,Mission Viejo CA 92691 ,Mission Viejo CA,CA,ssion ejo  92691 
Mission Viejo,Mission Viejo CA 92691 ph: 949-680-1064,California,Mission Viejo CA 92691 ,Mission Viejo CA,CA,ssion ejo  92691 
Modesto,Modesto CA 95350 ph: 209-572-3341,California,Modesto CA 95350 ,Modesto CA,CA,desto  95350 
Modesto,Modesto CA 95356 ph: 209-543-9561,California,Modesto CA 95356 ,Modesto CA,CA,desto  95356 
Montclair,Montclair CA 91763 ph: 909-624-5717,California,Montclair CA 91763 ,Montclair CA,CA,ntclair  91763 
Moorpark,Moorpark CA 93021 ph: 805-530-0028,California,Moorpark CA 93021 ,Moorpark CA,CA,orpark  93021 
Moreno Valley,Moreno Valley CA 92555 ph: 951-571-8014,California,Moreno Valley CA 92555 ,Moreno Valley CA,CA,reno lley  92555 
Morgan Hill,Morgan Hill CA 95037 ph: 408-310-4050,California,Morgan Hill CA 95037 ,Morgan Hill CA,CA,rgan ll  95037 
Mountain View,Mountain View CA 94040 ph: 650-965-7764,California,Mountain View CA 94040 ,Mountain View CA,CA,untain ew  94040 
Murrieta,Murrieta CA 92562 ph: 951-704-1123,California,Murrieta CA 92562 ,Murrieta CA,CA,rrieta  92562 
Murrieta,Murrieta CA 92562 ph: 951-696-7527,California,Murrieta CA 92562 ,Murrieta CA,CA,rrieta  92562 
Napa,Napa CA 94559 ph: 707-224-1058,California,Napa CA 94559 ,Napa CA,CA,pa  94559 
Napa,Napa CA 94558 ph: 707-225-3016,California,Napa CA 94558 ,Napa CA,CA,pa  94558 
National City,National City CA 91950 ph: 619-791-2749,California,National City CA 91950 ,National City CA,CA,tional ty  91950 
Norco,Norco CA 92860 ph: 951-371-1872,California,Norco CA 92860 ,Norco CA,CA,rco  92860 
North Hollywood,North Hollywood CA 91606 ph: 818-761-3083,California,North Hollywood CA 91606 ,North Hollywood CA,CA,rth llywood  91606 
Northridge,Northridge CA 91324 ph: 818-772-0494,California,Northridge CA 91324 ,Northridge CA,CA,rthridge  91324 
Northridge,Northridge CA 91325 ph: 818-924-9001,California,Northridge CA 91325 ,Northridge CA,CA,rthridge  91325 
Norwalk,Norwalk CA 90650 ph: 562-406-8870,California,Norwalk CA 90650 ,Norwalk CA,CA,rwalk  90650 
Norwalk,Norwalk CA 90650 ph: 562-409-5036,California,Norwalk CA 90650 ,Norwalk CA,CA,rwalk  90650 
Novato,Novato CA 94945 ph: 415-892-3313,California,Novato CA 94945 ,Novato CA,CA,vato  94945 
Oceanside,Oceanside CA 92054 ph: 760-967-8335,California,Oceanside CA 92054 ,Oceanside CA,CA,eanside  92054 
Ontario,Ontario CA 91764 ph: 909-579-3040,California,Ontario CA 91764 ,Ontario CA,CA,tario  91764 
Orange,Orange CA 92865 ph: 714-974-2800,California,Orange CA 92865 ,Orange CA,CA,ange  92865 
Oxnard West,Oxnard West CA 93036 ph: 805-288-3642,California,Oxnard West CA 93036 ,Oxnard West CA,CA,nard st  93036 
Pacoima,Pacoima CA 91331 ph: 818-896-8214,California,Pacoima CA 91331 ,Pacoima CA,CA,coima  91331 
Palm Desert,Palm Desert CA 92260 ph: 760-341-9307,California,Palm Desert CA 92260 ,Palm Desert CA,CA,lm sert  92260 
Palmdale,Palmdale CA 93552 ph: 661-998-2500,California,Palmdale CA 93552 ,Palmdale CA,CA,lmdale  93552 
Palmdale,Palmdale CA 93551 ph: 661-265-0906,California,Palmdale CA 93551 ,Palmdale CA,CA,lmdale  93551 
Pasadena,Pasadena CA 91107 ph: 626-584-2931,California,Pasadena CA 91107 ,Pasadena CA,CA,sadena  91107 
Pasadena,Pasadena CA 91101 ph: 626-584-1606,California,Pasadena CA 91101 ,Pasadena CA,CA,sadena  91101 
Paso Robles,Paso Robles CA 93446 ph: 805-227-0105,California,Paso Robles CA 93446 ,Paso Robles CA,CA,so bles  93446 
Pico Rivera,Pico Rivera CA 90660 ph: 562-949-6200,California,Pico Rivera CA 90660 ,Pico Rivera CA,CA,co vera  90660 
Pinole,Pinole CA 94564 ph: 510-222-0558,California,Pinole CA 94564 ,Pinole CA,CA,nole  94564 
Pittsburg,Pittsburg CA 94565 ph: 925-778-8950,California,Pittsburg CA 94565 ,Pittsburg CA,CA,ttsburg  94565 
Pleasant Hill,Pleasant Hill CA 94523 ph: 925-685-6069,California,Pleasant Hill CA 94523 ,Pleasant Hill CA,CA,easant ll  94523 
Porterville,Porterville CA 93257 ph: 559-719-2203,California,Porterville CA 93257 ,Porterville CA,CA,rterville  93257 
Poway,Poway CA 92064 ph: 858-679-8202,California,Poway CA 92064 ,Poway CA,CA,way  92064 
Rancho Cordova,Rancho Cordova CA 95670 ph: 916-503-2512,California,Rancho Cordova CA 95670 ,Rancho Cordova CA,CA,ncho rdova  95670 
Rancho Cucamonga,Rancho Cucamonga CA 91730 ph: 909-948-9952,California,Rancho Cucamonga CA 91730 ,Rancho Cucamonga CA,CA,ncho camonga  91730 
Rancho Santa Margarita,Rancho Santa Margarita CA 92688 ph: 949-459-1543,California,Rancho Santa Margarita CA 92688 ,Rancho Santa Margarita CA,CA,ncho nta rgarita  92688 
Redding,Redding CA 96003 ph: 530-223-0123,California,Redding CA 96003 ,Redding CA,CA,dding  96003 
Redlands,Redlands CA 92374 ph: 909-307-1602,California,Redlands CA 92374 ,Redlands CA,CA,dlands  92374 
Redondo Beach,Redondo Beach CA 90278 ph: 310-750-0003,California,Redondo Beach CA 90278 ,Redondo Beach CA,CA,dondo ach  90278 
Redwood City,Redwood City CA 94063 ph: 650-363-8940,California,Redwood City CA 94063 ,Redwood City CA,CA,dwood ty  94063 
Richmond,Richmond CA 94805 ph: 510-253-1000,California,Richmond CA 94805 ,Richmond CA,CA,chmond  94805 
Riverbank,Riverbank CA 95367 ph: 209-863-1270,California,Riverbank CA 95367 ,Riverbank CA,CA,verbank  95367 
Riverside,Riverside CA 92507 ph: 951-697-6778,California,Riverside CA 92507 ,Riverside CA,CA,verside  92507 
Riverside,Riverside CA 92506 ph: 951-784-6430,California,Riverside CA 92506 ,Riverside CA,CA,verside  92506 
Riverside,Riverside CA 92503 ph: 951-351-8271,California,Riverside CA 92503 ,Riverside CA,CA,verside  92503 
Rohnert Park,Rohnert Park CA 94928 ph: 707-586-2901,California,Rohnert Park CA 94928 ,Rohnert Park CA,CA,hnert rk  94928 
Rosemead,Rosemead CA 91770 ph: 626-280-8024,California,Rosemead CA 91770 ,Rosemead CA,CA,semead  91770 
Roseville,Roseville CA 95678 ph: 916-780-1020,California,Roseville CA 95678 ,Roseville CA,CA,seville  95678 
Roseville,Roseville CA 95661 ph: 916-786-8787,California,Roseville CA 95661 ,Roseville CA,CA,seville  95661 
Rowland Heights,Rowland Heights CA 91748 ph: 626-913-2880,California,Rowland Heights CA 91748 ,Rowland Heights CA,CA,wland ights  91748 
Sacramento,Sacramento CA 95825 ph: 916-483-6093,California,Sacramento CA 95825 ,Sacramento CA,CA,cramento  95825 
Sacramento,Sacramento CA 95818 ph: 916-444-0993,California,Sacramento CA 95818 ,Sacramento CA,CA,cramento  95818 
Sacramento,Sacramento CA 95834 ph: 916-576-0487,California,Sacramento CA 95834 ,Sacramento CA,CA,cramento  95834 
Sacramento,Sacramento CA 95841 ph: 916-348-3701,California,Sacramento CA 95841 ,Sacramento CA,CA,cramento  95841 
Sacramento,Sacramento CA 95817 ph: 916-503-3678,California,Sacramento CA 95817 ,Sacramento CA,CA,cramento  95817 
Sacramento,Sacramento CA 95823 ph: 916-525-3576,California,Sacramento CA 95823 ,Sacramento CA,CA,cramento  95823 
Salinas,Salinas CA 93906 ph: 831-442-0547,California,Salinas CA 93906 ,Salinas CA,CA,linas  93906 
San Bernardino,San Bernardino CA 92404 ph: 909-881-2671,California,San Bernardino CA 92404 ,San Bernardino CA,CA,n rnardino  92404 
San Bernardino,San Bernardino CA 92408 ph: 909-381-3391,California,San Bernardino CA 92408 ,San Bernardino CA,CA,n rnardino  92408 
San Bruno,San Bruno CA 94066 ph: 650-827-0171,California,San Bruno CA 94066 ,San Bruno CA,CA,n uno  94066 
San Clemente,San Clemente CA 92673 ph: 949-456-8668,California,San Clemente CA 92673 ,San Clemente CA,CA,n emente  92673 
San Diego,San Diego CA 92108 ph: 619-542-0025,California,San Diego CA 92108 ,San Diego CA,CA,n ego  92108 
San Diego,San Diego CA 92110 ph: 619-223-2491,California,San Diego CA 92110 ,San Diego CA,CA,n ego  92110 
San Diego,San Diego CA 92115 ph: 619-471-0025,California,San Diego CA 92115 ,San Diego CA,CA,n ego  92115 
San Diego,San Diego CA 92111 ph: 858-309-6564,California,San Diego CA 92111 ,San Diego CA,CA,n ego  92111 
San Diego,San Diego CA 92111 ph: 858-576-1570,California,San Diego CA 92111 ,San Diego CA,CA,n ego  92111 
San Diego,San Diego CA 92126 ph: 858-530-1901,California,San Diego CA 92126 ,San Diego CA,CA,n ego  92126 
San Dimas,San Dimas CA 91773 ph: 909-394-0335,California,San Dimas CA 91773 ,San Dimas CA,CA,n mas  91773 
San Jose,San Jose CA 95129 ph: 408-871-7984,California,San Jose CA 95129 ,San Jose CA,CA,n se  95129 
San Jose,San Jose CA 95122 ph: 408-273-0054,California,San Jose CA 95122 ,San Jose CA,CA,n se  95122 
San Jose,San Jose CA 95124 ph: 408-267-7900,California,San Jose CA 95124 ,San Jose CA,CA,n se  95124 
San Jose,San Jose CA 95132 ph: 408-946-6791,California,San Jose CA 95132 ,San Jose CA,CA,n se  95132 
San Jose,San Jose CA 95125 ph: 408-660-1703,California,San Jose CA 95125 ,San Jose CA,CA,n se  95125 
San Jose,San Jose CA 95121 ph: 408-238-7800,California,San Jose CA 95121 ,San Jose CA,CA,n se  95121 
San Jose,San Jose CA 95133 ph: 408-254-8931,California,San Jose CA 95133 ,San Jose CA,CA,n se  95133 
San Jose,San Jose CA 95110 ph: 408-346-2022,California,San Jose CA 95110 ,San Jose CA,CA,n se  95110 
San Jose,San Jose CA 95123 ph: 408-513-3002,California,San Jose CA 95123 ,San Jose CA,CA,n se  95123 
San Jose,San Jose CA 95134 ph: 408-834-1527,California,San Jose CA 95134 ,San Jose CA,CA,n se  95134 
San Leandro,San Leandro CA 94578 ph: 510-276-2699,California,San Leandro CA 94578 ,San Leandro CA,CA,n andro  94578 
San Luis Obispo,San Luis Obispo CA 93405 ph: 805-858-9902,California,San Luis Obispo CA 93405 ,San Luis Obispo CA,CA,n is ispo  93405 
San Mateo,San Mateo CA 94404 ph: 650-341-0734,California,San Mateo CA 94404 ,San Mateo CA,CA,n teo  94404 
San Pedro,San Pedro CA 90731 ph: 310-507-6289,California,San Pedro CA 90731 ,San Pedro CA,CA,n dro  90731 
San Ramon,San Ramon CA 94583 ph: 925-277-0202,California,San Ramon CA 94583 ,San Ramon CA,CA,n mon  94583 
Sand City,Sand City CA 93955 ph: 831-392-1990,California,Sand City CA 93955 ,Sand City CA,CA,nd ty  93955 
Santa Ana,Santa Ana CA 92705 ph: 714-541-4593,California,Santa Ana CA 92705 ,Santa Ana CA,CA,nta a  92705 
Santa Ana,Santa Ana CA 92706 ph: 714-481-0030,California,Santa Ana CA 92706 ,Santa Ana CA,CA,nta a  92706 
Santa Ana,Santa Ana CA 92704 ph: 714-641-4944,California,Santa Ana CA 92704 ,Santa Ana CA,CA,nta a  92704 
Santa Clarita,Santa Clarita CA 91387 ph: 661-977-5154,California,Santa Clarita CA 91387 ,Santa Clarita CA,CA,nta arita  91387 
Santa Fe Springs,Santa Fe Springs CA 90670 ph: 562-946-0851,California,Santa Fe Springs CA 90670 ,Santa Fe Springs CA,CA,nta  rings  90670 
Santa Maria,Santa Maria CA 93454 ph: 805-922-9904,California,Santa Maria CA 93454 ,Santa Maria CA,CA,nta ria  93454 
Santa Rosa,Santa Rosa CA 95407 ph: 707-575-0665,California,Santa Rosa CA 95407 ,Santa Rosa CA,CA,nta sa  95407 
Santee,Santee CA 92071 ph: 619-449-9790,California,Santee CA 92071 ,Santee CA,CA,ntee  92071 
Seal Beach,Seal Beach CA 90740 ph: 562-596-9887,California,Seal Beach CA 90740 ,Seal Beach CA,CA,al ach  90740 
Signal Hill,Signal Hill CA 90755 ph: 562-427-7751,California,Signal Hill CA 90755 ,Signal Hill CA,CA,gnal ll  90755 
Simi Valley,Simi Valley CA 93065 ph: 805-583-8933,California,Simi Valley CA 93065 ,Simi Valley CA,CA,mi lley  93065 
Simi Valley,Simi Valley CA 93065 ph: 805-416-5790,California,Simi Valley CA 93065 ,Simi Valley CA,CA,mi lley  93065 
South Gate,South Gate CA 90280 ph: 562-806-2911,California,South Gate CA 90280 ,South Gate CA,CA,uth te  90280 
Stockton,Stockton CA 95219 ph: 209-235-0251,California,Stockton CA 95219 ,Stockton CA,CA,ockton  95219 
Stockton,Stockton CA 95207 ph: 209-476-8081,California,Stockton CA 95207 ,Stockton CA,CA,ockton  95207 
Sunnyvale,Sunnyvale CA 94086 ph: 408-702-1012,California,Sunnyvale CA 94086 ,Sunnyvale CA,CA,nnyvale  94086 
Temecula,Temecula CA 92591 ph: 951-676-2668,California,Temecula CA 92591 ,Temecula CA,CA,mecula  92591 
Thousand Oaks,Thousand Oaks CA 91320 ph: 805-480-9114,California,Thousand Oaks CA 91320 ,Thousand Oaks CA,CA,ousand ks  91320 
Torrance,Torrance CA 90505 ph: 310-214-1561,California,Torrance CA 90505 ,Torrance CA,CA,rrance  90505 
Tracy,Tracy CA 95304 ph: 209-833-3494,California,Tracy CA 95304 ,Tracy CA,CA,acy  95304 
Tulare,Tulare CA 93274 ph: 559-631-1128,California,Tulare CA 93274 ,Tulare CA,CA,lare  93274 
Turlock,Turlock CA 95380 ph: 209-632-0132,California,Turlock CA 95380 ,Turlock CA,CA,rlock  95380 
Tustin,Tustin CA 92782 ph: 714-361-2100,California,Tustin CA 92782 ,Tustin CA,CA,stin  92782 
Upland,Upland CA 91784 ph: 909-985-0348,California,Upland CA 91784 ,Upland CA,CA,land  91784 
Vacaville,Vacaville CA 95687 ph: 707-452-8053,California,Vacaville CA 95687 ,Vacaville CA,CA,caville  95687 
Valencia,Valencia CA 91355 ph: 661-254-8001,California,Valencia CA 91355 ,Valencia CA,CA,lencia  91355 
Vallejo,Vallejo CA 94591 ph: 707-642-0419,California,Vallejo CA 94591 ,Vallejo CA,CA,llejo  94591 
Van Nuys,Van Nuys CA 91405 ph: 818-922-1001,California,Van Nuys CA 91405 ,Van Nuys CA,CA,n ys  91405 
Van Nuys,Van Nuys CA 91411 ph: 818-779-0163,California,Van Nuys CA 91411 ,Van Nuys CA,CA,n ys  91411 
Ventura,Ventura CA 93003 ph: 805-535-2752,California,Ventura CA 93003 ,Ventura CA,CA,ntura  93003 
Ventura,Ventura CA 93003 ph: 805-644-9871,California,Ventura CA 93003 ,Ventura CA,CA,ntura  93003 
Victorville,Victorville CA 92392 ph: 760-241-3357,California,Victorville CA 92392 ,Victorville CA,CA,ctorville  92392 
Visalia,Visalia CA 93291 ph: 559-302-1850,California,Visalia CA 93291 ,Visalia CA,CA,salia  93291 
Visalia,Visalia CA 93277 ph: 559-749-0740,California,Visalia CA 93277 ,Visalia CA,CA,salia  93277 
Vista,Vista CA 92083 ph: 760-941-0220,California,Vista CA 92083 ,Vista CA,CA,sta  92083 
Vista,Vista CA 92081 ph: 760-208-6111,California,Vista CA 92081 ,Vista CA,CA,sta  92081 
Walnut Creek,Walnut Creek CA 94596 ph: 925-979-0083,California,Walnut Creek CA 94596 ,Walnut Creek CA,CA,lnut eek  94596 
Watsonville,Watsonville CA 95076 ph: 831-761-9194,California,Watsonville CA 95076 ,Watsonville CA,CA,tsonville  95076 
West Covina,West Covina CA 91792 ph: 626-667-5400,California,West Covina CA 91792 ,West Covina CA,CA,st vina  91792 
West Covina,West Covina CA 91791 ph: 626-859-0221,California,West Covina CA 91791 ,West Covina CA,CA,st vina  91791 
West Hills,West Hills CA 91307 ph: 818-999-2390,California,West Hills CA 91307 ,West Hills CA,CA,st lls  91307 
West Hollywood,West Hollywood CA 90046 ph: 323-603-0004,California,West Hollywood CA 90046 ,West Hollywood CA,CA,st llywood  90046 
West Sacramento,West Sacramento CA 95691 ph: 916-384-0977,California,West Sacramento CA 95691 ,West Sacramento CA,CA,st cramento  95691 
Westminster,Westminster CA 92683 ph: 714-841-4449,California,Westminster CA 92683 ,Westminster CA,CA,stminster  92683 
Westminster,Westminster CA 92683 ph: 714-657-1351,California,Westminster CA 92683 ,Westminster CA,CA,stminster  92683 
Whittier,Whittier CA 90603 ph: 562-371-9003,California,Whittier CA 90603 ,Whittier CA,CA,ittier  90603 
Woodland,Woodland CA 95776 ph: 530-665-4148,California,Woodland CA 95776 ,Woodland CA,CA,odland  95776 
Woodland Hills,Woodland Hills CA 91364 ph: 818-713-2707,California,Woodland Hills CA 91364 ,Woodland Hills CA,CA,odland lls  91364 
Yuba City,Yuba City CA 95991 ph: 530-671-6881,California,Yuba City CA 95991 ,Yuba City CA,CA,ba ty  95991 
Arvada,Arvada CO 80003 ph: 303-425-0124,Colorado,Arvada CO 80003 ,Arvada CO,CO,vada  80003 
Aurora,Aurora CO 80012 ph: 303-755-8530,Colorado,Aurora CO 80012 ,Aurora CO,CO,rora  80012 
Aurora,Aurora CO 80012 ph: 303-214-0114,Colorado,Aurora CO 80012 ,Aurora CO,CO,rora  80012 
Aurora,Aurora CO 80016 ph: 720-214-6000,Colorado,Aurora CO 80016 ,Aurora CO,CO,rora  80016 
Aurora,Aurora CO 80015 ph: 303-699-1020,Colorado,Aurora CO 80015 ,Aurora CO,CO,rora  80015 
Aurora,Aurora CO 80016 ph: 303-209-2827,Colorado,Aurora CO 80016 ,Aurora CO,CO,rora  80016 
Boulder,Boulder CO 80301 ph: 303-449-3400,Colorado,Boulder CO 80301 ,Boulder CO,CO,ulder  80301 
Brighton,Brighton CO 80601 ph: 303-219-9055,Colorado,Brighton CO 80601 ,Brighton CO,CO,ighton  80601 
Castle Rock,Castle Rock CO 80108 ph: 303-663-4322,Colorado,Castle Rock CO 80108 ,Castle Rock CO,CO,stle ck  80108 
Colorado Springs,Colorado Springs CO 80906 ph: 719-540-2366,Colorado,Colorado Springs CO 80906 ,Colorado Springs CO,CO,lorado rings  80906 
Colorado Springs,Colorado Springs CO 80909 ph: 719-596-6220,Colorado,Colorado Springs CO 80909 ,Colorado Springs CO,CO,lorado rings  80909 
Colorado Springs,Colorado Springs CO 80922 ph: 719-574-4351,Colorado,Colorado Springs CO 80922 ,Colorado Springs CO,CO,lorado rings  80922 
Colorado Springs,Colorado Springs CO 80918 ph: 719-594-9600,Colorado,Colorado Springs CO 80918 ,Colorado Springs CO,CO,lorado rings  80918 
Colorado Springs,Colorado Springs CO 80924 ph: 719-302-4266,Colorado,Colorado Springs CO 80924 ,Colorado Springs CO,CO,lorado rings  80924 
Denver,Denver CO 80238 ph: 303-209-8720,Colorado,Denver CO 80238 ,Denver CO,CO,nver  80238 
Denver,Denver CO 80231 ph: 303-481-2821,Colorado,Denver CO 80231 ,Denver CO,CO,nver  80231 
Edgewater,Edgewater CO 80214 ph: 720-274-3665,Colorado,Edgewater CO 80214 ,Edgewater CO,CO,gewater  80214 
Englewood,Englewood CO 80112 ph: 303-790-2583,Colorado,Englewood CO 80112 ,Englewood CO,CO,glewood  80112 
Fort Collins,Fort Collins CO 80525 ph: 970-223-9100,Colorado,Fort Collins CO 80525 ,Fort Collins CO,CO,rt llins  80525 
Fort Collins,Fort Collins CO 80525 ph: 970-530-3120,Colorado,Fort Collins CO 80525 ,Fort Collins CO,CO,rt llins  80525 
Glendale,Glendale CO 80246 ph: 303-209-0182,Colorado,Glendale CO 80246 ,Glendale CO,CO,endale  80246 
Glenwood Springs,Glenwood Springs CO 81601 ph: 970-945-8006,Colorado,Glenwood Springs CO 81601 ,Glenwood Springs CO,CO,enwood rings  81601 
Grand Junction,Grand Junction CO 81505 ph: 970-245-8056,Colorado,Grand Junction CO 81505 ,Grand Junction CO,CO,and nction  81505 
Greeley,Greeley CO 80634 ph: 970-330-5443,Colorado,Greeley CO 80634 ,Greeley CO,CO,eeley  80634 
Highlands Ranch,Highlands Ranch CO 80129 ph: 303-323-4971,Colorado,Highlands Ranch CO 80129 ,Highlands Ranch CO,CO,ghlands nch  80129 
Highlands Ranch,Highlands Ranch CO 80126 ph: 303-797-1911,Colorado,Highlands Ranch CO 80126 ,Highlands Ranch CO,CO,ghlands nch  80126 
Lakewood,Lakewood CO 80401 ph: 303-273-9940,Colorado,Lakewood CO 80401 ,Lakewood CO,CO,kewood  80401 
Lakewood,Lakewood CO 80226 ph: 303-209-7749,Colorado,Lakewood CO 80226 ,Lakewood CO,CO,kewood  80226 
Littleton,Littleton CO 80123 ph: 720-922-1475,Colorado,Littleton CO 80123 ,Littleton CO,CO,ttleton  80123 
Lone Tree,Lone Tree CO 80124 ph: 303-209-1851,Colorado,Lone Tree CO 80124 ,Lone Tree CO,CO,ne ee  80124 
Longmont,Longmont CO 80501 ph: 720-864-4393,Colorado,Longmont CO 80501 ,Longmont CO,CO,ngmont  80501 
Loveland,Loveland CO 80538 ph: 970-669-5423,Colorado,Loveland CO 80538 ,Loveland CO,CO,veland  80538 
Montrose,Montrose CO 81401 ph: 970-497-8980,Colorado,Montrose CO 81401 ,Montrose CO,CO,ntrose  81401 
Parker,Parker CO 80134 ph: 303-209-0166,Colorado,Parker CO 80134 ,Parker CO,CO,rker  80134 
Pueblo,Pueblo CO 81008 ph: 719-545-5631,Colorado,Pueblo CO 81008 ,Pueblo CO,CO,eblo  81008 
Sheridan,Sheridan CO 80110 ph: 303-974-6661,Colorado,Sheridan CO 80110 ,Sheridan CO,CO,eridan  80110 
Silverthorne,Silverthorne CO 80497 ph: 970-468-2268,Colorado,Silverthorne CO 80497 ,Silverthorne CO,CO,lverthorne  80497 
Superior,Superior CO 80027 ph: 303-209-0106,Colorado,Superior CO 80027 ,Superior CO,CO,perior  80027 
Thornton,Thornton CO 80233 ph: 303-280-0400,Colorado,Thornton CO 80233 ,Thornton CO,CO,ornton  80233 
Westminster,Westminster CO 80021 ph: 303-410-8310,Colorado,Westminster CO 80021 ,Westminster CO,CO,stminster  80021 
Westminster,Westminster CO 80023 ph: 303-209-0163,Colorado,Westminster CO 80023 ,Westminster CO,CO,stminster  80023 
Wheat Ridge,Wheat Ridge CO 80033 ph: 303-209-1848,Colorado,Wheat Ridge CO 80033 ,Wheat Ridge CO,CO,eat dge  80033 
Ansonia,Ansonia CT 06401 ph: 203-278-5055,Connecticut,Ansonia CT 06401 ,Ansonia CT,CT,sonia  06401 
Bethel,Bethel CT 06801 ph: 203-448-1029,Connecticut,Bethel CT 06801 ,Bethel CT,CT,thel  06801 
Dayville,Dayville CT 06241 ph: 860-412-1283,Connecticut,Dayville CT 06241 ,Dayville CT,CT,yville  06241 
Enfield,Enfield CT 06082 ph: 860-741-2676,Connecticut,Enfield CT 06082 ,Enfield CT,CT,field  06082 
Lisbon,Lisbon CT 06351 ph: 860-823-2960,Connecticut,Lisbon CT 06351 ,Lisbon CT,CT,sbon  06351 
Manchester,Manchester CT 06042 ph: 860-327-0082,Connecticut,Manchester CT 06042 ,Manchester CT,CT,nchester  06042 
Meriden,Meriden CT 06451 ph: 203-634-6049,Connecticut,Meriden CT 06451 ,Meriden CT,CT,riden  06451 
Milford,Milford CT 06460 ph: 203-306-5063,Connecticut,Milford CT 06460 ,Milford CT,CT,lford  06460 
New Britain,New Britain CT 06053 ph: 860-348-9100,Connecticut,New Britain CT 06053 ,New Britain CT,CT,w itain  06053 
Newington,Newington CT 06111 ph: 860-616-0022,Connecticut,Newington CT 06111 ,Newington CT,CT,wington  06111 
North Haven,North Haven CT 06473 ph: 203-859-3490,Connecticut,North Haven CT 06473 ,North Haven CT,CT,rth ven  06473 
Orange,Orange CT 06477 ph: 203-859-3694,Connecticut,Orange CT 06477 ,Orange CT,CT,ange  06477 
Southington,Southington CT 06489 ph: 860-406-6754,Connecticut,Southington CT 06489 ,Southington CT,CT,uthington  06489 
Stamford,Stamford CT 06901 ph: 203-388-0006,Connecticut,Stamford CT 06901 ,Stamford CT,CT,amford  06901 
Torrington,Torrington CT 06790 ph: 860-618-4007,Connecticut,Torrington CT 06790 ,Torrington CT,CT,rrington  06790 
Trumbull,Trumbull CT 06611 ph: 203-455-0102,Connecticut,Trumbull CT 06611 ,Trumbull CT,CT,umbull  06611 
Trumbull,Trumbull CT 06611 ph: 203-873-2013,Connecticut,Trumbull CT 06611 ,Trumbull CT,CT,umbull  06611 
Waterbury,Waterbury CT 06704 ph: 203-437-3673,Connecticut,Waterbury CT 06704 ,Waterbury CT,CT,terbury  06704 
Waterford,Waterford CT 06385 ph: 860-442-3300,Connecticut,Waterford CT 06385 ,Waterford CT,CT,terford  06385 
Windsor,Windsor CT 06095 ph: 860-907-3068,Connecticut,Windsor CT 06095 ,Windsor CT,CT,ndsor  06095 
Dover,Dover DE 19901 ph: 302-741-0434,Delaware,Dover DE 19901 ,Dover DE,DE,ver  19901 
Newark,Newark DE 19702 ph: 302-669-4009,Delaware,Newark DE 19702 ,Newark DE,DE,wark  19702 
Wilmington,Wilmington DE 19803 ph: 302-478-2500,Delaware,Wilmington DE 19803 ,Wilmington DE,DE,lmington  19803 
Altamonte Springs,Altamonte Springs FL 32714 ph: 407-788-7377,Florida,Altamonte Springs FL 32714 ,Altamonte Springs FL,FL,tamonte rings  32714 
Aventura,Aventura FL 33180 ph: 305-933-4616,Florida,Aventura FL 33180 ,Aventura FL,FL,entura  33180 
Boca Raton,Boca Raton FL 33428 ph: 561-483-3400,Florida,Boca Raton FL 33428 ,Boca Raton FL,FL,ca ton  33428 
Boynton Beach,Boynton Beach FL 33437 ph: 561-536-0261,Florida,Boynton Beach FL 33437 ,Boynton Beach FL,FL,ynton ach  33437 
Boynton Beach,Boynton Beach FL 33426 ph: 561-396-2202,Florida,Boynton Beach FL 33426 ,Boynton Beach FL,FL,ynton ach  33426 
Bradenton,Bradenton FL 34207 ph: 941-756-2700,Florida,Bradenton FL 34207 ,Bradenton FL,FL,adenton  34207 
Brandon,Brandon FL 33511 ph: 813-654-4955,Florida,Brandon FL 33511 ,Brandon FL,FL,andon  33511 
Cape Coral,Cape Coral FL 33909 ph: 239-829-2639,Florida,Cape Coral FL 33909 ,Cape Coral FL,FL,pe ral  33909 
Cape Coral,Cape Coral FL 33914 ph: 239-458-5868,Florida,Cape Coral FL 33914 ,Cape Coral FL,FL,pe ral  33914 
Casselberry,Casselberry FL 32707 ph: 407-830-7979,Florida,Casselberry FL 32707 ,Casselberry FL,FL,sselberry  32707 
Clearwater,Clearwater FL 33759 ph: 727-431-0231,Florida,Clearwater FL 33759 ,Clearwater FL,FL,earwater  33759 
Clermont,Clermont FL 34711 ph: 352-394-8510,Florida,Clermont FL 34711 ,Clermont FL,FL,ermont  34711 
Coral Springs,Coral Springs FL 33073 ph: 954-366-2134,Florida,Coral Springs FL 33073 ,Coral Springs FL,FL,ral rings  33073 
Coral Springs,Coral Springs FL 33076 ph: 954-282-5000,Florida,Coral Springs FL 33076 ,Coral Springs FL,FL,ral rings  33076 
Davenport,Davenport FL 33837 ph: 863-256-1051,Florida,Davenport FL 33837 ,Davenport FL,FL,venport  33837 
Davie,Davie FL 33328 ph: 954-377-0041,Florida,Davie FL 33328 ,Davie FL,FL,vie  33328 
Daytona Beach,Daytona Beach FL 32114 ph: 386-257-4778,Florida,Daytona Beach FL 32114 ,Daytona Beach FL,FL,ytona ach  32114 
Deerfield Beach,Deerfield Beach FL 33441 ph: 954-428-4970,Florida,Deerfield Beach FL 33441 ,Deerfield Beach FL,FL,erfield ach  33441 
Deerfield Beach,Deerfield Beach FL 33442 ph: 954-333-5214,Florida,Deerfield Beach FL 33442 ,Deerfield Beach FL,FL,erfield ach  33442 
Delray Beach,Delray Beach FL 33444 ph: 561-265-3500,Florida,Delray Beach FL 33444 ,Delray Beach FL,FL,lray ach  33444 
Destin,Destin FL 32541 ph: 850-650-7525,Florida,Destin FL 32541 ,Destin FL,FL,stin  32541 
Estero,Estero FL 33928 ph: 239-495-4920,Florida,Estero FL 33928 ,Estero FL,FL,tero  33928 
Fort Lauderdale,Fort Lauderdale FL 33306 ph: 954-390-7992,Florida,Fort Lauderdale FL 33306 ,Fort Lauderdale FL,FL,rt uderdale  33306 
Fort Myers,Fort Myers FL 33913 ph: 239-432-2641,Florida,Fort Myers FL 33913 ,Fort Myers FL,FL,rt ers  33913 
Fort Myers,Fort Myers FL 33912 ph: 239-481-8860,Florida,Fort Myers FL 33912 ,Fort Myers FL,FL,rt ers  33912 
Ft Myers,Ft Myers FL 33908 ph: 239-265-9002,Florida,Ft Myers FL 33908 ,Ft Myers FL,FL, ers  33908 
Ft Myers,Ft Myers FL 33905 ph: 239-265-9022,Florida,Ft Myers FL 33905 ,Ft Myers FL,FL, ers  33905 
Gainesville,Gainesville FL 32608 ph: 352-376-5260,Florida,Gainesville FL 32608 ,Gainesville FL,FL,inesville  32608 
Greenacres,Greenacres FL 33463 ph: 561-963-3382,Florida,Greenacres FL 33463 ,Greenacres FL,FL,eenacres  33463 
Hialeah,Hialeah FL 33012 ph: 305-507-0014,Florida,Hialeah FL 33012 ,Hialeah FL,FL,aleah  33012 
Hollywood,Hollywood FL 33021 ph: 954-963-1200,Florida,Hollywood FL 33021 ,Hollywood FL,FL,llywood  33021 
Jacksonville,Jacksonville FL 32257 ph: 904-268-4334,Florida,Jacksonville FL 32257 ,Jacksonville FL,FL,cksonville  32257 
Jacksonville,Jacksonville FL 32224 ph: 904-248-4363,Florida,Jacksonville FL 32224 ,Jacksonville FL,FL,cksonville  32224 
Jacksonville,Jacksonville FL 32225 ph: 904-721-4909,Florida,Jacksonville FL 32225 ,Jacksonville FL,FL,cksonville  32225 
Jacksonville,Jacksonville FL 32246 ph: 904-596-0020,Florida,Jacksonville FL 32246 ,Jacksonville FL,FL,cksonville  32246 
Jacksonville,Jacksonville FL 32244 ph: 904-596-1065,Florida,Jacksonville FL 32244 ,Jacksonville FL,FL,cksonville  32244 
Jacksonville,Jacksonville FL 32256 ph: 904-464-0043,Florida,Jacksonville FL 32256 ,Jacksonville FL,FL,cksonville  32256 
Jacksonville,Jacksonville FL 32222 ph: 904-248-4366,Florida,Jacksonville FL 32222 ,Jacksonville FL,FL,cksonville  32222 
Jacksonville Beach,Jacksonville Beach FL 32250 ph: 904-273-5581,Florida,Jacksonville Beach FL 32250 ,Jacksonville Beach FL,FL,cksonville ach  32250 
Kissimmee,Kissimmee FL 34741 ph: 407-846-6611,Florida,Kissimmee FL 34741 ,Kissimmee FL,FL,ssimmee  34741 
Kissimmee,Kissimmee FL 34747 ph: 321-677-3971,Florida,Kissimmee FL 34747 ,Kissimmee FL,FL,ssimmee  34747 
Kissimmee,Kissimmee FL 34746 ph: 407-594-0029,Florida,Kissimmee FL 34746 ,Kissimmee FL,FL,ssimmee  34746 
Lake Mary,Lake Mary FL 32746 ph: 407-330-9330,Florida,Lake Mary FL 32746 ,Lake Mary FL,FL,ke ry  32746 
Lake Park,Lake Park FL 33403 ph: 561-352-2098,Florida,Lake Park FL 33403 ,Lake Park FL,FL,ke rk  33403 
Lake Worth,Lake Worth FL 33449 ph: 561-273-8259,Florida,Lake Worth FL 33449 ,Lake Worth FL,FL,ke rth  33449 
Lakeland,Lakeland FL 33803 ph: 863-648-4412,Florida,Lakeland FL 33803 ,Lakeland FL,FL,keland  33803 
Lakeland,Lakeland FL 33809 ph: 863-859-1622,Florida,Lakeland FL 33809 ,Lakeland FL,FL,keland  33809 
Largo,Largo FL 33771 ph: 727-581-6000,Florida,Largo FL 33771 ,Largo FL,FL,rgo  33771 
Lauderhill,Lauderhill FL 33351 ph: 954-572-6724,Florida,Lauderhill FL 33351 ,Lauderhill FL,FL,uderhill  33351 
Leesburg,Leesburg FL 34788 ph: 352-360-1100,Florida,Leesburg FL 34788 ,Leesburg FL,FL,esburg  34788 
Lutz,Lutz FL 33548 ph: 813-435-2933,Florida,Lutz FL 33548 ,Lutz FL,FL,tz  33548 
Mary Esther,Mary Esther FL 32569 ph: 850-243-4188,Florida,Mary Esther FL 32569 ,Mary Esther FL,FL,ry ther  32569 
Melbourne Village,Melbourne Village FL 32904 ph: 321-727-3238,Florida,Melbourne Village FL 32904 ,Melbourne Village FL,FL,lbourne llage  32904 
Merritt Island,Merritt Island FL 32953 ph: 321-452-1014,Florida,Merritt Island FL 32953 ,Merritt Island FL,FL,rritt land  32953 
Miami,Miami FL 33196 ph: 305-386-1244,Florida,Miami FL 33196 ,Miami FL,FL,ami  33196 
Miami,Miami FL 33189 ph: 305-235-0839,Florida,Miami FL 33189 ,Miami FL,FL,ami  33189 
Miami,Miami FL 33127 ph: 786-437-0164,Florida,Miami FL 33127 ,Miami FL,FL,ami  33127 
Miami,Miami FL 33155 ph: 305-262-5767,Florida,Miami FL 33155 ,Miami FL,FL,ami  33155 
Miami,Miami FL 33143 ph: 305-668-0262,Florida,Miami FL 33143 ,Miami FL,FL,ami  33143 
Miami Gardens,Miami Gardens FL 33055 ph: 305-760-7008,Florida,Miami Gardens FL 33055 ,Miami Gardens FL,FL,ami rdens  33055 
Miramar,Miramar FL 33027 ph: 954-435-2571,Florida,Miramar FL 33027 ,Miramar FL,FL,ramar  33027 
Mount Dora,Mount Dora FL 32757 ph: 352-385-0516,Florida,Mount Dora FL 32757 ,Mount Dora FL,FL,unt ra  32757 
Naples,Naples FL 34109 ph: 239-435-0051,Florida,Naples FL 34109 ,Naples FL,FL,ples  34109 
Naples,Naples FL 34119 ph: 239-552-1100,Florida,Naples FL 34119 ,Naples FL,FL,ples  34119 
North Miami Beach,North Miami Beach FL 33181 ph: 305-944-5341,Florida,North Miami Beach FL 33181 ,North Miami Beach FL,FL,rth ami ach  33181 
Ocala,Ocala FL 34471 ph: 352-629-1333,Florida,Ocala FL 34471 ,Ocala FL,FL,ala  34471 
Odessa,Odessa FL 33556 ph: 813-383-0010,Florida,Odessa FL 33556 ,Odessa FL,FL,essa  33556 
Orange City,Orange City FL 32763 ph: 386-774-5574,Florida,Orange City FL 32763 ,Orange City FL,FL,ange ty  32763 
Orange Park,Orange Park FL 32003 ph: 904-278-8652,Florida,Orange Park FL 32003 ,Orange Park FL,FL,ange rk  32003 
Orange Park,Orange Park FL 32073 ph: 904-264-2748,Florida,Orange Park FL 32073 ,Orange Park FL,FL,ange rk  32073 
Orlando,Orlando FL 32806 ph: 407-608-1580,Florida,Orlando FL 32806 ,Orlando FL,FL,lando  32806 
Orlando,Orlando FL 32837 ph: 407-251-5133,Florida,Orlando FL 32837 ,Orlando FL,FL,lando  32837 
Orlando,Orlando FL 32828 ph: 407-482-8155,Florida,Orlando FL 32828 ,Orlando FL,FL,lando  32828 
Orlando,Orlando FL 32839 ph: 407-541-0019,Florida,Orlando FL 32839 ,Orlando FL,FL,lando  32839 
Orlando,Orlando FL 32803 ph: 407-896-0401,Florida,Orlando FL 32803 ,Orlando FL,FL,lando  32803 
Orlando,Orlando FL 32809 ph: 407-856-5459,Florida,Orlando FL 32809 ,Orlando FL,FL,lando  32809 
Oviedo,Oviedo FL 32765 ph: 407-366-5900,Florida,Oviedo FL 32765 ,Oviedo FL,FL,iedo  32765 
Pace,Pace FL 32571 ph: 850-995-7820,Florida,Pace FL 32571 ,Pace FL,FL,ce  32571 
Palm Coast,Palm Coast FL 32164 ph: 386-313-3951,Florida,Palm Coast FL 32164 ,Palm Coast FL,FL,lm ast  32164 
Palm Harbor,Palm Harbor FL 34685 ph: 727-786-6969,Florida,Palm Harbor FL 34685 ,Palm Harbor FL,FL,lm rbor  34685 
Panama City,Panama City FL 32405 ph: 850-785-8966,Florida,Panama City FL 32405 ,Panama City FL,FL,nama ty  32405 
Panama City Beach,Panama City Beach FL 32413 ph: 850-236-3720,Florida,Panama City Beach FL 32413 ,Panama City Beach FL,FL,nama ty ach  32413 
Pembroke Pines,Pembroke Pines FL 33026 ph: 954-435-3161,Florida,Pembroke Pines FL 33026 ,Pembroke Pines FL,FL,mbroke nes  33026 
Pensacola,Pensacola FL 32514 ph: 850-473-8647,Florida,Pensacola FL 32514 ,Pensacola FL,FL,nsacola  32514 
Pensacola,Pensacola FL 32506 ph: 850-454-3000,Florida,Pensacola FL 32506 ,Pensacola FL,FL,nsacola  32506 
Pensacola,Pensacola FL 32503 ph: 850-494-9070,Florida,Pensacola FL 32503 ,Pensacola FL,FL,nsacola  32503 
Pinellas Park,Pinellas Park FL 33781 ph: 727-803-0022,Florida,Pinellas Park FL 33781 ,Pinellas Park FL,FL,nellas rk  33781 
Plantation,Plantation FL 33324 ph: 954-377-0085,Florida,Plantation FL 33324 ,Plantation FL,FL,antation  33324 
Port Charlotte,Port Charlotte FL 33948 ph: 941-255-1181,Florida,Port Charlotte FL 33948 ,Port Charlotte FL,FL,rt arlotte  33948 
Port Orange,Port Orange FL 32127 ph: 386-322-1348,Florida,Port Orange FL 32127 ,Port Orange FL,FL,rt ange  32127 
Port St Lucie,Port St Lucie FL 34987 ph: 772-293-6152,Florida,Port St Lucie FL 34987 ,Port St Lucie FL,FL,rt  cie  34987 
Riverview,Riverview FL 33578 ph: 813-387-1161,Florida,Riverview FL 33578 ,Riverview FL,FL,verview  33578 
Saint Augustine,Saint Augustine FL 32084 ph: 904-810-2336,Florida,Saint Augustine FL 32084 ,Saint Augustine FL,FL,int gustine  32084 
Saint Petersburg,Saint Petersburg FL 33709 ph: 727-548-0400,Florida,Saint Petersburg FL 33709 ,Saint Petersburg FL,FL,int tersburg  33709 
Saint Petersburg,Saint Petersburg FL 33702 ph: 727-576-2735,Florida,Saint Petersburg FL 33702 ,Saint Petersburg FL,FL,int tersburg  33702 
Sanford,Sanford FL 32771 ph: 407-547-0007,Florida,Sanford FL 32771 ,Sanford FL,FL,nford  32771 
Sarasota,Sarasota FL 34243 ph: 941-360-7520,Florida,Sarasota FL 34243 ,Sarasota FL,FL,rasota  34243 
Sarasota,Sarasota FL 34232 ph: 941-379-6660,Florida,Sarasota FL 34232 ,Sarasota FL,FL,rasota  34232 
Sarasota,Sarasota FL 34238 ph: 941-925-3377,Florida,Sarasota FL 34238 ,Sarasota FL,FL,rasota  34238 
Spring Hill,Spring Hill FL 34604 ph: 352-593-2168,Florida,Spring Hill FL 34604 ,Spring Hill FL,FL,ring ll  34604 
Spring Hill,Spring Hill FL 34606 ph: 352-596-1411,Florida,Spring Hill FL 34606 ,Spring Hill FL,FL,ring ll  34606 
Stuart,Stuart FL 34994 ph: 772-692-3388,Florida,Stuart FL 34994 ,Stuart FL,FL,uart  34994 
Sunrise,Sunrise FL 33323 ph: 954-846-2600,Florida,Sunrise FL 33323 ,Sunrise FL,FL,nrise  33323 
Tallahassee,Tallahassee FL 32301 ph: 850-671-2041,Florida,Tallahassee FL 32301 ,Tallahassee FL,FL,llahassee  32301 
Tallahassee,Tallahassee FL 32309 ph: 850-894-3213,Florida,Tallahassee FL 32309 ,Tallahassee FL,FL,llahassee  32309 
Tampa,Tampa FL 33635 ph: 813-749-5961,Florida,Tampa FL 33635 ,Tampa FL,FL,mpa  33635 
Tampa,Tampa FL 33613 ph: 813-972-3396,Florida,Tampa FL 33613 ,Tampa FL,FL,mpa  33613 
Tampa,Tampa FL 33618 ph: 813-962-2281,Florida,Tampa FL 33618 ,Tampa FL,FL,mpa  33618 
Tampa,Tampa FL 33607 ph: 813-262-0244,Florida,Tampa FL 33607 ,Tampa FL,FL,mpa  33607 
Tampa,Tampa FL 33611 ph: 813-835-8333,Florida,Tampa FL 33611 ,Tampa FL,FL,mpa  33611 
Tampa,Tampa FL 33634 ph: 813-885-2311,Florida,Tampa FL 33634 ,Tampa FL,FL,mpa  33634 
The Villages,The Villages FL 32159 ph: 352-205-8934,Florida,The Villages FL 32159 ,The Villages FL,FL,e llages  32159 
Titusville,Titusville FL 32780 ph: 321-360-1086,Florida,Titusville FL 32780 ,Titusville FL,FL,tusville  32780 
Trinity,Trinity FL 34655 ph: 727-376-2140,Florida,Trinity FL 34655 ,Trinity FL,FL,inity  34655 
Venice,Venice FL 34293 ph: 941-492-9224,Florida,Venice FL 34293 ,Venice FL,FL,nice  34293 
Vero Beach,Vero Beach FL 32966 ph: 772-778-0376,Florida,Vero Beach FL 32966 ,Vero Beach FL,FL,ro ach  32966 
Viera,Viera FL 32940 ph: 321-242-9631,Florida,Viera FL 32940 ,Viera FL,FL,era  32940 
Wesley Chapel,Wesley Chapel FL 33543 ph: 813-907-6687,Florida,Wesley Chapel FL 33543 ,Wesley Chapel FL,FL,sley apel  33543 
West Melbourne,West Melbourne FL 32904 ph: 321-821-7340,Florida,West Melbourne FL 32904 ,West Melbourne FL,FL,st lbourne  32904 
West Palm Beach,West Palm Beach FL 33411 ph: 561-204-2349,Florida,West Palm Beach FL 33411 ,West Palm Beach FL,FL,st lm ach  33411 
West Palm Beach,West Palm Beach FL 33401 ph: 561-847-7480,Florida,West Palm Beach FL 33401 ,West Palm Beach FL,FL,st lm ach  33401 
Winter Garden,Winter Garden FL 34787 ph: 407-395-0111,Florida,Winter Garden FL 34787 ,Winter Garden FL,FL,nter rden  34787 
Winter Park,Winter Park FL 32792 ph: 407-670-0388,Florida,Winter Park FL 32792 ,Winter Park FL,FL,nter rk  32792 
Yulee,Yulee FL 32097 ph: 904-548-1240,Florida,Yulee FL 32097 ,Yulee FL,FL,lee  32097 
Acworth,Acworth GA 30101 ph: 678-202-0996,Georgia,Acworth GA 30101 ,Acworth GA,GA,worth  30101 
Albany,Albany GA 31707 ph: 229-888-1333,Georgia,Albany GA 31707 ,Albany GA,GA,bany  31707 
Alpharetta,Alpharetta GA 30022 ph: 678-775-7620,Georgia,Alpharetta GA 30022 ,Alpharetta GA,GA,pharetta  30022 
Alpharetta,Alpharetta GA 30022 ph: 770-664-5395,Georgia,Alpharetta GA 30022 ,Alpharetta GA,GA,pharetta  30022 
Athens,Athens GA 30606 ph: 706-208-9379,Georgia,Athens GA 30606 ,Athens GA,GA,hens  30606 
Atlanta,Atlanta GA 30346 ph: 678-259-0888,Georgia,Atlanta GA 30346 ,Atlanta GA,GA,lanta  30346 
Atlanta,Atlanta GA 30307 ph: 404-260-0200,Georgia,Atlanta GA 30307 ,Atlanta GA,GA,lanta  30307 
Atlanta,Atlanta GA 30329 ph: 404-267-0060,Georgia,Atlanta GA 30329 ,Atlanta GA,GA,lanta  30329 
Atlanta,Atlanta GA 30324 ph: 404-720-1081,Georgia,Atlanta GA 30324 ,Atlanta GA,GA,lanta  30324 
Atlanta,Atlanta GA 30326 ph: 404-237-9494,Georgia,Atlanta GA 30326 ,Atlanta GA,GA,lanta  30326 
Atlanta,Atlanta GA 30363 ph: 678-954-4265,Georgia,Atlanta GA 30363 ,Atlanta GA,GA,lanta  30363 
Augusta,Augusta GA 30909 ph: 706-667-6368,Georgia,Augusta GA 30909 ,Augusta GA,GA,gusta  30909 
Austell,Austell GA 30106 ph: 678-945-4550,Georgia,Austell GA 30106 ,Austell GA,GA,stell  30106 
Bethlehem,Bethlehem GA 30620 ph: 678-975-3060,Georgia,Bethlehem GA 30620 ,Bethlehem GA,GA,thlehem  30620 
Brunswick,Brunswick GA 31525 ph: 912-261-4868,Georgia,Brunswick GA 31525 ,Brunswick GA,GA,unswick  31525 
Buford,Buford GA 30519 ph: 678-482-2367,Georgia,Buford GA 30519 ,Buford GA,GA,ford  30519 
Canton,Canton GA 30114 ph: 678-880-4311,Georgia,Canton GA 30114 ,Canton GA,GA,nton  30114 
Carrollton,Carrollton GA 30117 ph: 770-838-9221,Georgia,Carrollton GA 30117 ,Carrollton GA,GA,rrollton  30117 
Cartersville,Cartersville GA 30121 ph: 770-387-9595,Georgia,Cartersville GA 30121 ,Cartersville GA,GA,rtersville  30121 
Columbus,Columbus GA 31904 ph: 706-321-0831,Georgia,Columbus GA 31904 ,Columbus GA,GA,lumbus  31904 
Conyers,Conyers GA 30013 ph: 770-785-6470,Georgia,Conyers GA 30013 ,Conyers GA,GA,nyers  30013 
Cumming,Cumming GA 30041 ph: 678-455-9618,Georgia,Cumming GA 30041 ,Cumming GA,GA,mming  30041 
Douglasville,Douglasville GA 30135 ph: 770-947-5303,Georgia,Douglasville GA 30135 ,Douglasville GA,GA,uglasville  30135 
Duluth,Duluth GA 30097 ph: 770-476-5548,Georgia,Duluth GA 30097 ,Duluth GA,GA,luth  30097 
East Point,East Point GA 30344 ph: 404-267-0063,Georgia,East Point GA 30344 ,East Point GA,GA,st int  30344 
Evans,Evans GA 30809 ph: 706-210-8591,Georgia,Evans GA 30809 ,Evans GA,GA,ans  30809 
Fayetteville,Fayetteville GA 30214 ph: 770-719-9766,Georgia,Fayetteville GA 30214 ,Fayetteville GA,GA,yetteville  30214 
Flowery Branch,Flowery Branch GA 30542 ph: 770-967-1205,Georgia,Flowery Branch GA 30542 ,Flowery Branch GA,GA,owery anch  30542 
Gainesville,Gainesville GA 30504 ph: 770-532-6670,Georgia,Gainesville GA 30504 ,Gainesville GA,GA,inesville  30504 
Hiram,Hiram GA 30141 ph: 678-567-0142,Georgia,Hiram GA 30141 ,Hiram GA,GA,ram  30141 
Kennesaw,Kennesaw GA 30144 ph: 770-425-6895,Georgia,Kennesaw GA 30144 ,Kennesaw GA,GA,nnesaw  30144 
Lawrenceville,Lawrenceville GA 30043 ph: 770-338-4460,Georgia,Lawrenceville GA 30043 ,Lawrenceville GA,GA,wrenceville  30043 
Lithonia,Lithonia GA 30038 ph: 678-259-0046,Georgia,Lithonia GA 30038 ,Lithonia GA,GA,thonia  30038 
Macon,Macon GA 31206 ph: 478-405-0273,Georgia,Macon GA 31206 ,Macon GA,GA,con  31206 
Marietta,Marietta GA 30062 ph: 770-240-0005,Georgia,Marietta GA 30062 ,Marietta GA,GA,rietta  30062 
Marietta,Marietta GA 30064 ph: 770-792-7933,Georgia,Marietta GA 30064 ,Marietta GA,GA,rietta  30064 
Marietta,Marietta GA 30062 ph: 770-321-8545,Georgia,Marietta GA 30062 ,Marietta GA,GA,rietta  30062 
Mcdonough,Mcdonough GA 30253 ph: 678-583-2184,Georgia,Mcdonough GA 30253 ,Mcdonough GA,GA,donough  30253 
Milton,Milton GA 30004 ph: 770-225-1780,Georgia,Milton GA 30004 ,Milton GA,GA,lton  30004 
Morrow,Morrow GA 30260 ph: 770-472-3355,Georgia,Morrow GA 30260 ,Morrow GA,GA,rrow  30260 
Newnan,Newnan GA 30265 ph: 770-502-0294,Georgia,Newnan GA 30265 ,Newnan GA,GA,wnan  30265 
Norcross,Norcross GA 30092 ph: 770-849-0885,Georgia,Norcross GA 30092 ,Norcross GA,GA,rcross  30092 
Peachtree City,Peachtree City GA 30269 ph: 770-282-2165,Georgia,Peachtree City GA 30269 ,Peachtree City GA,GA,achtree ty  30269 
Roswell,Roswell GA 30075 ph: 770-998-0144,Georgia,Roswell GA 30075 ,Roswell GA,GA,swell  30075 
Sandy Springs,Sandy Springs GA 30342 ph: 678-704-8120,Georgia,Sandy Springs GA 30342 ,Sandy Springs GA,GA,ndy rings  30342 
Savannah,Savannah GA 31419 ph: 912-925-2667,Georgia,Savannah GA 31419 ,Savannah GA,GA,vannah  31419 
Savannah,Savannah GA 31404 ph: 912-644-1600,Georgia,Savannah GA 31404 ,Savannah GA,GA,vannah  31404 
Smyrna,Smyrna GA 30080 ph: 770-952-2241,Georgia,Smyrna GA 30080 ,Smyrna GA,GA,yrna  30080 
Snellville,Snellville GA 30078 ph: 770-736-1113,Georgia,Snellville GA 30078 ,Snellville GA,GA,ellville  30078 
Suwanee,Suwanee GA 30024 ph: 678-513-8013,Georgia,Suwanee GA 30024 ,Suwanee GA,GA,wanee  30024 
Tucker,Tucker GA 30084 ph: 770-270-5375,Georgia,Tucker GA 30084 ,Tucker GA,GA,cker  30084 
Valdosta,Valdosta GA 31601 ph: 229-242-0330,Georgia,Valdosta GA 31601 ,Valdosta GA,GA,ldosta  31601 
Warner Robins,Warner Robins GA 31093 ph: 478-971-2141,Georgia,Warner Robins GA 31093 ,Warner Robins GA,GA,rner bins  31093 
Woodstock,Woodstock GA 30189 ph: 678-494-5307,Georgia,Woodstock GA 30189 ,Woodstock GA,GA,odstock  30189 
Hilo,Hilo HI 96720 ph: 808-920-8605,Hawaii,Hilo HI 96720 ,Hilo HI,HI,lo  96720 
Honolulu,Honolulu HI 96818 ph: 808-441-3118,Hawaii,Honolulu HI 96818 ,Honolulu HI,HI,nolulu  96818 
Kailua-Kona,Kailua-Kona HI 96740 ph: 808-334-4020,Hawaii,Kailua-Kona HI 96740 ,Kailua-Kona HI,HI,ilua-na  96740 
Kapolei,Kapolei HI 96707 ph: 808-457-3679,Hawaii,Kapolei HI 96707 ,Kapolei HI,HI,polei  96707 
Boise,Boise ID 83713 ph: 208-938-8350,Idaho,Boise ID 83713 ,Boise ID,ID,ise  83713 
Boise,Boise ID 83704 ph: 208-375-3275,Idaho,Boise ID 83704 ,Boise ID,ID,ise  83704 
Coeur D Alene,Coeur D Alene ID 83815 ph: 208-772-7523,Idaho,Coeur D Alene ID 83815 ,Coeur D Alene ID,ID,eur ene  83815 
Idaho Falls,Idaho Falls ID 83406 ph: 208-535-2285,Idaho,Idaho Falls ID 83406 ,Idaho Falls ID,ID,aho lls  83406 
Nampa,Nampa ID 83687 ph: 208-465-6800,Idaho,Nampa ID 83687 ,Nampa ID,ID,mpa  83687 
Twin Falls,Twin Falls ID 83301 ph: 208-736-0700,Idaho,Twin Falls ID 83301 ,Twin Falls ID,ID,in lls  83301 
Algonquin,Algonquin IL 60102 ph: 847-458-5340,Illinois,Algonquin IL 60102 ,Algonquin IL,IL,gonquin  60102 
Alton,Alton IL 62002 ph: 618-465-4950,Illinois,Alton IL 62002 ,Alton IL,IL,ton  62002 
Arlington Heights,Arlington Heights IL 60004 ph: 847-222-0925,Illinois,Arlington Heights IL 60004 ,Arlington Heights IL,IL,lington ights  60004 
Batavia,Batavia IL 60510 ph: 630-406-8152,Illinois,Batavia IL 60510 ,Batavia IL,IL,tavia  60510 
Bedford Park,Bedford Park IL 60629 ph: 708-563-9050,Illinois,Bedford Park IL 60629 ,Bedford Park IL,IL,dford rk  60629 
Belleville,Belleville IL 62226 ph: 618-310-1901,Illinois,Belleville IL 62226 ,Belleville IL,IL,lleville  62226 
Bolingbrook,Bolingbrook IL 60440 ph: 630-378-5544,Illinois,Bolingbrook IL 60440 ,Bolingbrook IL,IL,lingbrook  60440 
Bourbonnais,Bourbonnais IL 60914 ph: 815-933-8890,Illinois,Bourbonnais IL 60914 ,Bourbonnais IL,IL,urbonnais  60914 
Broadview,Broadview IL 60155 ph: 708-731-5555,Illinois,Broadview IL 60155 ,Broadview IL,IL,oadview  60155 
Calumet City,Calumet City IL 60409 ph: 708-730-3000,Illinois,Calumet City IL 60409 ,Calumet City IL,IL,lumet ty  60409 
Champaign,Champaign IL 61822 ph: 217-355-3325,Illinois,Champaign IL 61822 ,Champaign IL,IL,ampaign  61822 
Chicago,Chicago IL 60607-2905 ph: 312-279-3340,Illinois,Chicago IL 60607-2905 ,Chicago IL,IL,icago  60607-2905 
Chicago,Chicago IL 60603 ph: 312-279-2133,Illinois,Chicago IL 60603 ,Chicago IL,IL,icago  60603 
Chicago,Chicago IL 60605 ph: 312-212-6300,Illinois,Chicago IL 60605 ,Chicago IL,IL,icago  60605 
Chicago,Chicago IL 60643 ph: 773-396-5506,Illinois,Chicago IL 60643 ,Chicago IL,IL,icago  60643 
Chicago,Chicago IL 60608 ph: 773-843-3250,Illinois,Chicago IL 60608 ,Chicago IL,IL,icago  60608 
Chicago,Chicago IL 60659 ph: 773-761-3001,Illinois,Chicago IL 60659 ,Chicago IL,IL,icago  60659 
Chicago,Chicago IL 60647 ph: 773-252-1994,Illinois,Chicago IL 60647 ,Chicago IL,IL,icago  60647 
Chicago,Chicago IL 60618 ph: 773-604-7680,Illinois,Chicago IL 60618 ,Chicago IL,IL,icago  60618 
Chicago,Chicago IL 60632 ph: 773-579-2120,Illinois,Chicago IL 60632 ,Chicago IL,IL,icago  60632 
Chicago,Chicago IL 60640 ph: 773-596-2376,Illinois,Chicago IL 60640 ,Chicago IL,IL,icago  60640 
Chicago,Chicago IL 60707 ph: 773-804-3610,Illinois,Chicago IL 60707 ,Chicago IL,IL,icago  60707 
Chicago,Chicago IL 60619 ph: 773-371-8555,Illinois,Chicago IL 60619 ,Chicago IL,IL,icago  60619 
Cicero,Cicero IL 60804 ph: 708-863-6830,Illinois,Cicero IL 60804 ,Cicero IL,IL,cero  60804 
Crestwood,Crestwood IL 60445 ph: 708-385-9722,Illinois,Crestwood IL 60445 ,Crestwood IL,IL,estwood  60445 
Crystal Lake,Crystal Lake IL 60014 ph: 815-356-9265,Illinois,Crystal Lake IL 60014 ,Crystal Lake IL,IL,ystal ke  60014 
Decatur,Decatur IL 62526 ph: 217-875-6060,Illinois,Decatur IL 62526 ,Decatur IL,IL,catur  62526 
Dekalb,Dekalb IL 60115 ph: 815-787-6970,Illinois,Dekalb IL 60115 ,Dekalb IL,IL,kalb  60115 
East Peoria,East Peoria IL 61611-2445 ph: 309-407-3045,Illinois,East Peoria IL 61611-2445 ,East Peoria IL,IL,st oria  61611-2445 
Edwardsville,Edwardsville IL 62025 ph: 618-659-3200,Illinois,Edwardsville IL 62025 ,Edwardsville IL,IL,wardsville  62025 
Elgin,Elgin IL 60123 ph: 847-695-1992,Illinois,Elgin IL 60123 ,Elgin IL,IL,gin  60123 
Evanston,Evanston IL 60202 ph: 847-733-1144,Illinois,Evanston IL 60202 ,Evanston IL,IL,anston  60202 
Fairview Heights,Fairview Heights IL 62208 ph: 618-310-2074,Illinois,Fairview Heights IL 62208 ,Fairview Heights IL,IL,irview ights  62208 
Galesburg,Galesburg IL 61401 ph: 309-344-3211,Illinois,Galesburg IL 61401 ,Galesburg IL,IL,lesburg  61401 
Glendale Heights,Glendale Heights IL 60139 ph: 630-582-0043,Illinois,Glendale Heights IL 60139 ,Glendale Heights IL,IL,endale ights  60139 
Glenview,Glenview IL 60025 ph: 847-657-0095,Illinois,Glenview IL 60025 ,Glenview IL,IL,enview  60025 
Gurnee,Gurnee IL 60031 ph: 847-244-4990,Illinois,Gurnee IL 60031 ,Gurnee IL,IL,rnee  60031 
Highland Park,Highland Park IL 60035 ph: 847-266-8022,Illinois,Highland Park IL 60035 ,Highland Park IL,IL,ghland rk  60035 
Hillside,Hillside IL 60162 ph: 708-375-5071,Illinois,Hillside IL 60162 ,Hillside IL,IL,llside  60162 
Hodgkins,Hodgkins IL 60525 ph: 708-387-2350,Illinois,Hodgkins IL 60525 ,Hodgkins IL,IL,dgkins  60525 
HoffMan Estates,HoffMan Estates IL 60192 ph: 847-645-1170,Illinois,HoffMan Estates IL 60192 ,HoffMan Estates IL,IL,ffn tates  60192 
Homewood,Homewood IL 60430 ph: 708-335-5250,Illinois,Homewood IL 60430 ,Homewood IL,IL,mewood  60430 
Joliet,Joliet IL 60435 ph: 815-439-6940,Illinois,Joliet IL 60435 ,Joliet IL,IL,liet  60435 
Lake Zurich,Lake Zurich IL 60047 ph: 847-726-1174,Illinois,Lake Zurich IL 60047 ,Lake Zurich IL,IL,ke rich  60047 
Lemont,Lemont IL 60439 ph: 630-243-6511,Illinois,Lemont IL 60439 ,Lemont IL,IL,mont  60439 
Lombard,Lombard IL 60148 ph: 630-495-9560,Illinois,Lombard IL 60148 ,Lombard IL,IL,mbard  60148 
Machesney Park,Machesney Park IL 61115 ph: 815-639-3300,Illinois,Machesney Park IL 61115 ,Machesney Park IL,IL,chesney rk  61115 
Marion,Marion IL 62959 ph: 618-997-8174,Illinois,Marion IL 62959 ,Marion IL,IL,rion  62959 
Matteson,Matteson IL 60443 ph: 708-898-5008,Illinois,Matteson IL 60443 ,Matteson IL,IL,tteson  60443 
Mchenry,Mchenry IL 60051 ph: 815-385-1085,Illinois,Mchenry IL 60051 ,Mchenry IL,IL,henry  60051 
Melrose Park,Melrose Park IL 60160 ph: 708-338-2784,Illinois,Melrose Park IL 60160 ,Melrose Park IL,IL,lrose rk  60160 
Moline,Moline IL 61265 ph: 309-764-7500,Illinois,Moline IL 61265 ,Moline IL,IL,line  61265 
Mundelein,Mundelein IL 60060 ph: 847-367-2650,Illinois,Mundelein IL 60060 ,Mundelein IL,IL,ndelein  60060 
Naperville,Naperville IL 60540 ph: 630-357-0056,Illinois,Naperville IL 60540 ,Naperville IL,IL,perville  60540 
New Lenox,New Lenox IL 60451 ph: 815-462-6001,Illinois,New Lenox IL 60451 ,New Lenox IL,IL,w nox  60451 
Niles,Niles IL 60714 ph: 847-768-9217,Illinois,Niles IL 60714 ,Niles IL,IL,les  60714 
Niles,Niles IL 60714 ph: 847-588-2800,Illinois,Niles IL 60714 ,Niles IL,IL,les  60714 
Normal,Normal IL 61761 ph: 309-454-5648,Illinois,Normal IL 61761 ,Normal IL,IL,rmal  61761 
Norridge,Norridge IL 60706 ph: 708-583-6980,Illinois,Norridge IL 60706 ,Norridge IL,IL,rridge  60706 
North Aurora,North Aurora IL 60542 ph: 630-518-9042,Illinois,North Aurora IL 60542 ,North Aurora IL,IL,rth rora  60542 
Oak Lawn,Oak Lawn IL 60453 ph: 708-741-4052,Illinois,Oak Lawn IL 60453 ,Oak Lawn IL,IL,k wn  60453 
Orland Park,Orland Park IL 60462 ph: 708-349-1122,Illinois,Orland Park IL 60462 ,Orland Park IL,IL,land rk  60462 
Oswego,Oswego IL 60543 ph: 630-554-4000,Illinois,Oswego IL 60543 ,Oswego IL,IL,wego  60543 
Palatine,Palatine IL 60074 ph: 847-202-5120,Illinois,Palatine IL 60074 ,Palatine IL,IL,latine  60074 
Peoria,Peoria IL 61615 ph: 309-691-9030,Illinois,Peoria IL 61615 ,Peoria IL,IL,oria  61615 
Peru,Peru IL 61354 ph: 815-224-2442,Illinois,Peru IL 61354 ,Peru IL,IL,ru  61354 
Plainfield,Plainfield IL 60585 ph: 815-577-5100,Illinois,Plainfield IL 60585 ,Plainfield IL,IL,ainfield  60585 
Rockford,Rockford IL 61108 ph: 815-227-9788,Illinois,Rockford IL 61108 ,Rockford IL,IL,ckford  61108 
Romeoville,Romeoville IL 60446 ph: 815-524-9801,Illinois,Romeoville IL 60446 ,Romeoville IL,IL,meoville  60446 
Rosemont,Rosemont IL 60018 ph: 847-795-1760,Illinois,Rosemont IL 60018 ,Rosemont IL,IL,semont  60018 
Schaumburg,Schaumburg IL 60173 ph: 847-413-1080,Illinois,Schaumburg IL 60173 ,Schaumburg IL,IL,haumburg  60173 
Schaumburg,Schaumburg IL 60194 ph: 847-798-0192,Illinois,Schaumburg IL 60194 ,Schaumburg IL,IL,haumburg  60194 
Shiloh,Shiloh IL 62269 ph: 618-628-3333,Illinois,Shiloh IL 62269 ,Shiloh IL,IL,iloh  62269 
Shorewood,Shorewood IL 60431 ph: 815-609-6800,Illinois,Shorewood IL 60431 ,Shorewood IL,IL,orewood  60431 
South Elgin,South Elgin IL 60177 ph: 847-697-1017,Illinois,South Elgin IL 60177 ,South Elgin IL,IL,uth gin  60177 
Springfield,Springfield IL 62704 ph: 217-546-5003,Illinois,Springfield IL 62704 ,Springfield IL,IL,ringfield  62704 
St Charles,St Charles IL 60174 ph: 630-232-3980,Illinois,St Charles IL 60174 ,St Charles IL,IL, arles  60174 
Streamwood,Streamwood IL 60107 ph: 630-372-3330,Illinois,Streamwood IL 60107 ,Streamwood IL,IL,reamwood  60107 
Tinley Park,Tinley Park IL 60487 ph: 815-806-3210,Illinois,Tinley Park IL 60487 ,Tinley Park IL,IL,nley rk  60487 
Vernon Hills,Vernon Hills IL 60061 ph: 847-680-0390,Illinois,Vernon Hills IL 60061 ,Vernon Hills IL,IL,rnon lls  60061 
Villa Park,Villa Park IL 60181 ph: 630-833-7411,Illinois,Villa Park IL 60181 ,Villa Park IL,IL,lla rk  60181 
Warrenville,Warrenville IL 60555 ph: 630-657-5555,Illinois,Warrenville IL 60555 ,Warrenville IL,IL,rrenville  60555 
Waukegan,Waukegan IL 60087 ph: 847-599-9069,Illinois,Waukegan IL 60087 ,Waukegan IL,IL,ukegan  60087 
West Dundee,West Dundee IL 60118 ph: 847-836-1060,Illinois,West Dundee IL 60118 ,West Dundee IL,IL,st ndee  60118 
Wheaton,Wheaton IL 60187 ph: 630-510-1590,Illinois,Wheaton IL 60187 ,Wheaton IL,IL,eaton  60187 
Wheeling,Wheeling IL 60090 ph: 847-215-5051,Illinois,Wheeling IL 60090 ,Wheeling IL,IL,eeling  60090 
Willowbrook,Willowbrook IL 60527 ph: 630-321-2080,Illinois,Willowbrook IL 60527 ,Willowbrook IL,IL,llowbrook  60527 
Wood Dale,Wood Dale IL 60191 ph: 630-594-5510,Illinois,Wood Dale IL 60191 ,Wood Dale IL,IL,od le  60191 
Woodridge,Woodridge IL 60517 ph: 630-434-0909,Illinois,Woodridge IL 60517 ,Woodridge IL,IL,odridge  60517 
Yorkville,Yorkville IL 60560 ph: 630-385-3200,Illinois,Yorkville IL 60560 ,Yorkville IL,IL,rkville  60560 
Anderson,Anderson IN 46013 ph: 765-649-2521,Indiana,Anderson IN 46013 ,Anderson IN,IN,derson  46013 
Avon,Avon IN 46123 ph: 317-271-6483,Indiana,Avon IN 46123 ,Avon IN,IN,on  46123 
Bloomington,Bloomington IN 47401 ph: 812-336-3473,Indiana,Bloomington IN 47401 ,Bloomington IN,IN,oomington  47401 
Carmel,Carmel IN 46032 ph: 317-876-0809,Indiana,Carmel IN 46032 ,Carmel IN,IN,rmel  46032 
Carmel,Carmel IN 46032 ph: 317-815-0560,Indiana,Carmel IN 46032 ,Carmel IN,IN,rmel  46032 
Clarksville,Clarksville IN 47129 ph: 812-284-4524,Indiana,Clarksville IN 47129 ,Clarksville IN,IN,arksville  47129 
Columbus,Columbus IN 47201 ph: 812-376-0450,Indiana,Columbus IN 47201 ,Columbus IN,IN,lumbus  47201 
Evansville,Evansville IN 47710 ph: 812-426-2218,Indiana,Evansville IN 47710 ,Evansville IN,IN,ansville  47710 
Evansville,Evansville IN 47715 ph: 812-402-8500,Indiana,Evansville IN 47715 ,Evansville IN,IN,ansville  47715 
Fishers,Fishers IN 46038 ph: 317-845-4945,Indiana,Fishers IN 46038 ,Fishers IN,IN,shers  46038 
Fort Wayne,Fort Wayne IN 46804 ph: 260-434-4580,Indiana,Fort Wayne IN 46804 ,Fort Wayne IN,IN,rt yne  46804 
Fort Wayne,Fort Wayne IN 46805 ph: 260-470-6360,Indiana,Fort Wayne IN 46805 ,Fort Wayne IN,IN,rt yne  46805 
Fort Wayne,Fort Wayne IN 46815 ph: 260-485-8640,Indiana,Fort Wayne IN 46815 ,Fort Wayne IN,IN,rt yne  46815 
Goshen,Goshen IN 46526 ph: 574-875-6400,Indiana,Goshen IN 46526 ,Goshen IN,IN,shen  46526 
Granger,Granger IN 46530 ph: 574-243-7442,Indiana,Granger IN 46530 ,Granger IN,IN,anger  46530 
Greenwood,Greenwood IN 46143 ph: 317-883-5200,Indiana,Greenwood IN 46143 ,Greenwood IN,IN,eenwood  46143 
Highland,Highland IN 46322 ph: 219-924-1527,Indiana,Highland IN 46322 ,Highland IN,IN,ghland  46322 
Indianapolis,Indianapolis IN 46229 ph: 317-899-3198,Indiana,Indianapolis IN 46229 ,Indianapolis IN,IN,dianapolis  46229 
Indianapolis,Indianapolis IN 46240 ph: 317-810-0044,Indiana,Indianapolis IN 46240 ,Indianapolis IN,IN,dianapolis  46240 
Indianapolis,Indianapolis IN 46237 ph: 317-787-4169,Indiana,Indianapolis IN 46237 ,Indianapolis IN,IN,dianapolis  46237 
Indianapolis,Indianapolis IN 46220 ph: 317-454-7504,Indiana,Indianapolis IN 46220 ,Indianapolis IN,IN,dianapolis  46220 
Indianapolis,Indianapolis IN 46254 ph: 317-329-1034,Indiana,Indianapolis IN 46254 ,Indianapolis IN,IN,dianapolis  46254 
Indianapolis,Indianapolis IN 46250 ph: 317-845-9823,Indiana,Indianapolis IN 46250 ,Indianapolis IN,IN,dianapolis  46250 
Kokomo,Kokomo IN 46902 ph: 765-457-7577,Indiana,Kokomo IN 46902 ,Kokomo IN,IN,komo  46902 
Lafayette,Lafayette IN 47905 ph: 765-446-8551,Indiana,Lafayette IN 47905 ,Lafayette IN,IN,fayette  47905 
Merrillville,Merrillville IN 46410 ph: 219-942-0402,Indiana,Merrillville IN 46410 ,Merrillville IN,IN,rrillville  46410 
Muncie,Muncie IN 47303 ph: 765-254-9027,Indiana,Muncie IN 47303 ,Muncie IN,IN,ncie  47303 
Munster,Munster IN 46321 ph: 219-836-2489,Indiana,Munster IN 46321 ,Munster IN,IN,nster  46321 
New Albany,New Albany IN 47150 ph: 812-945-5046,Indiana,New Albany IN 47150 ,New Albany IN,IN,w bany  47150 
Plainfield,Plainfield IN 46168 ph: 317-839-4027,Indiana,Plainfield IN 46168 ,Plainfield IN,IN,ainfield  46168 
South Bend,South Bend IN 46614 ph: 574-299-1402,Indiana,South Bend IN 46614 ,South Bend IN,IN,uth nd  46614 
St John,St John IN 46373 ph: 219-365-8162,Indiana,St John IN 46373 ,St John IN,IN, hn  46373 
Valparaiso,Valparaiso IN 46383 ph: 219-531-6448,Indiana,Valparaiso IN 46383 ,Valparaiso IN,IN,lparaiso  46383 
Altoona,Altoona IA 50009 ph: 515-967-9343,Iowa,Altoona IA 50009 ,Altoona IA,IA,toona  50009 
Ames,Ames IA 50010 ph: 515-663-9500,Iowa,Ames IA 50010 ,Ames IA,IA,es  50010 
Ankeny,Ankeny IA 50021 ph: 515-964-9000,Iowa,Ankeny IA 50021 ,Ankeny IA,IA,keny  50021 
Cedar Falls,Cedar Falls IA 50613 ph: 319-553-1120,Iowa,Cedar Falls IA 50613 ,Cedar Falls IA,IA,dar lls  50613 
Cedar Rapids,Cedar Rapids IA 52402 ph: 319-393-1600,Iowa,Cedar Rapids IA 52402 ,Cedar Rapids IA,IA,dar pids  52402 
Cedar Rapids,Cedar Rapids IA 52404 ph: 319-396-4444,Iowa,Cedar Rapids IA 52404 ,Cedar Rapids IA,IA,dar pids  52404 
Clinton,Clinton IA 52732 ph: 563-243-9909,Iowa,Clinton IA 52732 ,Clinton IA,IA,inton  52732 
Coralville,Coralville IA 52241 ph: 319-351-5150,Iowa,Coralville IA 52241 ,Coralville IA,IA,ralville  52241 
Council Bluffs,Council Bluffs IA 51501 ph: 712-309-3380,Iowa,Council Bluffs IA 51501 ,Council Bluffs IA,IA,uncil uffs  51501 
Davenport,Davenport IA 52807 ph: 563-344-9447,Iowa,Davenport IA 52807 ,Davenport IA,IA,venport  52807 
Des Moines,Des Moines IA 50315 ph: 515-287-3438,Iowa,Des Moines IA 50315 ,Des Moines IA,IA,s ines  50315 
Des Moines,Des Moines IA 50322 ph: 515-331-6115,Iowa,Des Moines IA 50322 ,Des Moines IA,IA,s ines  50322 
Dubuque,Dubuque IA 52003 ph: 563-557-9800,Iowa,Dubuque IA 52003 ,Dubuque IA,IA,buque  52003 
Fort Dodge,Fort Dodge IA 50501 ph: 515-573-7950,Iowa,Fort Dodge IA 50501 ,Fort Dodge IA,IA,rt dge  50501 
Mason City,Mason City IA 50401 ph: 641-423-8335,Iowa,Mason City IA 50401 ,Mason City IA,IA,son ty  50401 
Ottumwa,Ottumwa IA 52501 ph: 641-684-4229,Iowa,Ottumwa IA 52501 ,Ottumwa IA,IA,tumwa  52501 
Sioux City,Sioux City IA 51106 ph: 712-274-8644,Iowa,Sioux City IA 51106 ,Sioux City IA,IA,oux ty  51106 
Urbandale,Urbandale IA 50322 ph: 515-270-6556,Iowa,Urbandale IA 50322 ,Urbandale IA,IA,bandale  50322 
Waterloo,Waterloo IA 50702 ph: 319-226-6500,Iowa,Waterloo IA 50702 ,Waterloo IA,IA,terloo  50702 
West Burlington,West Burlington IA 52655 ph: 319-752-2023,Iowa,West Burlington IA 52655 ,West Burlington IA,IA,st rlington  52655 
West Des Moines,West Des Moines IA 50266 ph: 515-225-3784,Iowa,West Des Moines IA 50266 ,West Des Moines IA,IA,st s ines  50266 
West Des Moines,West Des Moines IA 50266 ph: 515-223-0262,Iowa,West Des Moines IA 50266 ,West Des Moines IA,IA,st s ines  50266 
Derby,Derby KS 67037 ph: 316-448-4553,Kansas,Derby KS 67037 ,Derby KS,KS,rby  67037 
Garden City,Garden City KS 67846 ph: 620-275-1101,Kansas,Garden City KS 67846 ,Garden City KS,KS,rden ty  67846 
Hutchinson,Hutchinson KS 67501 ph: 620-662-1800,Kansas,Hutchinson KS 67501 ,Hutchinson KS,KS,tchinson  67501 
Kansas City,Kansas City KS 66111 ph: 913-905-0316,Kansas,Kansas City KS 66111 ,Kansas City KS,KS,nsas ty  66111 
Lawrence,Lawrence KS 66046 ph: 785-832-0660,Kansas,Lawrence KS 66046 ,Lawrence KS,KS,wrence  66046 
Manhattan,Manhattan KS 66503 ph: 785-770-3643,Kansas,Manhattan KS 66503 ,Manhattan KS,KS,nhattan  66503 
Mission,Mission KS 66202 ph: 913-262-2434,Kansas,Mission KS 66202 ,Mission KS,KS,ssion  66202 
Olathe,Olathe KS 66062 ph: 913-393-4400,Kansas,Olathe KS 66062 ,Olathe KS,KS,athe  66062 
Olathe,Olathe KS 66062 ph: 913-782-5975,Kansas,Olathe KS 66062 ,Olathe KS,KS,athe  66062 
Overland Park,Overland Park KS 66214 ph: 913-905-0285,Kansas,Overland Park KS 66214 ,Overland Park KS,KS,erland rk  66214 
Overland Park,Overland Park KS 66213 ph: 913-327-7770,Kansas,Overland Park KS 66213 ,Overland Park KS,KS,erland rk  66213 
Overland Park,Overland Park KS 66223 ph: 913-905-0419,Kansas,Overland Park KS 66223 ,Overland Park KS,KS,erland rk  66223 
Salina,Salina KS 67401 ph: 785-825-1354,Kansas,Salina KS 67401 ,Salina KS,KS,lina  67401 
Shawnee,Shawnee KS 66217 ph: 913-962-8222,Kansas,Shawnee KS 66217 ,Shawnee KS,KS,awnee  66217 
Topeka,Topeka KS 66614 ph: 785-273-9841,Kansas,Topeka KS 66614 ,Topeka KS,KS,peka  66614 
Wichita,Wichita KS 67206 ph: 316-636-4206,Kansas,Wichita KS 67206 ,Wichita KS,KS,chita  67206 
Wichita,Wichita KS 67205 ph: 316-721-4289,Kansas,Wichita KS 67205 ,Wichita KS,KS,chita  67205 
Wichita,Wichita KS 67207 ph: 316-688-1556,Kansas,Wichita KS 67207 ,Wichita KS,KS,chita  67207 
Wichita,Wichita KS 67209 ph: 316-729-5348,Kansas,Wichita KS 67209 ,Wichita KS,KS,chita  67209 
Bowling Green,Bowling Green KY 42104 ph: 270-842-0013,Kentucky,Bowling Green KY 42104 ,Bowling Green KY,KY,wling een  42104 
Elizabethtown,Elizabethtown KY 42701 ph: 270-769-6402,Kentucky,Elizabethtown KY 42701 ,Elizabethtown KY,KY,izabethtown  42701 
Florence,Florence KY 41042 ph: 859-371-7771,Kentucky,Florence KY 41042 ,Florence KY,KY,orence  41042 
Lexington,Lexington KY 40503 ph: 859-273-9403,Kentucky,Lexington KY 40503 ,Lexington KY,KY,xington  40503 
Lexington,Lexington KY 40509 ph: 859-263-7448,Kentucky,Lexington KY 40509 ,Lexington KY,KY,xington  40509 
Louisville,Louisville KY 40243 ph: 502-992-1237,Kentucky,Louisville KY 40243 ,Louisville KY,KY,uisville  40243 
Louisville,Louisville KY 40218 ph: 502-456-6768,Kentucky,Louisville KY 40218 ,Louisville KY,KY,uisville  40218 
Louisville,Louisville KY 40241 ph: 502-326-9185,Kentucky,Louisville KY 40241 ,Louisville KY,KY,uisville  40241 
Louisville,Louisville KY 40207 ph: 502-992-1039,Kentucky,Louisville KY 40207 ,Louisville KY,KY,uisville  40207 
Louisville,Louisville KY 40220 ph: 502-493-8717,Kentucky,Louisville KY 40220 ,Louisville KY,KY,uisville  40220 
Louisville,Louisville KY 40219 ph: 502-964-1053,Kentucky,Louisville KY 40219 ,Louisville KY,KY,uisville  40219 
Louisville,Louisville KY 40258 ph: 502-933-1315,Kentucky,Louisville KY 40258 ,Louisville KY,KY,uisville  40258 
Newport,Newport KY 41071 ph: 859-814-0140,Kentucky,Newport KY 41071 ,Newport KY,KY,wport  41071 
Owensboro,Owensboro KY 42301 ph: 270-686-7033,Kentucky,Owensboro KY 42301 ,Owensboro KY,KY,ensboro  42301 
Alexandria,Alexandria LA 71301 ph: 318-448-4351,Louisiana,Alexandria LA 71301 ,Alexandria LA,LA,exandria  71301 
Baton Rouge,Baton Rouge LA 70816 ph: 225-272-4275,Louisiana,Baton Rouge LA 70816 ,Baton Rouge LA,LA,ton uge  70816 
Baton Rouge,Baton Rouge LA 70809 ph: 225-293-0984,Louisiana,Baton Rouge LA 70809 ,Baton Rouge LA,LA,ton uge  70809 
Bossier City,Bossier City LA 71111 ph: 318-678-6800,Louisiana,Bossier City LA 71111 ,Bossier City LA,LA,ssier ty  71111 
Covington,Covington LA 70433 ph: 985-871-7093,Louisiana,Covington LA 70433 ,Covington LA,LA,vington  70433 
Hammond,Hammond LA 70403 ph: 985-277-3203,Louisiana,Hammond LA 70403 ,Hammond LA,LA,mmond  70403 
Harvey,Harvey LA 70058 ph: 504-227-2014,Louisiana,Harvey LA 70058 ,Harvey LA,LA,rvey  70058 
Houma,Houma LA 70360 ph: 985-223-2575,Louisiana,Houma LA 70360 ,Houma LA,LA,uma  70360 
Kenner,Kenner LA 70065 ph: 504-617-4859,Louisiana,Kenner LA 70065 ,Kenner LA,LA,nner  70065 
Lafayette,Lafayette LA 70501 ph: 337-769-7515,Louisiana,Lafayette LA 70501 ,Lafayette LA,LA,fayette  70501 
Lafayette,Lafayette LA 70508 ph: 337-406-2536,Louisiana,Lafayette LA 70508 ,Lafayette LA,LA,fayette  70508 
Lake Charles,Lake Charles LA 70601 ph: 337-474-2391,Louisiana,Lake Charles LA 70601 ,Lake Charles LA,LA,ke arles  70601 
Metairie,Metairie LA 70006 ph: 504-888-2184,Louisiana,Metairie LA 70006 ,Metairie LA,LA,tairie  70006 
Monroe,Monroe LA 71203 ph: 318-361-3781,Louisiana,Monroe LA 71203 ,Monroe LA,LA,nroe  71203 
Shreveport,Shreveport LA 71105 ph: 318-797-1190,Louisiana,Shreveport LA 71105 ,Shreveport LA,LA,reveport  71105 
Slidell,Slidell LA 70460 ph: 985-649-6903,Louisiana,Slidell LA 70460 ,Slidell LA,LA,idell  70460 
Augusta,Augusta ME 04330 ph: 207-622-8000,Maine,Augusta ME 04330 ,Augusta ME,ME,gusta  04330 
Bangor,Bangor ME 04401 ph: 207-945-3133,Maine,Bangor ME 04401 ,Bangor ME,ME,ngor  04401 
Biddeford,Biddeford ME 04005 ph: 207-284-2510,Maine,Biddeford ME 04005 ,Biddeford ME,ME,ddeford  04005 
South Portland,South Portland ME 04106 ph: 207-871-1156,Maine,South Portland ME 04106 ,South Portland ME,ME,uth rtland  04106 
Topsham,Topsham ME 04086 ph: 207-504-5050,Maine,Topsham ME 04086 ,Topsham ME,ME,psham  04086 
Aberdeen,Aberdeen MD 21001 ph: 410-297-8710,Maryland,Aberdeen MD 21001 ,Aberdeen MD,MD,erdeen  21001 
Abingdon,Abingdon MD 21009 ph: 410-670-9000,Maryland,Abingdon MD 21009 ,Abingdon MD,MD,ingdon  21009 
Annapolis,Annapolis MD 21401 ph: 443-837-3540,Maryland,Annapolis MD 21401 ,Annapolis MD,MD,napolis  21401 
Baltimore,Baltimore MD 21215 ph: 410-369-1007,Maryland,Baltimore MD 21215 ,Baltimore MD,MD,ltimore  21215 
Baltimore,Baltimore MD 21236 ph: 410-933-9632,Maryland,Baltimore MD 21236 ,Baltimore MD,MD,ltimore  21236 
Bel Air,Bel Air MD 21014 ph: 410-638-7532,Maryland,Bel Air MD 21014 ,Bel Air MD,MD,l r  21014 
Bowie,Bowie MD 20720 ph: 301-955-0107,Maryland,Bowie MD 20720 ,Bowie MD,MD,wie  20720 
Bowie,Bowie MD 20716 ph: 301-352-3830,Maryland,Bowie MD 20716 ,Bowie MD,MD,wie  20716 
Brandywine,Brandywine MD 20613 ph: 301-720-9000,Maryland,Brandywine MD 20613 ,Brandywine MD,MD,andywine  20613 
California,California MD 20619 ph: 301-862-5003,Maryland,California MD 20619 ,California MD,MD,lifornia  20619 
Cockeysville,Cockeysville MD 21030 ph: 410-683-4985,Maryland,Cockeysville MD 21030 ,Cockeysville MD,MD,ckeysville  21030 
Columbia,Columbia MD 21045 ph: 410-290-1123,Maryland,Columbia MD 21045 ,Columbia MD,MD,lumbia  21045 
District Heights,District Heights MD 20747 ph: 301-778-1651,Maryland,District Heights MD 20747 ,District Heights MD,MD,strict ights  20747 
Easton,Easton MD 21601 ph: 410-770-6180,Maryland,Easton MD 21601 ,Easton MD,MD,ston  21601 
Ellicott City,Ellicott City MD 21043 ph: 410-203-1700,Maryland,Ellicott City MD 21043 ,Ellicott City MD,MD,licott ty  21043 
Frederick,Frederick MD 21704 ph: 301-624-1790,Maryland,Frederick MD 21704 ,Frederick MD,MD,ederick  21704 
Gaithersburg,Gaithersburg MD 20878 ph: 301-721-1760,Maryland,Gaithersburg MD 20878 ,Gaithersburg MD,MD,ithersburg  20878 
Gambrills,Gambrills MD 21054 ph: 443-302-6278,Maryland,Gambrills MD 21054 ,Gambrills MD,MD,mbrills  21054 
Germantown,Germantown MD 20876 ph: 301-515-6882,Maryland,Germantown MD 20876 ,Germantown MD,MD,rmantown  20876 
Glen Burnie,Glen Burnie MD 21061 ph: 410-487-0038,Maryland,Glen Burnie MD 21061 ,Glen Burnie MD,MD,en rnie  21061 
Glen Burnie,Glen Burnie MD 21061 ph: 410-969-2257,Maryland,Glen Burnie MD 21061 ,Glen Burnie MD,MD,en rnie  21061 
Greenbelt,Greenbelt MD 20770 ph: 301-837-0054,Maryland,Greenbelt MD 20770 ,Greenbelt MD,MD,eenbelt  20770 
Hagerstown,Hagerstown MD 21740 ph: 301-582-9118,Maryland,Hagerstown MD 21740 ,Hagerstown MD,MD,gerstown  21740 
Hyattsville,Hyattsville MD 20782 ph: 301-955-0005,Maryland,Hyattsville MD 20782 ,Hyattsville MD,MD,attsville  20782 
La Plata,La Plata MD 20646 ph: 301-934-5900,Maryland,La Plata MD 20646 ,La Plata MD,MD, ata  20646 
Largo,Largo MD 20774 ph: 301-324-7080,Maryland,Largo MD 20774 ,Largo MD,MD,rgo  20774 
Laurel,Laurel MD 20724 ph: 301-483-0934,Maryland,Laurel MD 20724 ,Laurel MD,MD,urel  20724 
Middle River,Middle River MD 21220 ph: 410-406-9081,Maryland,Middle River MD 21220 ,Middle River MD,MD,ddle ver  21220 
Owings Mills,Owings Mills MD 21117 ph: 410-654-9800,Maryland,Owings Mills MD 21117 ,Owings Mills MD,MD,ings lls  21117 
Pikesville,Pikesville MD 21208 ph: 410-486-4141,Maryland,Pikesville MD 21208 ,Pikesville MD,MD,kesville  21208 
Rockville,Rockville MD 20852 ph: 301-945-0018,Maryland,Rockville MD 20852 ,Rockville MD,MD,ckville  20852 
Salisbury,Salisbury MD 21804 ph: 410-572-6144,Maryland,Salisbury MD 21804 ,Salisbury MD,MD,lisbury  21804 
Silver Spring,Silver Spring MD 20904 ph: 301-586-0724,Maryland,Silver Spring MD 20904 ,Silver Spring MD,MD,lver ring  20904 
Towson,Towson MD 21286 ph: 410-823-4423,Maryland,Towson MD 21286 ,Towson MD,MD,wson  21286 
Waldorf,Waldorf MD 20603 ph: 301-645-7114,Maryland,Waldorf MD 20603 ,Waldorf MD,MD,ldorf  20603 
Westminster,Westminster MD 21157 ph: 410-848-6180,Maryland,Westminster MD 21157 ,Westminster MD,MD,stminster  21157 
Wheaton,Wheaton MD 20902 ph: 301-946-8006,Maryland,Wheaton MD 20902 ,Wheaton MD,MD,eaton  20902 
Abington,Abington MA 02351 ph: 781-347-9003,Massachusetts,Abington MA 02351 ,Abington MA,MA,ington  02351 
Braintree,Braintree MA 02184 ph: 781-817-8809,Massachusetts,Braintree MA 02184 ,Braintree MA,MA,aintree  02184 
Danvers,Danvers MA 01923 ph: 978-762-4439,Massachusetts,Danvers MA 01923 ,Danvers MA,MA,nvers  01923 
Dorchester,Dorchester MA 02125 ph: 617-602-1921,Massachusetts,Dorchester MA 02125 ,Dorchester MA,MA,rchester  02125 
Everett,Everett MA 02149 ph: 617-420-0000,Massachusetts,Everett MA 02149 ,Everett MA,MA,erett  02149 
Framingham,Framingham MA 01701 ph: 508-628-3136,Massachusetts,Framingham MA 01701 ,Framingham MA,MA,amingham  01701 
Hadley,Hadley MA 01035 ph: 413-586-5945,Massachusetts,Hadley MA 01035 ,Hadley MA,MA,dley  01035 
Hanover,Hanover MA 02339 ph: 781-499-1961,Massachusetts,Hanover MA 02339 ,Hanover MA,MA,nover  02339 
Haverhill,Haverhill MA 01832 ph: 978-377-9003,Massachusetts,Haverhill MA 01832 ,Haverhill MA,MA,verhill  01832 
Holyoke,Holyoke MA 01040 ph: 413-532-0240,Massachusetts,Holyoke MA 01040 ,Holyoke MA,MA,lyoke  01040 
Kingston,Kingston MA 02364 ph: 781-585-5825,Massachusetts,Kingston MA 02364 ,Kingston MA,MA,ngston  02364 
Lanesboro,Lanesboro MA 01237 ph: 413-236-4210,Massachusetts,Lanesboro MA 01237 ,Lanesboro MA,MA,nesboro  01237 
Leominster,Leominster MA 01453 ph: 978-534-2914,Massachusetts,Leominster MA 01453 ,Leominster MA,MA,ominster  01453 
Lowell,Lowell MA 01852 ph: 978-703-2020,Massachusetts,Lowell MA 01852 ,Lowell MA,MA,well  01852 
Marlborough,Marlborough MA 01752 ph: 508-573-1004,Massachusetts,Marlborough MA 01752 ,Marlborough MA,MA,rlborough  01752 
Marlborough,Marlborough MA 01752 ph: 508-251-6957,Massachusetts,Marlborough MA 01752 ,Marlborough MA,MA,rlborough  01752 
Methuen,Methuen MA 01844 ph: 978-983-2020,Massachusetts,Methuen MA 01844 ,Methuen MA,MA,thuen  01844 
Milford,Milford MA 01757 ph: 508-478-5880,Massachusetts,Milford MA 01757 ,Milford MA,MA,lford  01757 
Millbury,Millbury MA 01527 ph: 508-865-3116,Massachusetts,Millbury MA 01527 ,Millbury MA,MA,llbury  01527 
North Attleboro,North Attleboro MA 02760 ph: 508-699-9118,Massachusetts,North Attleboro MA 02760 ,North Attleboro MA,MA,rth tleboro  02760 
North Dartmouth,North Dartmouth MA 02747 ph: 508-979-7530,Massachusetts,North Dartmouth MA 02747 ,North Dartmouth MA,MA,rth rtmouth  02747 
Plainville,Plainville MA 02762 ph: 508-643-5008,Massachusetts,Plainville MA 02762 ,Plainville MA,MA,ainville  02762 
Revere,Revere MA 02151 ph: 781-922-6030,Massachusetts,Revere MA 02151 ,Revere MA,MA,vere  02151 
Salem,Salem MA 01970 ph: 978-224-4000,Massachusetts,Salem MA 01970 ,Salem MA,MA,lem  01970 
Saugus,Saugus MA 01906 ph: 781-307-0000,Massachusetts,Saugus MA 01906 ,Saugus MA,MA,ugus  01906 
Seekonk,Seekonk MA 02771 ph: 508-336-1117,Massachusetts,Seekonk MA 02771 ,Seekonk MA,MA,ekonk  02771 
Somerville,Somerville MA 02143 ph: 617-776-4036,Massachusetts,Somerville MA 02143 ,Somerville MA,MA,merville  02143 
South Easton,South Easton MA 02375 ph: 508-230-0005,Massachusetts,South Easton MA 02375 ,South Easton MA,MA,uth ston  02375 
Stoughton,Stoughton MA 02072 ph: 781-847-4000,Massachusetts,Stoughton MA 02072 ,Stoughton MA,MA,oughton  02072 
Swansea,Swansea MA 02777 ph: 774-488-3684,Massachusetts,Swansea MA 02777 ,Swansea MA,MA,ansea  02777 
Taunton,Taunton MA 02780 ph: 508-824-8004,Massachusetts,Taunton MA 02780 ,Taunton MA,MA,unton  02780 
Wareham,Wareham MA 02571 ph: 508-273-0436,Massachusetts,Wareham MA 02571 ,Wareham MA,MA,reham  02571 
Watertown,Watertown MA 02472 ph: 617-924-6574,Massachusetts,Watertown MA 02472 ,Watertown MA,MA,tertown  02472 
Westborough,Westborough MA 01581 ph: 508-366-1426,Massachusetts,Westborough MA 01581 ,Westborough MA,MA,stborough  01581 
Woburn,Woburn MA 01801 ph: 781-904-0002,Massachusetts,Woburn MA 01801 ,Woburn MA,MA,burn  01801 
Worcester,Worcester MA 01605 ph: 508-852-3094,Massachusetts,Worcester MA 01605 ,Worcester MA,MA,rcester  01605 
Allen Park,Allen Park MI 48101 ph: 313-768-0064,Michigan,Allen Park MI 48101 ,Allen Park MI,MI,len rk  48101 
Ann Arbor,Ann Arbor MI 48103 ph: 734-996-0700,Michigan,Ann Arbor MI 48103 ,Ann Arbor MI,MI,n bor  48103 
Auburn Hills,Auburn Hills MI 48326 ph: 248-393-8106,Michigan,Auburn Hills MI 48326 ,Auburn Hills MI,MI,burn lls  48326 
Battle Creek,Battle Creek MI 49015 ph: 269-979-4940,Michigan,Battle Creek MI 49015 ,Battle Creek MI,MI,ttle eek  49015 
Bay City,Bay City MI 48706 ph: 989-686-1770,Michigan,Bay City MI 48706 ,Bay City MI,MI,y ty  48706 
Benton Harbor,Benton Harbor MI 49022 ph: 269-925-1205,Michigan,Benton Harbor MI 49022 ,Benton Harbor MI,MI,nton rbor  49022 
Bloomfield Hills,Bloomfield Hills MI 48302 ph: 248-409-1951,Michigan,Bloomfield Hills MI 48302 ,Bloomfield Hills MI,MI,oomfield lls  48302 
Brighton,Brighton MI 48116 ph: 810-229-0038,Michigan,Brighton MI 48116 ,Brighton MI,MI,ighton  48116 
Caledonia,Caledonia MI 49316 ph: 616-698-1026,Michigan,Caledonia MI 49316 ,Caledonia MI,MI,ledonia  49316 
Canton,Canton MI 48187 ph: 734-454-1133,Michigan,Canton MI 48187 ,Canton MI,MI,nton  48187 
Canton,Canton MI 48188 ph: 734-714-2012,Michigan,Canton MI 48188 ,Canton MI,MI,nton  48188 
Chesterfield,Chesterfield MI 48051 ph: 586-598-8100,Michigan,Chesterfield MI 48051 ,Chesterfield MI,MI,esterfield  48051 
Clinton Township,Clinton Township MI 48035 ph: 586-791-9900,Michigan,Clinton Township MI 48035 ,Clinton Township MI,MI,inton wnship  48035 
Dearborn,Dearborn MI 48126 ph: 313-336-5000,Michigan,Dearborn MI 48126 ,Dearborn MI,MI,arborn  48126 
Dearborn Heights,Dearborn Heights MI 48127 ph: 313-565-0404,Michigan,Dearborn Heights MI 48127 ,Dearborn Heights MI,MI,arborn ights  48127 
Farmington Hills,Farmington Hills MI 48336 ph: 248-476-1808,Michigan,Farmington Hills MI 48336 ,Farmington Hills MI,MI,rmington lls  48336 
Fenton,Fenton MI 48430 ph: 810-714-0975,Michigan,Fenton MI 48430 ,Fenton MI,MI,nton  48430 
Flint,Flint MI 48503 ph: 810-744-4040,Michigan,Flint MI 48503 ,Flint MI,MI,int  48503 
Flint,Flint MI 48507 ph: 810-230-7310,Michigan,Flint MI 48507 ,Flint MI,MI,int  48507 
Fort Gratiot,Fort Gratiot MI 48059 ph: 810-385-5000,Michigan,Fort Gratiot MI 48059 ,Fort Gratiot MI,MI,rt atiot  48059 
Grand Rapids,Grand Rapids MI 49512 ph: 616-222-4889,Michigan,Grand Rapids MI 49512 ,Grand Rapids MI,MI,and pids  49512 
Grandville,Grandville MI 49418 ph: 616-222-7660,Michigan,Grandville MI 49418 ,Grandville MI,MI,andville  49418 
Harper Woods,Harper Woods MI 48225 ph: 313-371-9751,Michigan,Harper Woods MI 48225 ,Harper Woods MI,MI,rper ods  48225 
Holland,Holland MI 49424 ph: 616-820-0093,Michigan,Holland MI 49424 ,Holland MI,MI,lland  49424 
Howell,Howell MI 48843 ph: 810-632-2304,Michigan,Howell MI 48843 ,Howell MI,MI,well  48843 
Jackson,Jackson MI 49202 ph: 517-788-3900,Michigan,Jackson MI 49202 ,Jackson MI,MI,ckson  49202 
Jenison,Jenison MI 49428 ph: 616-457-7020,Michigan,Jenison MI 49428 ,Jenison MI,MI,nison  49428 
Kalamazoo,Kalamazoo MI 49009 ph: 269-349-6148,Michigan,Kalamazoo MI 49009 ,Kalamazoo MI,MI,lamazoo  49009 
Lansing,Lansing MI 48911 ph: 517-882-9084,Michigan,Lansing MI 48911 ,Lansing MI,MI,nsing  48911 
Lansing,Lansing MI 48917 ph: 517-886-9488,Michigan,Lansing MI 48917 ,Lansing MI,MI,nsing  48917 
Livonia,Livonia MI 48152 ph: 734-953-6620,Michigan,Livonia MI 48152 ,Livonia MI,MI,vonia  48152 
Livonia,Livonia MI 48150 ph: 734-793-0637,Michigan,Livonia MI 48150 ,Livonia MI,MI,vonia  48150 
Macomb,Macomb MI 48044 ph: 586-464-1128,Michigan,Macomb MI 48044 ,Macomb MI,MI,comb  48044 
Madison Heights,Madison Heights MI 48071 ph: 248-585-9000,Michigan,Madison Heights MI 48071 ,Madison Heights MI,MI,dison ights  48071 
Marquette,Marquette MI 49855 ph: 906-226-0088,Michigan,Marquette MI 49855 ,Marquette MI,MI,rquette  49855 
Midland,Midland MI 48642 ph: 989-832-0200,Michigan,Midland MI 48642 ,Midland MI,MI,dland  48642 
Monroe,Monroe MI 48162 ph: 734-457-2902,Michigan,Monroe MI 48162 ,Monroe MI,MI,nroe  48162 
Mount Pleasant,Mount Pleasant MI 48858 ph: 989-773-0218,Michigan,Mount Pleasant MI 48858 ,Mount Pleasant MI,MI,unt easant  48858 
Muskegon,Muskegon MI 49444 ph: 231-798-1592,Michigan,Muskegon MI 49444 ,Muskegon MI,MI,skegon  49444 
Novi,Novi MI 48374 ph: 248-374-1282,Michigan,Novi MI 48374 ,Novi MI,MI,vi  48374 
Okemos,Okemos MI 48864 ph: 517-347-0700,Michigan,Okemos MI 48864 ,Okemos MI,MI,emos  48864 
Portage,Portage MI 49002 ph: 269-327-3180,Michigan,Portage MI 49002 ,Portage MI,MI,rtage  49002 
Rochester Hills,Rochester Hills MI 48307 ph: 248-853-1590,Michigan,Rochester Hills MI 48307 ,Rochester Hills MI,MI,chester lls  48307 
Saginaw,Saginaw MI 48604 ph: 989-793-7226,Michigan,Saginaw MI 48604 ,Saginaw MI,MI,ginaw  48604 
Shelby Township,Shelby Township MI 48315 ph: 586-254-7100,Michigan,Shelby Township MI 48315 ,Shelby Township MI,MI,elby wnship  48315 
Shelby Township,Shelby Township MI 48316 ph: 586-677-8687,Michigan,Shelby Township MI 48316 ,Shelby Township MI,MI,elby wnship  48316 
Southfield,Southfield MI 48075 ph: 248-423-4202,Michigan,Southfield MI 48075 ,Southfield MI,MI,uthfield  48075 
Southfield,Southfield MI 48076 ph: 248-430-0062,Michigan,Southfield MI 48076 ,Southfield MI,MI,uthfield  48076 
Sterling Heights,Sterling Heights MI 48310 ph: 586-698-1027,Michigan,Sterling Heights MI 48310 ,Sterling Heights MI,MI,erling ights  48310 
Sterling Heights,Sterling Heights MI 48312 ph: 586-795-9960,Michigan,Sterling Heights MI 48312 ,Sterling Heights MI,MI,erling ights  48312 
Taylor,Taylor MI 48180 ph: 734-374-0303,Michigan,Taylor MI 48180 ,Taylor MI,MI,ylor  48180 
Traverse City,Traverse City MI 49684 ph: 231-947-2992,Michigan,Traverse City MI 49684 ,Traverse City MI,MI,averse ty  49684 
Troy,Troy MI 48084 ph: 248-614-9792,Michigan,Troy MI 48084 ,Troy MI,MI,oy  48084 
Walker,Walker MI 49544 ph: 616-784-8311,Michigan,Walker MI 49544 ,Walker MI,MI,lker  49544 
Walled Lake,Walled Lake MI 48390 ph: 248-960-7900,Michigan,Walled Lake MI 48390 ,Walled Lake MI,MI,lled ke  48390 
Warren,Warren MI 48092 ph: 586-353-1150,Michigan,Warren MI 48092 ,Warren MI,MI,rren  48092 
Westland,Westland MI 48185 ph: 734-728-4444,Michigan,Westland MI 48185 ,Westland MI,MI,stland  48185 
Woodhaven,Woodhaven MI 48183 ph: 734-692-7200,Michigan,Woodhaven MI 48183 ,Woodhaven MI,MI,odhaven  48183 
Wyoming,Wyoming MI 49509 ph: 616-249-1008,Michigan,Wyoming MI 49509 ,Wyoming MI,MI,oming  49509 
Ypsilanti,Ypsilanti MI 48197 ph: 734-975-4396,Michigan,Ypsilanti MI 48197 ,Ypsilanti MI,MI,silanti  48197 
Alexandria,Alexandria MN 56308 ph: 320-763-6661,Minnesota,Alexandria MN 56308 ,Alexandria MN,MN,exandria  56308 
Andover,Andover MN 55304 ph: 763-852-0113,Minnesota,Andover MN 55304 ,Andover MN,MN,dover  55304 
Apple Valley,Apple Valley MN 55124 ph: 952-891-5500,Minnesota,Apple Valley MN 55124 ,Apple Valley MN,MN,ple lley  55124 
Apple Valley,Apple Valley MN 55124 ph: 952-236-3165,Minnesota,Apple Valley MN 55124 ,Apple Valley MN,MN,ple lley  55124 
Austin,Austin MN 55912 ph: 507-437-1164,Minnesota,Austin MN 55912 ,Austin MN,MN,stin  55912 
Baxter,Baxter MN 56425 ph: 218-828-3535,Minnesota,Baxter MN 56425 ,Baxter MN,MN,xter  56425 
Bemidji,Bemidji MN 56601 ph: 218-759-0820,Minnesota,Bemidji MN 56601 ,Bemidji MN,MN,midji  56601 
Blaine,Blaine MN 55449 ph: 763-354-1000,Minnesota,Blaine MN 55449 ,Blaine MN,MN,aine  55449 
Bloomington,Bloomington MN 55431 ph: 952-888-7701,Minnesota,Bloomington MN 55431 ,Bloomington MN,MN,oomington  55431 
Brooklyn Center,Brooklyn Center MN 55430 ph: 763-566-0739,Minnesota,Brooklyn Center MN 55430 ,Brooklyn Center MN,MN,ooklyn nter  55430 
Brooklyn Park,Brooklyn Park MN 55428 ph: 763-425-5400,Minnesota,Brooklyn Park MN 55428 ,Brooklyn Park MN,MN,ooklyn rk  55428 
Buffalo,Buffalo MN 55313 ph: 763-682-4996,Minnesota,Buffalo MN 55313 ,Buffalo MN,MN,ffalo  55313 
Burnsville,Burnsville MN 55337 ph: 952-236-3003,Minnesota,Burnsville MN 55337 ,Burnsville MN,MN,rnsville  55337 
Cambridge,Cambridge MN 55008 ph: 763-689-3858,Minnesota,Cambridge MN 55008 ,Cambridge MN,MN,mbridge  55008 
Champlin,Champlin MN 55316 ph: 763-354-1006,Minnesota,Champlin MN 55316 ,Champlin MN,MN,amplin  55316 
Chanhassen,Chanhassen MN 55317 ph: 952-470-0206,Minnesota,Chanhassen MN 55317 ,Chanhassen MN,MN,anhassen  55317 
Chaska,Chaska MN 55318 ph: 952-361-3043,Minnesota,Chaska MN 55318 ,Chaska MN,MN,aska  55318 
Coon Rapids,Coon Rapids MN 55433 ph: 763-323-2931,Minnesota,Coon Rapids MN 55433 ,Coon Rapids MN,MN,on pids  55433 
Coon Rapids,Coon Rapids MN 55433 ph: 763-785-0322,Minnesota,Coon Rapids MN 55433 ,Coon Rapids MN,MN,on pids  55433 
Cottage Grove,Cottage Grove MN 55016 ph: 651-458-8179,Minnesota,Cottage Grove MN 55016 ,Cottage Grove MN,MN,ttage ove  55016 
Crystal,Crystal MN 55428 ph: 763-533-2231,Minnesota,Crystal MN 55428 ,Crystal MN,MN,ystal  55428 
Duluth,Duluth MN 55811 ph: 218-727-8851,Minnesota,Duluth MN 55811 ,Duluth MN,MN,luth  55811 
Eagan,Eagan MN 55122 ph: 651-688-8706,Minnesota,Eagan MN 55122 ,Eagan MN,MN,gan  55122 
Eden Prairie,Eden Prairie MN 55344 ph: 952-944-0700,Minnesota,Eden Prairie MN 55344 ,Eden Prairie MN,MN,en airie  55344 
Edina,Edina MN 55435 ph: 952-925-4610,Minnesota,Edina MN 55435 ,Edina MN,MN,ina  55435 
Fergus Falls,Fergus Falls MN 56537 ph: 218-736-4360,Minnesota,Fergus Falls MN 56537 ,Fergus Falls MN,MN,rgus lls  56537 
Forest Lake,Forest Lake MN 55025 ph: 651-464-4700,Minnesota,Forest Lake MN 55025 ,Forest Lake MN,MN,rest ke  55025 
Fridley,Fridley MN 55421 ph: 763-852-0003,Minnesota,Fridley MN 55421 ,Fridley MN,MN,idley  55421 
Grand Rapids,Grand Rapids MN 55744 ph: 218-326-3011,Minnesota,Grand Rapids MN 55744 ,Grand Rapids MN,MN,and pids  55744 
Hastings,Hastings MN 55033 ph: 651-480-2080,Minnesota,Hastings MN 55033 ,Hastings MN,MN,stings  55033 
Hutchinson,Hutchinson MN 55350 ph: 320-587-7113,Minnesota,Hutchinson MN 55350 ,Hutchinson MN,MN,tchinson  55350 
Inver Grove Heights,Inver Grove Heights MN 55077 ph: 651-234-2949,Minnesota,Inver Grove Heights MN 55077 ,Inver Grove Heights MN,MN,ver ove ights  55077 
Lakeville,Lakeville MN 55044 ph: 952-892-5400,Minnesota,Lakeville MN 55044 ,Lakeville MN,MN,keville  55044 
Lino Lakes,Lino Lakes MN 55014 ph: 651-784-7601,Minnesota,Lino Lakes MN 55014 ,Lino Lakes MN,MN,no kes  55014 
Mankato,Mankato MN 56001 ph: 507-625-1011,Minnesota,Mankato MN 56001 ,Mankato MN,MN,nkato  56001 
Maple Grove,Maple Grove MN 55369 ph: 763-447-2506,Minnesota,Maple Grove MN 55369 ,Maple Grove MN,MN,ple ove  55369 
Medina,Medina MN 55340 ph: 763-852-0006,Minnesota,Medina MN 55340 ,Medina MN,MN,dina  55340 
Minneapolis,Minneapolis MN 55403 ph: 612-354-5914,Minnesota,Minneapolis MN 55403 ,Minneapolis MN,MN,nneapolis  55403 
Minneapolis,Minneapolis MN 55413 ph: 612-781-7033,Minnesota,Minneapolis MN 55413 ,Minneapolis MN,MN,nneapolis  55413 
Minneapolis,Minneapolis MN 55406 ph: 612-721-5701,Minnesota,Minneapolis MN 55406 ,Minneapolis MN,MN,nneapolis  55406 
Minneapolis,Minneapolis MN 55403 ph: 612-338-0085,Minnesota,Minneapolis MN 55403 ,Minneapolis MN,MN,nneapolis  55403 
Minnetonka,Minnetonka MN 55305 ph: 952-542-8250,Minnesota,Minnetonka MN 55305 ,Minnetonka MN,MN,nnetonka  55305 
Minnetonka,Minnetonka MN 55345 ph: 952-401-3830,Minnesota,Minnetonka MN 55345 ,Minnetonka MN,MN,nnetonka  55345 
Monticello,Monticello MN 55362 ph: 763-271-1100,Minnesota,Monticello MN 55362 ,Monticello MN,MN,nticello  55362 
Moorhead,Moorhead MN 56560 ph: 218-233-2326,Minnesota,Moorhead MN 56560 ,Moorhead MN,MN,orhead  56560 
New Ulm,New Ulm MN 56073 ph: 507-359-8099,Minnesota,New Ulm MN 56073 ,New Ulm MN,MN,w m  56073 
North Saint Paul,North Saint Paul MN 55109 ph: 651-779-5986,Minnesota,North Saint Paul MN 55109 ,North Saint Paul MN,MN,rth int ul  55109 
Northfield,Northfield MN 55057 ph: 507-645-4777,Minnesota,Northfield MN 55057 ,Northfield MN,MN,rthfield  55057 
Oakdale,Oakdale MN 55128 ph: 651-855-0990,Minnesota,Oakdale MN 55128 ,Oakdale MN,MN,kdale  55128 
Otsego,Otsego MN 55330 ph: 763-252-1315,Minnesota,Otsego MN 55330 ,Otsego MN,MN,sego  55330 
Owatonna,Owatonna MN 55060 ph: 507-451-1882,Minnesota,Owatonna MN 55060 ,Owatonna MN,MN,atonna  55060 
Plymouth,Plymouth MN 55442 ph: 763-553-0302,Minnesota,Plymouth MN 55442 ,Plymouth MN,MN,ymouth  55442 
Red Wing,Red Wing MN 55066 ph: 651-388-7704,Minnesota,Red Wing MN 55066 ,Red Wing MN,MN,d ng  55066 
Richfield,Richfield MN 55423 ph: 612-252-0473,Minnesota,Richfield MN 55423 ,Richfield MN,MN,chfield  55423 
Rochester,Rochester MN 55901 ph: 507-536-2555,Minnesota,Rochester MN 55901 ,Rochester MN,MN,chester  55901 
Rochester,Rochester MN 55904 ph: 507-206-5020,Minnesota,Rochester MN 55904 ,Rochester MN,MN,chester  55904 
Rogers,Rogers MN 55374 ph: 763-428-1394,Minnesota,Rogers MN 55374 ,Rogers MN,MN,gers  55374 
Roseville,Roseville MN 55113 ph: 651-631-0330,Minnesota,Roseville MN 55113 ,Roseville MN,MN,seville  55113 
Saint Cloud,Saint Cloud MN 56304 ph: 320-654-0096,Minnesota,Saint Cloud MN 56304 ,Saint Cloud MN,MN,int oud  56304 
Saint Cloud,Saint Cloud MN 56301 ph: 320-253-4740,Minnesota,Saint Cloud MN 56301 ,Saint Cloud MN,MN,int oud  56301 
Saint Louis Park,Saint Louis Park MN 55416 ph: 952-926-8855,Minnesota,Saint Louis Park MN 55416 ,Saint Louis Park MN,MN,int uis rk  55416 
Saint Paul,Saint Paul MN 55104 ph: 651-642-1146,Minnesota,Saint Paul MN 55104 ,Saint Paul MN,MN,int ul  55104 
Saint Paul,Saint Paul MN 55106 ph: 651-778-1188,Minnesota,Saint Paul MN 55106 ,Saint Paul MN,MN,int ul  55106 
Savage,Savage MN 55378 ph: 952-226-1444,Minnesota,Savage MN 55378 ,Savage MN,MN,vage  55378 
Shakopee,Shakopee MN 55379 ph: 952-445-5332,Minnesota,Shakopee MN 55379 ,Shakopee MN,MN,akopee  55379 
Shoreview,Shoreview MN 55126 ph: 651-486-0048,Minnesota,Shoreview MN 55126 ,Shoreview MN,MN,oreview  55126 
St Louis Park,St Louis Park MN 55426 ph: 952-935-6941,Minnesota,St Louis Park MN 55426 ,St Louis Park MN,MN, uis rk  55426 
Stillwater,Stillwater MN 55082 ph: 651-439-0292,Minnesota,Stillwater MN 55082 ,Stillwater MN,MN,illwater  55082 
Vadnais Heights,Vadnais Heights MN 55127 ph: 651-483-9637,Minnesota,Vadnais Heights MN 55127 ,Vadnais Heights MN,MN,dnais ights  55127 
Virginia,Virginia MN 55792 ph: 218-741-7104,Minnesota,Virginia MN 55792 ,Virginia MN,MN,rginia  55792 
Waconia,Waconia MN 55387 ph: 952-442-9333,Minnesota,Waconia MN 55387 ,Waconia MN,MN,conia  55387 
West St Paul,West St Paul MN 55118 ph: 651-455-6671,Minnesota,West St Paul MN 55118 ,West St Paul MN,MN,st  ul  55118 
Willmar,Willmar MN 56201 ph: 320-235-0916,Minnesota,Willmar MN 56201 ,Willmar MN,MN,llmar  56201 
Winona,Winona MN 55987 ph: 507-452-7006,Minnesota,Winona MN 55987 ,Winona MN,MN,nona  55987 
Woodbury,Woodbury MN 55125 ph: 651-239-1874,Minnesota,Woodbury MN 55125 ,Woodbury MN,MN,odbury  55125 
Woodbury,Woodbury MN 55125 ph: 651-735-7083,Minnesota,Woodbury MN 55125 ,Woodbury MN,MN,odbury  55125 
Diberville,Diberville MS 39540 ph: 228-233-3301,Mississippi,Diberville MS 39540 ,Diberville MS,MS,berville  39540 
Flowood,Flowood MS 39232 ph: 601-919-1415,Mississippi,Flowood MS 39232 ,Flowood MS,MS,owood  39232 
Hattiesburg,Hattiesburg MS 39402 ph: 601-261-5298,Mississippi,Hattiesburg MS 39402 ,Hattiesburg MS,MS,ttiesburg  39402 
Horn Lake,Horn Lake MS 38637 ph: 662-349-1585,Mississippi,Horn Lake MS 38637 ,Horn Lake MS,MS,rn ke  38637 
Jackson,Jackson MS 39213 ph: 601-956-1150,Mississippi,Jackson MS 39213 ,Jackson MS,MS,ckson  39213 
Olive Branch,Olive Branch MS 38654 ph: 662-892-3031,Mississippi,Olive Branch MS 38654 ,Olive Branch MS,MS,ive anch  38654 
Arnold,Arnold MO 63010 ph: 636-287-1055,Missouri,Arnold MO 63010 ,Arnold MO,MO,nold  63010 
Ballwin,Ballwin MO 63011 ph: 636-391-7500,Missouri,Ballwin MO 63011 ,Ballwin MO,MO,llwin  63011 
Belton,Belton MO 64012 ph: 816-331-3516,Missouri,Belton MO 64012 ,Belton MO,MO,lton  64012 
Blue Springs,Blue Springs MO 64014 ph: 816-622-3400,Missouri,Blue Springs MO 64014 ,Blue Springs MO,MO,ue rings  64014 
Branson,Branson MO 65616 ph: 417-243-4500,Missouri,Branson MO 65616 ,Branson MO,MO,anson  65616 
Brentwood,Brentwood MO 63144 ph: 314-918-9500,Missouri,Brentwood MO 63144 ,Brentwood MO,MO,entwood  63144 
Bridgeton,Bridgeton MO 63044 ph: 314-291-0600,Missouri,Bridgeton MO 63044 ,Bridgeton MO,MO,idgeton  63044 
Cape Girardeau,Cape Girardeau MO 63701 ph: 573-339-1778,Missouri,Cape Girardeau MO 63701 ,Cape Girardeau MO,MO,pe rardeau  63701 
Chesterfield,Chesterfield MO 63017 ph: 636-591-0234,Missouri,Chesterfield MO 63017 ,Chesterfield MO,MO,esterfield  63017 
Chesterfield,Chesterfield MO 63005 ph: 636-536-6207,Missouri,Chesterfield MO 63005 ,Chesterfield MO,MO,esterfield  63005 
Columbia,Columbia MO 65203 ph: 573-445-9544,Missouri,Columbia MO 65203 ,Columbia MO,MO,lumbia  65203 
Dardenne Prairie,Dardenne Prairie MO 63368 ph: 636-625-2820,Missouri,Dardenne Prairie MO 63368 ,Dardenne Prairie MO,MO,rdenne airie  63368 
Fenton,Fenton MO 63026 ph: 636-326-1479,Missouri,Fenton MO 63026 ,Fenton MO,MO,nton  63026 
Florissant,Florissant MO 63033 ph: 314-831-8000,Missouri,Florissant MO 63033 ,Florissant MO,MO,orissant  63033 
Independence,Independence MO 64055 ph: 816-373-1800,Missouri,Independence MO 64055 ,Independence MO,MO,dependence  64055 
Jefferson City,Jefferson City MO 65109 ph: 573-635-8401,Missouri,Jefferson City MO 65109 ,Jefferson City MO,MO,fferson ty  65109 
Jennings,Jennings MO 63136 ph: 314-513-0194,Missouri,Jennings MO 63136 ,Jennings MO,MO,nnings  63136 
Joplin,Joplin MO 64801 ph: 417-659-8755,Missouri,Joplin MO 64801 ,Joplin MO,MO,plin  64801 
Kansas City,Kansas City MO 64145 ph: 816-412-0108,Missouri,Kansas City MO 64145 ,Kansas City MO,MO,nsas ty  64145 
Kansas City,Kansas City MO 64117 ph: 816-452-2164,Missouri,Kansas City MO 64117 ,Kansas City MO,MO,nsas ty  64117 
Kansas City,Kansas City MO 64155 ph: 816-436-8711,Missouri,Kansas City MO 64155 ,Kansas City MO,MO,nsas ty  64155 
Kansas City,Kansas City MO 64114 ph: 816-444-6012,Missouri,Kansas City MO 64114 ,Kansas City MO,MO,nsas ty  64114 
Kansas City,Kansas City MO 64154 ph: 816-410-2940,Missouri,Kansas City MO 64154 ,Kansas City MO,MO,nsas ty  64154 
Kansas City,Kansas City MO 64157 ph: 816-781-4238,Missouri,Kansas City MO 64157 ,Kansas City MO,MO,nsas ty  64157 
Kirkwood,Kirkwood MO 63122 ph: 314-822-4051,Missouri,Kirkwood MO 63122 ,Kirkwood MO,MO,rkwood  63122 
Lees Summit,Lees Summit MO 64081 ph: 816-524-1405,Missouri,Lees Summit MO 64081 ,Lees Summit MO,MO,es mmit  64081 
O Fallon,O Fallon MO 63368 ph: 636-379-2903,Missouri,O Fallon MO 63368 ,O Fallon MO,MO,llon  63368 
Osage Beach,Osage Beach MO 65065 ph: 573-302-7969,Missouri,Osage Beach MO 65065 ,Osage Beach MO,MO,age ach  65065 
Saint Charles,Saint Charles MO 63303 ph: 636-922-0165,Missouri,Saint Charles MO 63303 ,Saint Charles MO,MO,int arles  63303 
Saint Louis,Saint Louis MO 63128 ph: 314-892-6336,Missouri,Saint Louis MO 63128 ,Saint Louis MO,MO,int uis  63128 
Saint Louis,Saint Louis MO 63109 ph: 314-802-0122,Missouri,Saint Louis MO 63109 ,Saint Louis MO,MO,int uis  63109 
Saint Peters,Saint Peters MO 63304 ph: 636-939-9433,Missouri,Saint Peters MO 63304 ,Saint Peters MO,MO,int ters  63304 
Springfield,Springfield MO 65804 ph: 417-889-1511,Missouri,Springfield MO 65804 ,Springfield MO,MO,ringfield  65804 
St Joseph,St Joseph MO 64506 ph: 816-671-0550,Missouri,St Joseph MO 64506 ,St Joseph MO,MO, seph  64506 
Washington,Washington MO 63090 ph: 636-825-7700,Missouri,Washington MO 63090 ,Washington MO,MO,shington  63090 
Wentzville,Wentzville MO 63385 ph: 636-639-7414,Missouri,Wentzville MO 63385 ,Wentzville MO,MO,ntzville  63385 
Billings,Billings MT 59102 ph: 406-652-5430,Montana,Billings MT 59102 ,Billings MT,MT,llings  59102 
Billings,Billings MT 59105 ph: 406-256-7020,Montana,Billings MT 59105 ,Billings MT,MT,llings  59105 
Bozeman,Bozeman MT 59718 ph: 406-582-9669,Montana,Bozeman MT 59718 ,Bozeman MT,MT,zeman  59718 
Great Falls,Great Falls MT 59405 ph: 406-727-9281,Montana,Great Falls MT 59405 ,Great Falls MT,MT,eat lls  59405 
Helena,Helena MT 59602 ph: 406-495-8368,Montana,Helena MT 59602 ,Helena MT,MT,lena  59602 
Kalispell,Kalispell MT 59901 ph: 406-751-8700,Montana,Kalispell MT 59901 ,Kalispell MT,MT,lispell  59901 
Missoula,Missoula MT 59808 ph: 406-543-4000,Montana,Missoula MT 59808 ,Missoula MT,MT,ssoula  59808 
Bellevue,Bellevue NE 68123 ph: 402-291-6747,Nebraska,Bellevue NE 68123 ,Bellevue NE,NE,llevue  68123 
Kearney,Kearney NE 68845 ph: 308-237-0644,Nebraska,Kearney NE 68845 ,Kearney NE,NE,arney  68845 
Lincoln,Lincoln NE 68504 ph: 402-464-8292,Nebraska,Lincoln NE 68504 ,Lincoln NE,NE,ncoln  68504 
Lincoln,Lincoln NE 68516 ph: 402-423-0300,Nebraska,Lincoln NE 68516 ,Lincoln NE,NE,ncoln  68516 
Lincoln,Lincoln NE 68516 ph: 402-420-3540,Nebraska,Lincoln NE 68516 ,Lincoln NE,NE,ncoln  68516 
Norfolk,Norfolk NE 68701 ph: 402-379-9933,Nebraska,Norfolk NE 68701 ,Norfolk NE,NE,rfolk  68701 
Omaha,Omaha NE 68137 ph: 402-201-2658,Nebraska,Omaha NE 68137 ,Omaha NE,NE,aha  68137 
Omaha,Omaha NE 68116 ph: 402-970-1000,Nebraska,Omaha NE 68116 ,Omaha NE,NE,aha  68116 
Omaha,Omaha NE 68130 ph: 402-697-4930,Nebraska,Omaha NE 68130 ,Omaha NE,NE,aha  68130 
Omaha,Omaha NE 68164 ph: 402-431-0060,Nebraska,Omaha NE 68164 ,Omaha NE,NE,aha  68164 
Omaha,Omaha NE 68122 ph: 402-573-2220,Nebraska,Omaha NE 68122 ,Omaha NE,NE,aha  68122 
Omaha,Omaha NE 68114 ph: 402-390-8880,Nebraska,Omaha NE 68114 ,Omaha NE,NE,aha  68114 
Papillion,Papillion NE 68046 ph: 402-597-9900,Nebraska,Papillion NE 68046 ,Papillion NE,NE,pillion  68046 
Scottsbluff,Scottsbluff NE 69361 ph: 308-632-6223,Nebraska,Scottsbluff NE 69361 ,Scottsbluff NE,NE,ottsbluff  69361 
Carson City,Carson City NV 89705 ph: 775-267-5151,Nevada,Carson City NV 89705 ,Carson City NV,NV,rson ty  89705 
Henderson,Henderson NV 89015 ph: 702-216-1900,Nevada,Henderson NV 89015 ,Henderson NV,NV,nderson  89015 
Henderson,Henderson NV 89014 ph: 702-451-5959,Nevada,Henderson NV 89014 ,Henderson NV,NV,nderson  89014 
Henderson,Henderson NV 89052 ph: 702-216-7100,Nevada,Henderson NV 89052 ,Henderson NV,NV,nderson  89052 
Las Vegas,Las Vegas NV 89104 ph: 702-438-8866,Nevada,Las Vegas NV 89104 ,Las Vegas NV,NV,s gas  89104 
Las Vegas,Las Vegas NV 89107 ph: 702-870-1981,Nevada,Las Vegas NV 89107 ,Las Vegas NV,NV,s gas  89107 
Las Vegas,Las Vegas NV 89129 ph: 702-645-5440,Nevada,Las Vegas NV 89129 ,Las Vegas NV,NV,s gas  89129 
Las Vegas,Las Vegas NV 89103 ph: 702-253-5151,Nevada,Las Vegas NV 89103 ,Las Vegas NV,NV,s gas  89103 
Las Vegas,Las Vegas NV 89119 ph: 702-732-2218,Nevada,Las Vegas NV 89119 ,Las Vegas NV,NV,s gas  89119 
Las Vegas,Las Vegas NV 89139 ph: 702-266-8049,Nevada,Las Vegas NV 89139 ,Las Vegas NV,NV,s gas  89139 
Las Vegas,Las Vegas NV 89147 ph: 702-251-0330,Nevada,Las Vegas NV 89147 ,Las Vegas NV,NV,s gas  89147 
Las Vegas,Las Vegas NV 89130 ph: 702-515-8540,Nevada,Las Vegas NV 89130 ,Las Vegas NV,NV,s gas  89130 
Las Vegas,Las Vegas NV 89131 ph: 702-839-1591,Nevada,Las Vegas NV 89131 ,Las Vegas NV,NV,s gas  89131 
Las Vegas,Las Vegas NV 89117 ph: 702-933-2300,Nevada,Las Vegas NV 89117 ,Las Vegas NV,NV,s gas  89117 
Las Vegas,Las Vegas NV 89183 ph: 702-914-9555,Nevada,Las Vegas NV 89183 ,Las Vegas NV,NV,s gas  89183 
North Las Vegas,North Las Vegas NV 89032 ph: 702-648-1005,Nevada,North Las Vegas NV 89032 ,North Las Vegas NV,NV,rth s gas  89032 
North Las Vegas,North Las Vegas NV 89084 ph: 702-216-4501,Nevada,North Las Vegas NV 89084 ,North Las Vegas NV,NV,rth s gas  89084 
Reno,Reno NV 89511 ph: 775-853-8900,Nevada,Reno NV 89511 ,Reno NV,NV,no  89511 
Sparks,Sparks NV 89434 ph: 775-332-1003,Nevada,Sparks NV 89434 ,Sparks NV,NV,arks  89434 
Bedford,Bedford NH 03110 ph: 603-263-0061,New Hampshire,Bedford NH 03110 ,Bedford NH,NH,dford  03110 
Concord,Concord NH 03301 ph: 603-227-0809,New Hampshire,Concord NH 03301 ,Concord NH,NH,ncord  03301 
Greenland,Greenland NH 03840 ph: 603-501-1470,New Hampshire,Greenland NH 03840 ,Greenland NH,NH,eenland  03840 
Hooksett,Hooksett NH 03106 ph: 603-621-1451,New Hampshire,Hooksett NH 03106 ,Hooksett NH,NH,oksett  03106 
Keene,Keene NH 03431 ph: 603-354-2151,New Hampshire,Keene NH 03431 ,Keene NH,NH,ene  03431 
Nashua,Nashua NH 03060 ph: 603-891-4858,New Hampshire,Nashua NH 03060 ,Nashua NH,NH,shua  03060 
Nashua,Nashua NH 03063 ph: 603-324-0039,New Hampshire,Nashua NH 03063 ,Nashua NH,NH,shua  03063 
Salem,Salem NH 03079 ph: 603-870-0071,New Hampshire,Salem NH 03079 ,Salem NH,NH,lem  03079 
Somersworth,Somersworth NH 03878 ph: 603-692-6750,New Hampshire,Somersworth NH 03878 ,Somersworth NH,NH,mersworth  03878 
Brick,Brick NJ 08723 ph: 732-262-0600,New Jersey,Brick NJ 08723 ,Brick NJ,NJ,ick  08723 
Bridgewater,Bridgewater NJ 08807 ph: 732-868-8333,New Jersey,Bridgewater NJ 08807 ,Bridgewater NJ,NJ,idgewater  08807 
Burlington,Burlington NJ 08016 ph: 609-239-9885,New Jersey,Burlington NJ 08016 ,Burlington NJ,NJ,rlington  08016 
Cherry Hill,Cherry Hill NJ 08002 ph: 856-317-1445,New Jersey,Cherry Hill NJ 08002 ,Cherry Hill NJ,NJ,erry ll  08002 
Clark,Clark NJ 07066 ph: 732-882-0736,New Jersey,Clark NJ 07066 ,Clark NJ,NJ,ark  07066 
Clifton,Clifton NJ 07014 ph: 973-330-0002,New Jersey,Clifton NJ 07014 ,Clifton NJ,NJ,ifton  07014 
Delran,Delran NJ 08075 ph: 856-544-9050,New Jersey,Delran NJ 08075 ,Delran NJ,NJ,lran  08075 
Deptford,Deptford NJ 08096 ph: 856-401-8878,New Jersey,Deptford NJ 08096 ,Deptford NJ,NJ,ptford  08096 
East Hanover,East Hanover NJ 07936 ph: 973-887-3145,New Jersey,East Hanover NJ 07936 ,East Hanover NJ,NJ,st nover  07936 
East Windsor,East Windsor NJ 08520 ph: 609-371-2273,New Jersey,East Windsor NJ 08520 ,East Windsor NJ,NJ,st ndsor  08520 
Edgewater,Edgewater NJ 07020 ph: 201-402-0252,New Jersey,Edgewater NJ 07020 ,Edgewater NJ,NJ,gewater  07020 
Edison,Edison NJ 08837 ph: 732-744-1100,New Jersey,Edison NJ 08837 ,Edison NJ,NJ,ison  08837 
Evesham,Evesham NJ 08053 ph: 856-810-8442,New Jersey,Evesham NJ 08053 ,Evesham NJ,NJ,esham  08053 
Fairfield,Fairfield NJ 07004 ph: 973-396-0069,New Jersey,Fairfield NJ 07004 ,Fairfield NJ,NJ,irfield  07004 
Hackensack,Hackensack NJ 07601 ph: 201-678-0599,New Jersey,Hackensack NJ 07601 ,Hackensack NJ,NJ,ckensack  07601 
Hackettstown,Hackettstown NJ 07840 ph: 908-452-9251,New Jersey,Hackettstown NJ 07840 ,Hackettstown NJ,NJ,ckettstown  07840 
Howell,Howell NJ 07731 ph: 732-363-4182,New Jersey,Howell NJ 07731 ,Howell NJ,NJ,well  07731 
Jersey City,Jersey City NJ 07310 ph: 201-499-0017,New Jersey,Jersey City NJ 07310 ,Jersey City NJ,NJ,rsey ty  07310 
Linden,Linden NJ 07036 ph: 908-474-1733,New Jersey,Linden NJ 07036 ,Linden NJ,NJ,nden  07036 
Manahawkin,Manahawkin NJ 08050 ph: 609-978-4922,New Jersey,Manahawkin NJ 08050 ,Manahawkin NJ,NJ,nahawkin  08050 
Manalapan,Manalapan NJ 07726 ph: 732-294-5190,New Jersey,Manalapan NJ 07726 ,Manalapan NJ,NJ,nalapan  07726 
Mays Landing,Mays Landing NJ 08330 ph: 609-645-8133,New Jersey,Mays Landing NJ 08330 ,Mays Landing NJ,NJ,ys nding  08330 
Middletown,Middletown NJ 07748 ph: 732-706-9222,New Jersey,Middletown NJ 07748 ,Middletown NJ,NJ,ddletown  07748 
Milltown,Milltown NJ 08850 ph: 732-613-3903,New Jersey,Milltown NJ 08850 ,Milltown NJ,NJ,lltown  08850 
Millville,Millville NJ 08332 ph: 856-327-7340,New Jersey,Millville NJ 08332 ,Millville NJ,NJ,llville  08332 
Monmouth Junction,Monmouth Junction NJ 08852 ph: 732-329-5220,New Jersey,Monmouth Junction NJ 08852 ,Monmouth Junction NJ,NJ,nmouth nction  08852 
Mount Laurel,Mount Laurel NJ 08054 ph: 856-533-1197,New Jersey,Mount Laurel NJ 08054 ,Mount Laurel NJ,NJ,unt urel  08054 
North Bergen,North Bergen NJ 07047 ph: 201-520-1701,New Jersey,North Bergen NJ 07047 ,North Bergen NJ,NJ,rth rgen  07047 
Ocean,Ocean NJ 07712 ph: 732-918-6645,New Jersey,Ocean NJ 07712 ,Ocean NJ,NJ,ean  07712 
Paramus,Paramus NJ 07652 ph: 201-881-7660,New Jersey,Paramus NJ 07652 ,Paramus NJ,NJ,ramus  07652 
Phillipsburg,Phillipsburg NJ 08865 ph: 908-387-1305,New Jersey,Phillipsburg NJ 08865 ,Phillipsburg NJ,NJ,illipsburg  08865 
Princeton,Princeton NJ 08540 ph: 609-951-8555,New Jersey,Princeton NJ 08540 ,Princeton NJ,NJ,inceton  08540 
Riverdale,Riverdale NJ 07457 ph: 973-850-2861,New Jersey,Riverdale NJ 07457 ,Riverdale NJ,NJ,verdale  07457 
Rockaway,Rockaway NJ 07866 ph: 973-989-5740,New Jersey,Rockaway NJ 07866 ,Rockaway NJ,NJ,ckaway  07866 
Sewell,Sewell NJ 08080 ph: 856-415-2380,New Jersey,Sewell NJ 08080 ,Sewell NJ,NJ,well  08080 
Sicklerville,Sicklerville NJ 08081 ph: 856-740-2173,New Jersey,Sicklerville NJ 08081 ,Sicklerville NJ,NJ,cklerville  08081 
South Plainfield,South Plainfield NJ 07080 ph: 908-444-2023,New Jersey,South Plainfield NJ 07080 ,South Plainfield NJ,NJ,uth ainfield  07080 
Toms River,Toms River NJ 08753 ph: 732-557-0220,New Jersey,Toms River NJ 08753 ,Toms River NJ,NJ,ms ver  08753 
Turnersville,Turnersville NJ 08012 ph: 856-875-0082,New Jersey,Turnersville NJ 08012 ,Turnersville NJ,NJ,rnersville  08012 
Union,Union NJ 07083 ph: 908-688-2344,New Jersey,Union NJ 07083 ,Union NJ,NJ,ion  07083 
Vauxhall,Vauxhall NJ 07088 ph: 908-622-9002,New Jersey,Vauxhall NJ 07088 ,Vauxhall NJ,NJ,uxhall  07088 
Voorhees,Voorhees NJ 08043 ph: 856-566-0900,New Jersey,Voorhees NJ 08043 ,Voorhees NJ,NJ,orhees  08043 
Watchung,Watchung NJ 07069 ph: 908-769-8699,New Jersey,Watchung NJ 07069 ,Watchung NJ,NJ,tchung  07069 
Albuquerque,Albuquerque NM 87110-5402 ph: 505-200-3234,New Mexico,Albuquerque NM 87110-5402 ,Albuquerque NM,NM,buquerque  87110-5402 
Albuquerque,Albuquerque NM 87112 ph: 505-292-9110,New Mexico,Albuquerque NM 87112 ,Albuquerque NM,NM,buquerque  87112 
Albuquerque,Albuquerque NM 87113 ph: 505-346-0135,New Mexico,Albuquerque NM 87113 ,Albuquerque NM,NM,buquerque  87113 
Albuquerque,Albuquerque NM 87111 ph: 505-293-9223,New Mexico,Albuquerque NM 87111 ,Albuquerque NM,NM,buquerque  87111 
Albuquerque,Albuquerque NM 87114 ph: 505-897-7923,New Mexico,Albuquerque NM 87114 ,Albuquerque NM,NM,buquerque  87114 
Farmington,Farmington NM 87402 ph: 505-327-7400,New Mexico,Farmington NM 87402 ,Farmington NM,NM,rmington  87402 
Las Cruces,Las Cruces NM 88011 ph: 575-532-5899,New Mexico,Las Cruces NM 88011 ,Las Cruces NM,NM,s uces  88011 
Rio Rancho,Rio Rancho NM 87124 ph: 505-994-2820,New Mexico,Rio Rancho NM 87124 ,Rio Rancho NM,NM,o ncho  87124 
Roswell,Roswell NM 88201 ph: 575-623-0445,New Mexico,Roswell NM 88201 ,Roswell NM,NM,swell  88201 
Santa Fe,Santa Fe NM 87507 ph: 505-471-9600,New Mexico,Santa Fe NM 87507 ,Santa Fe NM,NM,nta   87507 
Amherst,Amherst NY 14228 ph: 716-831-8750,New York,Amherst NY 14228 ,Amherst NY,NY,herst  14228 
Amsterdam,Amsterdam NY 12010 ph: 518-770-7180,New York,Amsterdam NY 12010 ,Amsterdam NY,NY,sterdam  12010 
Batavia,Batavia NY 14020 ph: 585-300-2045,New York,Batavia NY 14020 ,Batavia NY,NY,tavia  14020 
Bay Shore,Bay Shore NY 11706 ph: 631-969-8958,New York,Bay Shore NY 11706 ,Bay Shore NY,NY,y ore  11706 
Bronx,Bronx NY 10463 ph: 718-733-7199,New York,Bronx NY 10463 ,Bronx NY,NY,onx  10463 
Bronx,Bronx NY 10451 ph: 718-401-5651,New York,Bronx NY 10451 ,Bronx NY,NY,onx  10451 
Brooklyn,Brooklyn NY 11217 ph: 718-290-1109,New York,Brooklyn NY 11217 ,Brooklyn NY,NY,ooklyn  11217 
Brooklyn,Brooklyn NY 11210 ph: 718-637-5005,New York,Brooklyn NY 11210 ,Brooklyn NY,NY,ooklyn  11210 
Brooklyn,Brooklyn NY 11239 ph: 718-235-6032,New York,Brooklyn NY 11239 ,Brooklyn NY,NY,ooklyn  11239 
Buffalo,Buffalo NY 14216 ph: 716-447-0094,New York,Buffalo NY 14216 ,Buffalo NY,NY,ffalo  14216 
Central Islip,Central Islip NY 11722 ph: 631-297-2011,New York,Central Islip NY 11722 ,Central Islip NY,NY,ntral lip  11722 
Cheektowaga,Cheektowaga NY 14225 ph: 716-896-0493,New York,Cheektowaga NY 14225 ,Cheektowaga NY,NY,eektowaga  14225 
Cicero,Cicero NY 13039 ph: 315-698-2380,New York,Cicero NY 13039 ,Cicero NY,NY,cero  13039 
Clifton Park,Clifton Park NY 12065 ph: 518-371-6520,New York,Clifton Park NY 12065 ,Clifton Park NY,NY,ifton rk  12065 
College Point,College Point NY 11356 ph: 718-661-4346,New York,College Point NY 11356 ,College Point NY,NY,llege int  11356 
Colonie,Colonie NY 12205 ph: 518-489-1112,New York,Colonie NY 12205 ,Colonie NY,NY,lonie  12205 
Commack,Commack NY 11725 ph: 631-462-5507,New York,Commack NY 11725 ,Commack NY,NY,mmack  11725 
Commack,Commack NY 11725 ph: 631-462-8969,New York,Commack NY 11725 ,Commack NY,NY,mmack  11725 
Copiague,Copiague NY 11726 ph: 631-841-5056,New York,Copiague NY 11726 ,Copiague NY,NY,piague  11726 
Depew,Depew NY 14043 ph: 716-608-2020,New York,Depew NY 14043 ,Depew NY,NY,pew  14043 
Elmhurst,Elmhurst NY 11373 ph: 718-760-5656,New York,Elmhurst NY 11373 ,Elmhurst NY,NY,mhurst  11373 
Elmira,Elmira NY 14903 ph: 607-796-5910,New York,Elmira NY 14903 ,Elmira NY,NY,mira  14903 
Fairport,Fairport NY 14450 ph: 585-377-0360,New York,Fairport NY 14450 ,Fairport NY,NY,irport  14450 
Farmingdale,Farmingdale NY 11735 ph: 631-962-0270,New York,Farmingdale NY 11735 ,Farmingdale NY,NY,rmingdale  11735 
Fayetteville,Fayetteville NY 13066 ph: 315-637-6205,New York,Fayetteville NY 13066 ,Fayetteville NY,NY,yetteville  13066 
Flushing,Flushing NY 11354 ph: 347-532-9942,New York,Flushing NY 11354 ,Flushing NY,NY,ushing  11354 
Hicksville,Hicksville NY 11801 ph: 516-806-2096,New York,Hicksville NY 11801 ,Hicksville NY,NY,cksville  11801 
Irondequoit,Irondequoit NY 14622 ph: 585-797-0089,New York,Irondequoit NY 14622 ,Irondequoit NY,NY,ondequoit  14622 
Ithaca,Ithaca NY 14850 ph: 607-257-3387,New York,Ithaca NY 14850 ,Ithaca NY,NY,haca  14850 
Kingston,Kingston NY 12401 ph: 845-336-2045,New York,Kingston NY 12401 ,Kingston NY,NY,ngston  12401 
Latham,Latham NY 12110 ph: 518-782-0348,New York,Latham NY 12110 ,Latham NY,NY,tham  12110 
Levittown,Levittown NY 11756 ph: 516-731-9392,New York,Levittown NY 11756 ,Levittown NY,NY,vittown  11756 
Liverpool,Liverpool NY 13090 ph: 315-652-5157,New York,Liverpool NY 13090 ,Liverpool NY,NY,verpool  13090 
Medford,Medford NY 11763 ph: 631-286-0287,New York,Medford NY 11763 ,Medford NY,NY,dford  11763 
Middletown,Middletown NY 10941 ph: 845-692-3700,New York,Middletown NY 10941 ,Middletown NY,NY,ddletown  10941 
Monroe,Monroe NY 10950 ph: 845-783-5686,New York,Monroe NY 10950 ,Monroe NY,NY,nroe  10950 
Mount Kisco,Mount Kisco NY 10549 ph: 914-602-0004,New York,Mount Kisco NY 10549 ,Mount Kisco NY,NY,unt sco  10549 
Mount Vernon,Mount Vernon NY 10550 ph: 914-530-3000,New York,Mount Vernon NY 10550 ,Mount Vernon NY,NY,unt rnon  10550 
New Hartford,New Hartford NY 13413 ph: 315-738-0471,New York,New Hartford NY 13413 ,New Hartford NY,NY,w rtford  13413 
New York,New York NY 10035 ph: 212-835-0860,New York,New York NY 10035 ,New York NY,NY,w rk  10035 
Newburgh,Newburgh NY 12550 ph: 845-838-7120,New York,Newburgh NY 12550 ,Newburgh NY,NY,wburgh  12550 
Niagara Falls,Niagara Falls NY 14304 ph: 716-283-0085,New York,Niagara Falls NY 14304 ,Niagara Falls NY,NY,agara lls  14304 
Orchard Park,Orchard Park NY 14127 ph: 716-821-9511,New York,Orchard Park NY 14127 ,Orchard Park NY,NY,chard rk  14127 
Plattsburgh,Plattsburgh NY 12901 ph: 518-247-4961,New York,Plattsburgh NY 12901 ,Plattsburgh NY,NY,attsburgh  12901 
Poughkeepsie,Poughkeepsie NY 12601 ph: 845-297-0938,New York,Poughkeepsie NY 12601 ,Poughkeepsie NY,NY,ughkeepsie  12601 
Queensbury,Queensbury NY 12804 ph: 518-792-6016,New York,Queensbury NY 12804 ,Queensbury NY,NY,eensbury  12804 
Rensselaer,Rensselaer NY 12144 ph: 518-283-6476,New York,Rensselaer NY 12144 ,Rensselaer NY,NY,nsselaer  12144 
Riverhead,Riverhead NY 11901 ph: 631-208-9424,New York,Riverhead NY 11901 ,Riverhead NY,NY,verhead  11901 
Rochester,Rochester NY 14623 ph: 585-424-3370,New York,Rochester NY 14623 ,Rochester NY,NY,chester  14623 
Rochester,Rochester NY 14624 ph: 585-571-3979,New York,Rochester NY 14624 ,Rochester NY,NY,chester  14624 
Rochester,Rochester NY 14626 ph: 585-225-0240,New York,Rochester NY 14626 ,Rochester NY,NY,chester  14626 
Saratoga Springs,Saratoga Springs NY 12866 ph: 518-226-0003,New York,Saratoga Springs NY 12866 ,Saratoga Springs NY,NY,ratoga rings  12866 
Schenectady,Schenectady NY 12304 ph: 518-346-8540,New York,Schenectady NY 12304 ,Schenectady NY,NY,henectady  12304 
South Setauket,South Setauket NY 11720 ph: 631-580-5356,New York,South Setauket NY 11720 ,South Setauket NY,NY,uth tauket  11720 
Spring Valley,Spring Valley NY 10977 ph: 845-371-5013,New York,Spring Valley NY 10977 ,Spring Valley NY,NY,ring lley  10977 
Staten Island,Staten Island NY 10309 ph: 718-701-6205,New York,Staten Island NY 10309 ,Staten Island NY,NY,aten land  10309 
Syracuse,Syracuse NY 13219 ph: 315-233-0600,New York,Syracuse NY 13219 ,Syracuse NY,NY,racuse  13219 
Vestal,Vestal NY 13850 ph: 607-729-6611,New York,Vestal NY 13850 ,Vestal NY,NY,stal  13850 
Victor,Victor NY 14564 ph: 585-425-0800,New York,Victor NY 14564 ,Victor NY,NY,ctor  14564 
Watertown,Watertown NY 13601 ph: 315-786-2540,New York,Watertown NY 13601 ,Watertown NY,NY,tertown  13601 
Webster,Webster NY 14580 ph: 585-216-3000,New York,Webster NY 14580 ,Webster NY,NY,bster  14580 
West Nyack,West Nyack NY 10994 ph: 845-348-6440,New York,West Nyack NY 10994 ,West Nyack NY,NY,st ack  10994 
Westbury,Westbury NY 11590 ph: 516-222-1003,New York,Westbury NY 11590 ,Westbury NY,NY,stbury  11590 
White Plains,White Plains NY 10601 ph: 914-821-0012,New York,White Plains NY 10601 ,White Plains NY,NY,ite ains  10601 
Williamsville,Williamsville NY 14221 ph: 716-639-1945,New York,Williamsville NY 14221 ,Williamsville NY,NY,lliamsville  14221 
Apex,Apex NC 27502 ph: 919-372-1405,North Carolina,Apex NC 27502 ,Apex NC,NC,ex  27502 
Arden,Arden NC 28704 ph: 828-681-0341,North Carolina,Arden NC 28704 ,Arden NC,NC,den  28704 
Asheville,Asheville NC 28805 ph: 828-298-1262,North Carolina,Asheville NC 28805 ,Asheville NC,NC,heville  28805 
Burlington,Burlington NC 27215 ph: 336-524-9354,North Carolina,Burlington NC 27215 ,Burlington NC,NC,rlington  27215 
Cary,Cary NC 27518 ph: 919-233-4451,North Carolina,Cary NC 27518 ,Cary NC,NC,ry  27518 
Charlotte,Charlotte NC 28273 ph: 704-583-2601,North Carolina,Charlotte NC 28273 ,Charlotte NC,NC,arlotte  28273 
Charlotte,Charlotte NC 28277 ph: 704-542-1856,North Carolina,Charlotte NC 28277 ,Charlotte NC,NC,arlotte  28277 
Charlotte,Charlotte NC 28213 ph: 704-599-6332,North Carolina,Charlotte NC 28213 ,Charlotte NC,NC,arlotte  28213 
Charlotte,Charlotte NC 28227 ph: 704-264-0078,North Carolina,Charlotte NC 28227 ,Charlotte NC,NC,arlotte  28227 
Charlotte,Charlotte NC 28204 ph: 704-973-3121,North Carolina,Charlotte NC 28204 ,Charlotte NC,NC,arlotte  28204 
Charlotte,Charlotte NC 28273 ph: 704-556-7082,North Carolina,Charlotte NC 28273 ,Charlotte NC,NC,arlotte  28273 
Charlotte,Charlotte NC 28216 ph: 704-526-3648,North Carolina,Charlotte NC 28216 ,Charlotte NC,NC,arlotte  28216 
Charlotte,Charlotte NC 28277 ph: 704-264-3521,North Carolina,Charlotte NC 28277 ,Charlotte NC,NC,arlotte  28277 
Concord,Concord NC 28027 ph: 704-262-6080,North Carolina,Concord NC 28027 ,Concord NC,NC,ncord  28027 
Durham,Durham NC 27707 ph: 919-765-0008,North Carolina,Durham NC 27707 ,Durham NC,NC,rham  27707 
Durham,Durham NC 27713 ph: 919-425-0001,North Carolina,Durham NC 27713 ,Durham NC,NC,rham  27713 
Fayetteville,Fayetteville NC 28314 ph: 910-860-4400,North Carolina,Fayetteville NC 28314 ,Fayetteville NC,NC,yetteville  28314 
Garner,Garner NC 27529 ph: 919-661-2017,North Carolina,Garner NC 27529 ,Garner NC,NC,rner  27529 
Garner,Garner NC 27529 ph: 919-772-9065,North Carolina,Garner NC 27529 ,Garner NC,NC,rner  27529 
Gastonia,Gastonia NC 28054 ph: 704-691-6001,North Carolina,Gastonia NC 28054 ,Gastonia NC,NC,stonia  28054 
Gastonia,Gastonia NC 28054 ph: 704-864-3271,North Carolina,Gastonia NC 28054 ,Gastonia NC,NC,stonia  28054 
Goldsboro,Goldsboro NC 27534 ph: 919-778-2150,North Carolina,Goldsboro NC 27534 ,Goldsboro NC,NC,ldsboro  27534 
Greensboro,Greensboro NC 27407 ph: 336-856-1066,North Carolina,Greensboro NC 27407 ,Greensboro NC,NC,eensboro  27407 
Greensboro,Greensboro NC 27410 ph: 336-455-9900,North Carolina,Greensboro NC 27410 ,Greensboro NC,NC,eensboro  27410 
Greensboro,Greensboro NC 27408 ph: 336-286-2511,North Carolina,Greensboro NC 27408 ,Greensboro NC,NC,eensboro  27408 
Greenville,Greenville NC 27834 ph: 252-355-8020,North Carolina,Greenville NC 27834 ,Greenville NC,NC,eenville  27834 
Hickory,Hickory NC 28602 ph: 828-267-0032,North Carolina,Hickory NC 28602 ,Hickory NC,NC,ckory  28602 
High Point,High Point NC 27262 ph: 336-884-5222,North Carolina,High Point NC 27262 ,High Point NC,NC,gh int  27262 
Holly Springs,Holly Springs NC 27540-4416 ph: 919-762-3149,North Carolina,Holly Springs NC 27540-4416 ,Holly Springs NC,NC,lly rings  27540-4416 
Huntersville,Huntersville NC 28078 ph: 704-896-1813,North Carolina,Huntersville NC 28078 ,Huntersville NC,NC,ntersville  28078 
Jacksonville,Jacksonville NC 28546 ph: 910-937-6400,North Carolina,Jacksonville NC 28546 ,Jacksonville NC,NC,cksonville  28546 
Kernersville,Kernersville NC 27284 ph: 336-992-1680,North Carolina,Kernersville NC 27284 ,Kernersville NC,NC,rnersville  27284 
Knightdale,Knightdale NC 27545 ph: 919-388-6100,North Carolina,Knightdale NC 27545 ,Knightdale NC,NC,ightdale  27545 
Matthews,Matthews NC 28105 ph: 704-845-0948,North Carolina,Matthews NC 28105 ,Matthews NC,NC,tthews  28105 
Monroe,Monroe NC 28110 ph: 704-225-8378,North Carolina,Monroe NC 28110 ,Monroe NC,NC,nroe  28110 
Mooresville,Mooresville NC 28117 ph: 704-799-1233,North Carolina,Mooresville NC 28117 ,Mooresville NC,NC,oresville  28117 
Morrisville,Morrisville NC 27560 ph: 919-379-2180,North Carolina,Morrisville NC 27560 ,Morrisville NC,NC,rrisville  27560 
New Bern,New Bern NC 28562 ph: 252-638-2954,North Carolina,New Bern NC 28562 ,New Bern NC,NC,w rn  28562 
Raleigh,Raleigh NC 27609 ph: 919-781-9848,North Carolina,Raleigh NC 27609 ,Raleigh NC,NC,leigh  27609 
Raleigh,Raleigh NC 27613 ph: 919-785-1803,North Carolina,Raleigh NC 27613 ,Raleigh NC,NC,leigh  27613 
Raleigh,Raleigh NC 27616 ph: 919-790-1024,North Carolina,Raleigh NC 27616 ,Raleigh NC,NC,leigh  27616 
Raleigh,Raleigh NC 27617 ph: 919-765-0005,North Carolina,Raleigh NC 27617 ,Raleigh NC,NC,leigh  27617 
Rocky Mount,Rocky Mount NC 27804 ph: 252-443-1195,North Carolina,Rocky Mount NC 27804 ,Rocky Mount NC,NC,cky unt  27804 
Wake Forest,Wake Forest NC 27587 ph: 919-761-1001,North Carolina,Wake Forest NC 27587 ,Wake Forest NC,NC,ke rest  27587 
Wesley Chapel,Wesley Chapel NC 28104 ph: 704-234-5271,North Carolina,Wesley Chapel NC 28104 ,Wesley Chapel NC,NC,sley apel  28104 
Wilmington,Wilmington NC 28405 ph: 910-395-5057,North Carolina,Wilmington NC 28405 ,Wilmington NC,NC,lmington  28405 
Wilson,Wilson NC 27896 ph: 252-265-4500,North Carolina,Wilson NC 27896 ,Wilson NC,NC,lson  27896 
Winston Salem,Winston Salem NC 27103 ph: 336-774-9687,North Carolina,Winston Salem NC 27103 ,Winston Salem NC,NC,nston lem  27103 
Winston Salem,Winston Salem NC 27105 ph: 336-744-7880,North Carolina,Winston Salem NC 27105 ,Winston Salem NC,NC,nston lem  27105 
Bismarck,Bismarck ND 58504 ph: 701-250-3180,North Dakota,Bismarck ND 58504 ,Bismarck ND,ND,smarck  58504 
Fargo,Fargo ND 58103 ph: 701-282-7400,North Dakota,Fargo ND 58103 ,Fargo ND,ND,rgo  58103 
Grand Forks,Grand Forks ND 58201 ph: 701-787-6177,North Dakota,Grand Forks ND 58201 ,Grand Forks ND,ND,and rks  58201 
Minot,Minot ND 58701 ph: 701-852-5820,North Dakota,Minot ND 58701 ,Minot ND,ND,not  58701 
Akron,Akron OH 44312 ph: 330-645-8252,Ohio,Akron OH 44312 ,Akron OH,OH,ron  44312 
Amherst,Amherst OH 44001 ph: 440-985-7100,Ohio,Amherst OH 44001 ,Amherst OH,OH,herst  44001 
Aurora,Aurora OH 44202 ph: 330-995-6549,Ohio,Aurora OH 44202 ,Aurora OH,OH,rora  44202 
Avon,Avon OH 44011 ph: 440-937-4301,Ohio,Avon OH 44011 ,Avon OH,OH,on  44011 
Beavercreek,Beavercreek OH 45431 ph: 937-431-8660,Ohio,Beavercreek OH 45431 ,Beavercreek OH,OH,avercreek  45431 
Blue Ash,Blue Ash OH 45236 ph: 513-898-2021,Ohio,Blue Ash OH 45236 ,Blue Ash OH,OH,ue h  45236 
Boardman,Boardman OH 44512 ph: 330-758-5900,Ohio,Boardman OH 44512 ,Boardman OH,OH,ardman  44512 
Cincinnati,Cincinnati OH 45209 ph: 513-631-5690,Ohio,Cincinnati OH 45209 ,Cincinnati OH,OH,ncinnati  45209 
Cincinnati,Cincinnati OH 45211 ph: 513-719-1076,Ohio,Cincinnati OH 45211 ,Cincinnati OH,OH,ncinnati  45211 
Cincinnati,Cincinnati OH 45255 ph: 513-474-6006,Ohio,Cincinnati OH 45255 ,Cincinnati OH,OH,ncinnati  45255 
Cincinnati,Cincinnati OH 45251 ph: 513-719-0037,Ohio,Cincinnati OH 45251 ,Cincinnati OH,OH,ncinnati  45251 
Cincinnati,Cincinnati OH 45249 ph: 513-677-1888,Ohio,Cincinnati OH 45249 ,Cincinnati OH,OH,ncinnati  45249 
Cleveland,Cleveland OH 44111 ph: 216-325-0772,Ohio,Cleveland OH 44111 ,Cleveland OH,OH,eveland  44111 
Cleveland,Cleveland OH 44109 ph: 216-325-1107,Ohio,Cleveland OH 44109 ,Cleveland OH,OH,eveland  44109 
Columbus,Columbus OH 43240 ph: 614-430-5585,Ohio,Columbus OH 43240 ,Columbus OH,OH,lumbus  43240 
Columbus,Columbus OH 43212 ph: 614-298-1070,Ohio,Columbus OH 43212 ,Columbus OH,OH,lumbus  43212 
Columbus,Columbus OH 43228 ph: 614-279-4224,Ohio,Columbus OH 43228 ,Columbus OH,OH,lumbus  43228 
Columbus,Columbus OH 43219 ph: 614-471-2154,Ohio,Columbus OH 43219 ,Columbus OH,OH,lumbus  43219 
Columbus,Columbus OH 43214 ph: 614-781-1978,Ohio,Columbus OH 43214 ,Columbus OH,OH,lumbus  43214 
Cuyahoga Falls,Cuyahoga Falls OH 44221 ph: 330-928-0014,Ohio,Cuyahoga Falls OH 44221 ,Cuyahoga Falls OH,OH,yahoga lls  44221 
Dayton,Dayton OH 45459 ph: 937-435-3817,Ohio,Dayton OH 45459 ,Dayton OH,OH,yton  45459 
Dayton,Dayton OH 45440 ph: 937-439-9301,Ohio,Dayton OH 45440 ,Dayton OH,OH,yton  45440 
Dublin,Dublin OH 43017 ph: 614-798-8160,Ohio,Dublin OH 43017 ,Dublin OH,OH,blin  43017 
Elyria,Elyria OH 44035 ph: 440-324-1000,Ohio,Elyria OH 44035 ,Elyria OH,OH,yria  44035 
Fairlawn,Fairlawn OH 44333 ph: 330-865-9001,Ohio,Fairlawn OH 44333 ,Fairlawn OH,OH,irlawn  44333 
Fairview Park,Fairview Park OH 44126 ph: 216-325-0752,Ohio,Fairview Park OH 44126 ,Fairview Park OH,OH,irview rk  44126 
Grove City,Grove City OH 43123 ph: 614-305-3954,Ohio,Grove City OH 43123 ,Grove City OH,OH,ove ty  43123 
Hamilton,Hamilton OH 45011 ph: 513-714-0016,Ohio,Hamilton OH 45011 ,Hamilton OH,OH,milton  45011 
Heath,Heath OH 43056 ph: 740-788-8600,Ohio,Heath OH 43056 ,Heath OH,OH,ath  43056 
Hilliard,Hilliard OH 43026 ph: 614-219-5160,Ohio,Hilliard OH 43026 ,Hilliard OH,OH,lliard  43026 
Hilliard,Hilliard OH 43026 ph: 614-876-5530,Ohio,Hilliard OH 43026 ,Hilliard OH,OH,lliard  43026 
Holland,Holland OH 43528 ph: 419-866-9088,Ohio,Holland OH 43528 ,Holland OH,OH,lland  43528 
Huber Heights,Huber Heights OH 45424 ph: 937-233-0108,Ohio,Huber Heights OH 45424 ,Huber Heights OH,OH,ber ights  45424 
Lancaster,Lancaster OH 43130 ph: 740-681-1012,Ohio,Lancaster OH 43130 ,Lancaster OH,OH,ncaster  43130 
Mansfield,Mansfield OH 44903 ph: 419-747-1313,Ohio,Mansfield OH 44903 ,Mansfield OH,OH,nsfield  44903 
Massillon,Massillon OH 44646 ph: 330-833-2265,Ohio,Massillon OH 44646 ,Massillon OH,OH,ssillon  44646 
Mayfield Heights,Mayfield Heights OH 44124 ph: 440-995-9300,Ohio,Mayfield Heights OH 44124 ,Mayfield Heights OH,OH,yfield ights  44124 
Medina,Medina OH 44256 ph: 330-722-7539,Ohio,Medina OH 44256 ,Medina OH,OH,dina  44256 
Mentor,Mentor OH 44060 ph: 440-210-5053,Ohio,Mentor OH 44060 ,Mentor OH,OH,ntor  44060 
Middletown,Middletown OH 45044 ph: 513-422-0013,Ohio,Middletown OH 45044 ,Middletown OH,OH,ddletown  45044 
Milford,Milford OH 45150 ph: 513-831-5294,Ohio,Milford OH 45150 ,Milford OH,OH,lford  45150 
Niles,Niles OH 44446 ph: 330-505-1928,Ohio,Niles OH 44446 ,Niles OH,OH,les  44446 
North Canton,North Canton OH 44720 ph: 330-494-2153,Ohio,North Canton OH 44720 ,North Canton OH,OH,rth nton  44720 
North Olmsted,North Olmsted OH 44070 ph: 440-414-0009,Ohio,North Olmsted OH 44070 ,North Olmsted OH,OH,rth msted  44070 
Northfield,Northfield OH 44067 ph: 330-468-9176,Ohio,Northfield OH 44067 ,Northfield OH,OH,rthfield  44067 
Parma,Parma OH 44129 ph: 440-842-9001,Ohio,Parma OH 44129 ,Parma OH,OH,rma  44129 
Reynoldsburg,Reynoldsburg OH 43068 ph: 614-655-5001,Ohio,Reynoldsburg OH 43068 ,Reynoldsburg OH,OH,ynoldsburg  43068 
Reynoldsburg,Reynoldsburg OH 43068 ph: 614-322-9594,Ohio,Reynoldsburg OH 43068 ,Reynoldsburg OH,OH,ynoldsburg  43068 
Rossford,Rossford OH 43460 ph: 419-872-8310,Ohio,Rossford OH 43460 ,Rossford OH,OH,ssford  43460 
Sandusky,Sandusky OH 44870 ph: 419-609-3340,Ohio,Sandusky OH 44870 ,Sandusky OH,OH,ndusky  44870 
South Lebanon,South Lebanon OH 45065 ph: 513-494-0700,Ohio,South Lebanon OH 45065 ,South Lebanon OH,OH,uth banon  45065 
Springdale,Springdale OH 45246 ph: 513-671-8555,Ohio,Springdale OH 45246 ,Springdale OH,OH,ringdale  45246 
Springfield,Springfield OH 45504 ph: 937-324-2584,Ohio,Springfield OH 45504 ,Springfield OH,OH,ringfield  45504 
Stow,Stow OH 44224 ph: 330-688-5928,Ohio,Stow OH 44224 ,Stow OH,OH,ow  44224 
Streetsboro,Streetsboro OH 44241 ph: 330-626-6400,Ohio,Streetsboro OH 44241 ,Streetsboro OH,OH,reetsboro  44241 
Strongsville,Strongsville OH 44136 ph: 440-238-9924,Ohio,Strongsville OH 44136 ,Strongsville OH,OH,rongsville  44136 
Toledo,Toledo OH 43623 ph: 419-843-3441,Ohio,Toledo OH 43623 ,Toledo OH,OH,ledo  43623 
Toledo,Toledo OH 43612 ph: 419-478-0559,Ohio,Toledo OH 43612 ,Toledo OH,OH,ledo  43612 
Trotwood,Trotwood OH 45426 ph: 937-837-1600,Ohio,Trotwood OH 45426 ,Trotwood OH,OH,otwood  45426 
University Heights,University Heights OH 44118 ph: 216-416-0025,Ohio,University Heights OH 44118 ,University Heights OH,OH,iversity ights  44118 
Wadsworth,Wadsworth OH 44281 ph: 330-335-2610,Ohio,Wadsworth OH 44281 ,Wadsworth OH,OH,dsworth  44281 
West Chester,West Chester OH 45069 ph: 513-712-1001,Ohio,West Chester OH 45069 ,West Chester OH,OH,st ester  45069 
Whitehall,Whitehall OH 43213 ph: 614-236-1409,Ohio,Whitehall OH 43213 ,Whitehall OH,OH,itehall  43213 
Willoughby,Willoughby OH 44094 ph: 440-975-1922,Ohio,Willoughby OH 44094 ,Willoughby OH,OH,lloughby  44094 
Broken Arrow,Broken Arrow OK 74012 ph: 918-615-1900,Oklahoma,Broken Arrow OK 74012 ,Broken Arrow OK,OK,oken row  74012 
Edmond,Edmond OK 73034 ph: 405-844-5072,Oklahoma,Edmond OK 73034 ,Edmond OK,OK,mond  73034 
Lawton,Lawton OK 73505 ph: 580-354-7274,Oklahoma,Lawton OK 73505 ,Lawton OK,OK,wton  73505 
Midwest City,Midwest City OK 73110 ph: 405-455-4000,Oklahoma,Midwest City OK 73110 ,Midwest City OK,OK,dwest ty  73110 
Moore,Moore OK 73160 ph: 405-378-5494,Oklahoma,Moore OK 73160 ,Moore OK,OK,ore  73160 
Norman,Norman OK 73069 ph: 405-253-3003,Oklahoma,Norman OK 73069 ,Norman OK,OK,rman  73069 
Oklahoma City,Oklahoma City OK 73134 ph: 405-752-0183,Oklahoma,Oklahoma City OK 73134 ,Oklahoma City OK,OK,lahoma ty  73134 
Oklahoma City,Oklahoma City OK 73112 ph: 405-947-6761,Oklahoma,Oklahoma City OK 73112 ,Oklahoma City OK,OK,lahoma ty  73112 
Oklahoma City,Oklahoma City OK 73109 ph: 405-631-4411,Oklahoma,Oklahoma City OK 73109 ,Oklahoma City OK,OK,lahoma ty  73109 
Oklahoma City,Oklahoma City OK 73132 ph: 405-506-6086,Oklahoma,Oklahoma City OK 73132 ,Oklahoma City OK,OK,lahoma ty  73132 
Owasso,Owasso OK 74055 ph: 918-401-8000,Oklahoma,Owasso OK 74055 ,Owasso OK,OK,asso  74055 
Tulsa,Tulsa OK 74133 ph: 918-615-5000,Oklahoma,Tulsa OK 74133 ,Tulsa OK,OK,lsa  74133 
Tulsa,Tulsa OK 74133 ph: 918-307-8161,Oklahoma,Tulsa OK 74133 ,Tulsa OK,OK,lsa  74133 
Tulsa,Tulsa OK 74112 ph: 918-744-1701,Oklahoma,Tulsa OK 74112 ,Tulsa OK,OK,lsa  74112 
Tulsa,Tulsa OK 74132 ph: 918-877-1620,Oklahoma,Tulsa OK 74132 ,Tulsa OK,OK,lsa  74132 
Yukon,Yukon OK 73099 ph: 405-494-3179,Oklahoma,Yukon OK 73099 ,Yukon OK,OK,kon  73099 
Albany,Albany OR 97322 ph: 541-926-5727,Oregon,Albany OR 97322 ,Albany OR,OR,bany  97322 
Beaverton,Beaverton OR 97005 ph: 503-626-8345,Oregon,Beaverton OR 97005 ,Beaverton OR,OR,averton  97005 
Beaverton,Beaverton OR 97006 ph: 503-531-3656,Oregon,Beaverton OR 97006 ,Beaverton OR,OR,averton  97006 
Bend,Bend OR 97701 ph: 541-330-1434,Oregon,Bend OR 97701 ,Bend OR,OR,nd  97701 
Clackamas,Clackamas OR 97015 ph: 503-659-1057,Oregon,Clackamas OR 97015 ,Clackamas OR,OR,ackamas  97015 
Eugene,Eugene OR 97402 ph: 541-684-5995,Oregon,Eugene OR 97402 ,Eugene OR,OR,gene  97402 
Fairview,Fairview OR 97024 ph: 503-674-9109,Oregon,Fairview OR 97024 ,Fairview OR,OR,irview  97024 
Hillsboro,Hillsboro OR 97123 ph: 503-693-1016,Oregon,Hillsboro OR 97123 ,Hillsboro OR,OR,llsboro  97123 
Keizer,Keizer OR 97303 ph: 503-856-0601,Oregon,Keizer OR 97303 ,Keizer OR,OR,izer  97303 
Medford,Medford OR 97504 ph: 541-779-0856,Oregon,Medford OR 97504 ,Medford OR,OR,dford  97504 
Portland,Portland OR 97217-8296 ph: 503-205-9109,Oregon,Portland OR 97217-8296 ,Portland OR,OR,rtland  97217-8296 
Portland,Portland OR 97205 ph: 503-290-5361,Oregon,Portland OR 97205 ,Portland OR,OR,rtland  97205 
Portland,Portland OR 97220 ph: 503-251-9997,Oregon,Portland OR 97220 ,Portland OR,OR,rtland  97220 
Portland,Portland OR 97217 ph: 503-247-0331,Oregon,Portland OR 97217 ,Portland OR,OR,rtland  97217 
Portland,Portland OR 97220 ph: 971-230-1930,Oregon,Portland OR 97220 ,Portland OR,OR,rtland  97220 
Portland,Portland OR 97216 ph: 503-252-5850,Oregon,Portland OR 97216 ,Portland OR,OR,rtland  97216 
Salem,Salem OR 97301 ph: 503-588-7116,Oregon,Salem OR 97301 ,Salem OR,OR,lem  97301 
Sherwood,Sherwood OR 97140 ph: 503-610-6000,Oregon,Sherwood OR 97140 ,Sherwood OR,OR,erwood  97140 
Springfield,Springfield OR 97477 ph: 541-741-0410,Oregon,Springfield OR 97477 ,Springfield OR,OR,ringfield  97477 
Tigard,Tigard OR 97223 ph: 503-624-0273,Oregon,Tigard OR 97223 ,Tigard OR,OR,gard  97223 
Wilsonville,Wilsonville OR 97070 ph: 503-682-7781,Oregon,Wilsonville OR 97070 ,Wilsonville OR,OR,lsonville  97070 
Abington,Abington PA 19001 ph: 215-572-6977,Pennsylvania,Abington PA 19001 ,Abington PA,PA,ington  19001 
Allentown,Allentown PA 18104 ph: 610-398-4006,Pennsylvania,Allentown PA 18104 ,Allentown PA,PA,lentown  18104 
Allentown,Allentown PA 18109 ph: 610-573-5710,Pennsylvania,Allentown PA 18109 ,Allentown PA,PA,lentown  18109 
Altoona,Altoona PA 16601 ph: 814-949-3592,Pennsylvania,Altoona PA 16601 ,Altoona PA,PA,toona  16601 
Bensalem,Bensalem PA 19020 ph: 215-364-9511,Pennsylvania,Bensalem PA 19020 ,Bensalem PA,PA,nsalem  19020 
Butler,Butler PA 16001 ph: 724-283-2489,Pennsylvania,Butler PA 16001 ,Butler PA,PA,tler  16001 
Carlisle,Carlisle PA 17013 ph: 717-243-3887,Pennsylvania,Carlisle PA 17013 ,Carlisle PA,PA,rlisle  17013 
Chambersburg,Chambersburg PA 17201 ph: 717-709-2062,Pennsylvania,Chambersburg PA 17201 ,Chambersburg PA,PA,ambersburg  17201 
Cranberry Twp,Cranberry Twp PA 16066 ph: 724-778-9000,Pennsylvania,Cranberry Twp PA 16066 ,Cranberry Twp PA,PA,anberry p  16066 
Dickson City,Dickson City PA 18519 ph: 570-383-7100,Pennsylvania,Dickson City PA 18519 ,Dickson City PA,PA,ckson ty  18519 
East Liberty,East Liberty PA 15206 ph: 412-626-3258,Pennsylvania,East Liberty PA 15206 ,East Liberty PA,PA,st berty  15206 
Easton,Easton PA 18045 ph: 610-250-5280,Pennsylvania,Easton PA 18045 ,Easton PA,PA,ston  18045 
Erie,Erie PA 16509 ph: 814-860-8511,Pennsylvania,Erie PA 16509 ,Erie PA,PA,ie  16509 
Exton,Exton PA 19341 ph: 484-713-0150,Pennsylvania,Exton PA 19341 ,Exton PA,PA,ton  19341 
Exton,Exton PA 19341 ph: 610-280-7233,Pennsylvania,Exton PA 19341 ,Exton PA,PA,ton  19341 
Gibsonia,Gibsonia PA 15044 ph: 724-799-2237,Pennsylvania,Gibsonia PA 15044 ,Gibsonia PA,PA,bsonia  15044 
Glen Mills,Glen Mills PA 19342 ph: 610-808-9054,Pennsylvania,Glen Mills PA 19342 ,Glen Mills PA,PA,en lls  19342 
Greensburg,Greensburg PA 15601 ph: 724-853-7440,Pennsylvania,Greensburg PA 15601 ,Greensburg PA,PA,eensburg  15601 
Hanover,Hanover PA 17331 ph: 717-634-3140,Pennsylvania,Hanover PA 17331 ,Hanover PA,PA,nover  17331 
Harrisburg,Harrisburg PA 17111 ph: 717-558-4150,Pennsylvania,Harrisburg PA 17111 ,Harrisburg PA,PA,rrisburg  17111 
Harrisburg,Harrisburg PA 17112 ph: 717-671-8098,Pennsylvania,Harrisburg PA 17112 ,Harrisburg PA,PA,rrisburg  17112 
Homestead,Homestead PA 15120 ph: 412-464-2522,Pennsylvania,Homestead PA 15120 ,Homestead PA,PA,mestead  15120 
Lancaster,Lancaster PA 17602 ph: 717-390-8727,Pennsylvania,Lancaster PA 17602 ,Lancaster PA,PA,ncaster  17602 
Langhorne,Langhorne PA 19047 ph: 215-269-0532,Pennsylvania,Langhorne PA 19047 ,Langhorne PA,PA,nghorne  19047 
Lititz,Lititz PA 17543 ph: 717-627-8250,Pennsylvania,Lititz PA 17543 ,Lititz PA,PA,titz  17543 
Malvern,Malvern PA 19355 ph: 484-913-3750,Pennsylvania,Malvern PA 19355 ,Malvern PA,PA,lvern  19355 
Mechanicsburg,Mechanicsburg PA 17050 ph: 717-796-5780,Pennsylvania,Mechanicsburg PA 17050 ,Mechanicsburg PA,PA,chanicsburg  17050 
Monaca,Monaca PA 15061 ph: 724-728-7258,Pennsylvania,Monaca PA 15061 ,Monaca PA,PA,naca  15061 
Monroeville,Monroeville PA 15146 ph: 412-374-9611,Pennsylvania,Monroeville PA 15146 ,Monroeville PA,PA,nroeville  15146 
Muncy,Muncy PA 17756 ph: 570-940-1000,Pennsylvania,Muncy PA 17756 ,Muncy PA,PA,ncy  17756 
North Huntingdon,North Huntingdon PA 15642 ph: 724-863-5397,Pennsylvania,North Huntingdon PA 15642 ,North Huntingdon PA,PA,rth ntingdon  15642 
North Wales,North Wales PA 19454 ph: 215-699-5688,Pennsylvania,North Wales PA 19454 ,North Wales PA,PA,rth les  19454 
Oaks,Oaks PA 19456 ph: 610-650-8700,Pennsylvania,Oaks PA 19456 ,Oaks PA,PA,ks  19456 
Philadelphia,Philadelphia PA 19148 ph: 215-463-7311,Pennsylvania,Philadelphia PA 19148 ,Philadelphia PA,PA,iladelphia  19148 
Philadelphia,Philadelphia PA 19116 ph: 215-305-0000,Pennsylvania,Philadelphia PA 19116 ,Philadelphia PA,PA,iladelphia  19116 
Philadelphia,Philadelphia PA 19150 ph: 267-628-3280,Pennsylvania,Philadelphia PA 19150 ,Philadelphia PA,PA,iladelphia  19150 
Philadelphia,Philadelphia PA 19134 ph: 215-305-9050,Pennsylvania,Philadelphia PA 19134 ,Philadelphia PA,PA,iladelphia  19134 
Philadelphia,Philadelphia PA 19131 ph: 267-233-5020,Pennsylvania,Philadelphia PA 19131 ,Philadelphia PA,PA,iladelphia  19131 
Philadelphia,Philadelphia PA 19152 ph: 267-350-9480,Pennsylvania,Philadelphia PA 19152 ,Philadelphia PA,PA,iladelphia  19152 
Pittsburgh,Pittsburgh PA 15241-1408 ph: 412-595-9380,Pennsylvania,Pittsburgh PA 15241-1408 ,Pittsburgh PA,PA,ttsburgh  15241-1408 
Pittsburgh,Pittsburgh PA 15238 ph: 412-820-6780,Pennsylvania,Pittsburgh PA 15238 ,Pittsburgh PA,PA,ttsburgh  15238 
Pittsburgh,Pittsburgh PA 15237 ph: 412-536-8200,Pennsylvania,Pittsburgh PA 15237 ,Pittsburgh PA,PA,ttsburgh  15237 
Pittsburgh,Pittsburgh PA 15237 ph: 412-536-1807,Pennsylvania,Pittsburgh PA 15237 ,Pittsburgh PA,PA,ttsburgh  15237 
Pittsburgh,Pittsburgh PA 15275 ph: 412-490-0488,Pennsylvania,Pittsburgh PA 15275 ,Pittsburgh PA,PA,ttsburgh  15275 
Pittsburgh,Pittsburgh PA 15237 ph: 412-369-9411,Pennsylvania,Pittsburgh PA 15237 ,Pittsburgh PA,PA,ttsburgh  15237 
Plymouth Meeting,Plymouth Meeting PA 19462 ph: 610-276-0042,Pennsylvania,Plymouth Meeting PA 19462 ,Plymouth Meeting PA,PA,ymouth eting  19462 
Pottstown,Pottstown PA 19464 ph: 484-654-3580,Pennsylvania,Pottstown PA 19464 ,Pottstown PA,PA,ttstown  19464 
Quakertown,Quakertown PA 18951 ph: 215-529-2720,Pennsylvania,Quakertown PA 18951 ,Quakertown PA,PA,akertown  18951 
Reading,Reading PA 19606 ph: 484-651-1920,Pennsylvania,Reading PA 19606 ,Reading PA,PA,ading  19606 
Royersford,Royersford PA 19468 ph: 610-226-2151,Pennsylvania,Royersford PA 19468 ,Royersford PA,PA,yersford  19468 
Selinsgrove,Selinsgrove PA 17870 ph: 570-743-4930,Pennsylvania,Selinsgrove PA 17870 ,Selinsgrove PA,PA,linsgrove  17870 
Springfield,Springfield PA 19064 ph: 484-470-2320,Pennsylvania,Springfield PA 19064 ,Springfield PA,PA,ringfield  19064 
Springfield,Springfield PA 19064 ph: 610-338-0530,Pennsylvania,Springfield PA 19064 ,Springfield PA,PA,ringfield  19064 
State College,State College PA 16803 ph: 814-861-8660,Pennsylvania,State College PA 16803 ,State College PA,PA,ate llege  16803 
Stroudsburg,Stroudsburg PA 18360 ph: 570-426-1050,Pennsylvania,Stroudsburg PA 18360 ,Stroudsburg PA,PA,roudsburg  18360 
Temple,Temple PA 19560 ph: 610-921-5140,Pennsylvania,Temple PA 19560 ,Temple PA,PA,mple  19560 
Uniontown,Uniontown PA 15401 ph: 724-439-6680,Pennsylvania,Uniontown PA 15401 ,Uniontown PA,PA,iontown  15401 
Warrington,Warrington PA 18976 ph: 215-491-5370,Pennsylvania,Warrington PA 18976 ,Warrington PA,PA,rrington  18976 
Washington,Washington PA 15301 ph: 724-229-9277,Pennsylvania,Washington PA 15301 ,Washington PA,PA,shington  15301 
West Mifflin,West Mifflin PA 15236 ph: 412-502-0020,Pennsylvania,West Mifflin PA 15236 ,West Mifflin PA,PA,st fflin  15236 
Wilkes-Barre Township,Wilkes-Barre Township PA 18702 ph: 570-829-0511,Pennsylvania,Wilkes-Barre Township PA 18702 ,Wilkes-Barre Township PA,PA,lkes-rre wnship  18702 
Wyomissing,Wyomissing PA 19610 ph: 610-374-9875,Pennsylvania,Wyomissing PA 19610 ,Wyomissing PA,PA,omissing  19610 
York,York PA 17408 ph: 717-764-9661,Pennsylvania,York PA 17408 ,York PA,PA,rk  17408 
York,York PA 17402 ph: 717-755-2759,Pennsylvania,York PA 17402 ,York PA,PA,rk  17402 
Lincoln,Lincoln RI 02865 ph: 401-642-0080,Rhode Island,Lincoln RI 02865 ,Lincoln RI,RI,ncoln  02865 
Smithfield,Smithfield RI 02917 ph: 401-232-1699,Rhode Island,Smithfield RI 02917 ,Smithfield RI,RI,ithfield  02917 
Warwick,Warwick RI 02886 ph: 401-821-0121,Rhode Island,Warwick RI 02886 ,Warwick RI,RI,rwick  02886 
Warwick,Warwick RI 02886 ph: 401-244-1972,Rhode Island,Warwick RI 02886 ,Warwick RI,RI,rwick  02886 
Aiken,Aiken SC 29803 ph: 803-644-2721,South Carolina,Aiken SC 29803 ,Aiken SC,SC,ken  29803 
Anderson,Anderson SC 29621 ph: 864-224-9772,South Carolina,Anderson SC 29621 ,Anderson SC,SC,derson  29621 
Bluffton,Bluffton SC 29910 ph: 843-815-3321,South Carolina,Bluffton SC 29910 ,Bluffton SC,SC,uffton  29910 
Charleston,Charleston SC 29407 ph: 843-763-0756,South Carolina,Charleston SC 29407 ,Charleston SC,SC,arleston  29407 
Columbia,Columbia SC 29229 ph: 803-419-4086,South Carolina,Columbia SC 29229 ,Columbia SC,SC,lumbia  29229 
Columbia,Columbia SC 29212 ph: 803-749-0869,South Carolina,Columbia SC 29212 ,Columbia SC,SC,lumbia  29212 
Columbia,Columbia SC 29209 ph: 803-647-0168,South Carolina,Columbia SC 29209 ,Columbia SC,SC,lumbia  29209 
Florence,Florence SC 29501 ph: 843-667-6731,South Carolina,Florence SC 29501 ,Florence SC,SC,orence  29501 
Greenville,Greenville SC 29607 ph: 864-286-3689,South Carolina,Greenville SC 29607 ,Greenville SC,SC,eenville  29607 
Lexington,Lexington SC 29072 ph: 803-520-2858,South Carolina,Lexington SC 29072 ,Lexington SC,SC,xington  29072 
Mount Pleasant,Mount Pleasant SC 29464 ph: 843-388-1973,South Carolina,Mount Pleasant SC 29464 ,Mount Pleasant SC,SC,unt easant  29464 
Myrtle Beach,Myrtle Beach SC 29577 ph: 843-946-6998,South Carolina,Myrtle Beach SC 29577 ,Myrtle Beach SC,SC,rtle ach  29577 
Myrtle Beach,Myrtle Beach SC 29588 ph: 843-294-6571,South Carolina,Myrtle Beach SC 29588 ,Myrtle Beach SC,SC,rtle ach  29588 
North Charleston,North Charleston SC 29406 ph: 843-553-4691,South Carolina,North Charleston SC 29406 ,North Charleston SC,SC,rth arleston  29406 
Rock Hill,Rock Hill SC 29730 ph: 803-985-3040,South Carolina,Rock Hill SC 29730 ,Rock Hill SC,SC,ck ll  29730 
Simpsonville,Simpsonville SC 29680 ph: 864-963-7251,South Carolina,Simpsonville SC 29680 ,Simpsonville SC,SC,mpsonville  29680 
Spartanburg,Spartanburg SC 29301 ph: 864-574-1211,South Carolina,Spartanburg SC 29301 ,Spartanburg SC,SC,artanburg  29301 
Summerville,Summerville SC 29483 ph: 843-832-0429,South Carolina,Summerville SC 29483 ,Summerville SC,SC,mmerville  29483 
Taylors,Taylors SC 29687 ph: 864-801-8128,South Carolina,Taylors SC 29687 ,Taylors SC,SC,ylors  29687 
Aberdeen,Aberdeen SD 57401 ph: 605-226-0223,South Dakota,Aberdeen SD 57401 ,Aberdeen SD,SD,erdeen  57401 
Rapid City,Rapid City SD 57703 ph: 605-341-8620,South Dakota,Rapid City SD 57703 ,Rapid City SD,SD,pid ty  57703 
Sioux Falls,Sioux Falls SD 57110 ph: 605-333-5600,South Dakota,Sioux Falls SD 57110 ,Sioux Falls SD,SD,oux lls  57110 
Sioux Falls,Sioux Falls SD 57106 ph: 605-361-1551,South Dakota,Sioux Falls SD 57106 ,Sioux Falls SD,SD,oux lls  57106 
Watertown,Watertown SD 57201 ph: 605-882-0717,South Dakota,Watertown SD 57201 ,Watertown SD,SD,tertown  57201 
Brentwood,Brentwood TN 37027 ph: 615-238-0126,Tennessee,Brentwood TN 37027 ,Brentwood TN,TN,entwood  37027 
Cane Ridge,Cane Ridge TN 37013 ph: 615-731-6340,Tennessee,Cane Ridge TN 37013 ,Cane Ridge TN,TN,ne dge  37013 
Chattanooga,Chattanooga TN 37421 ph: 423-490-1418,Tennessee,Chattanooga TN 37421 ,Chattanooga TN,TN,attanooga  37421 
Clarksville,Clarksville TN 37040 ph: 931-645-8007,Tennessee,Clarksville TN 37040 ,Clarksville TN,TN,arksville  37040 
Cleveland,Cleveland TN 37312 ph: 423-790-3000,Tennessee,Cleveland TN 37312 ,Cleveland TN,TN,eveland  37312 
Collierville,Collierville TN 38017 ph: 901-860-0000,Tennessee,Collierville TN 38017 ,Collierville TN,TN,llierville  38017 
Cordova,Cordova TN 38018 ph: 901-248-0200,Tennessee,Cordova TN 38018 ,Cordova TN,TN,rdova  38018 
Franklin,Franklin TN 37067 ph: 615-771-2093,Tennessee,Franklin TN 37067 ,Franklin TN,TN,anklin  37067 
Franklin,Franklin TN 37064 ph: 615-472-2052,Tennessee,Franklin TN 37064 ,Franklin TN,TN,anklin  37064 
Germantown,Germantown TN 38138 ph: 901-756-6011,Tennessee,Germantown TN 38138 ,Germantown TN,TN,rmantown  38138 
Hendersonville,Hendersonville TN 37075 ph: 615-826-6895,Tennessee,Hendersonville TN 37075 ,Hendersonville TN,TN,ndersonville  37075 
Hixson,Hixson TN 37343 ph: 423-870-4768,Tennessee,Hixson TN 37343 ,Hixson TN,TN,xson  37343 
Jackson,Jackson TN 38305 ph: 731-664-3848,Tennessee,Jackson TN 38305 ,Jackson TN,TN,ckson  38305 
Johnson City,Johnson City TN 37601 ph: 423-854-8899,Tennessee,Johnson City TN 37601 ,Johnson City TN,TN,hnson ty  37601 
Kingsport,Kingsport TN 37660 ph: 423-578-1726,Tennessee,Kingsport TN 37660 ,Kingsport TN,TN,ngsport  37660 
Knoxville,Knoxville TN 37934 ph: 865-675-8200,Tennessee,Knoxville TN 37934 ,Knoxville TN,TN,oxville  37934 
Knoxville,Knoxville TN 37922 ph: 865-291-5478,Tennessee,Knoxville TN 37922 ,Knoxville TN,TN,oxville  37922 
Knoxville,Knoxville TN 37918 ph: 865-291-0086,Tennessee,Knoxville TN 37918 ,Knoxville TN,TN,oxville  37918 
Knoxville,Knoxville TN 37912 ph: 865-947-7636,Tennessee,Knoxville TN 37912 ,Knoxville TN,TN,oxville  37912 
Knoxville,Knoxville TN 37919 ph: 865-693-2203,Tennessee,Knoxville TN 37919 ,Knoxville TN,TN,oxville  37919 
Madison,Madison TN 37115 ph: 615-859-5260,Tennessee,Madison TN 37115 ,Madison TN,TN,dison  37115 
Maryville,Maryville TN 37801 ph: 865-982-1590,Tennessee,Maryville TN 37801 ,Maryville TN,TN,ryville  37801 
Memphis,Memphis TN 38119 ph: 901-261-5079,Tennessee,Memphis TN 38119 ,Memphis TN,TN,mphis  38119 
Memphis,Memphis TN 38117 ph: 901-685-9240,Tennessee,Memphis TN 38117 ,Memphis TN,TN,mphis  38117 
Memphis,Memphis TN 38125 ph: 901-248-0250,Tennessee,Memphis TN 38125 ,Memphis TN,TN,mphis  38125 
Memphis,Memphis TN 38133 ph: 901-383-1649,Tennessee,Memphis TN 38133 ,Memphis TN,TN,mphis  38133 
Mount Juliet,Mount Juliet TN 37122 ph: 615-773-2800,Tennessee,Mount Juliet TN 37122 ,Mount Juliet TN,TN,unt liet  37122 
Murfreesboro,Murfreesboro TN 37129 ph: 615-907-2977,Tennessee,Murfreesboro TN 37129 ,Murfreesboro TN,TN,rfreesboro  37129 
Nashville,Nashville TN 37205 ph: 615-352-8461,Tennessee,Nashville TN 37205 ,Nashville TN,TN,shville  37205 
Nashville,Nashville TN 37214 ph: 615-889-4734,Tennessee,Nashville TN 37214 ,Nashville TN,TN,shville  37214 
Nashville,Nashville TN 37209 ph: 615-238-0112,Tennessee,Nashville TN 37209 ,Nashville TN,TN,shville  37209 
Smyrna,Smyrna TN 37167 ph: 615-768-3017,Tennessee,Smyrna TN 37167 ,Smyrna TN,TN,yrna  37167 
Spring Hill,Spring Hill TN 37174 ph: 931-489-1030,Tennessee,Spring Hill TN 37174 ,Spring Hill TN,TN,ring ll  37174 
Abilene,Abilene TX 79606 ph: 325-695-4470,Texas,Abilene TX 79606 ,Abilene TX,TX,ilene  79606 
Addison,Addison TX 75001 ph: 214-414-0025,Texas,Addison TX 75001 ,Addison TX,TX,dison  75001 
Allen,Allen TX 75002 ph: 469-342-2004,Texas,Allen TX 75002 ,Allen TX,TX,len  75002 
Allen,Allen TX 75013 ph: 972-396-9486,Texas,Allen TX 75013 ,Allen TX,TX,len  75013 
Amarillo,Amarillo TX 79121 ph: 806-358-4030,Texas,Amarillo TX 79121 ,Amarillo TX,TX,arillo  79121 
Arlington,Arlington TX 76015 ph: 817-557-2177,Texas,Arlington TX 76015 ,Arlington TX,TX,lington  76015 
Atascocita,Atascocita TX 77346 ph: 281-318-2237,Texas,Atascocita TX 77346 ,Atascocita TX,TX,ascocita  77346 
Austin,Austin TX 78759 ph: 512-687-1315,Texas,Austin TX 78759 ,Austin TX,TX,stin  78759 
Austin,Austin TX 78717 ph: 512-651-3376,Texas,Austin TX 78717 ,Austin TX,TX,stin  78717 
Austin,Austin TX 78730 ph: 512-651-0086,Texas,Austin TX 78730 ,Austin TX,TX,stin  78730 
Austin,Austin TX 78753 ph: 512-651-0608,Texas,Austin TX 78753 ,Austin TX,TX,stin  78753 
Austin,Austin TX 78704 ph: 512-445-2266,Texas,Austin TX 78704 ,Austin TX,TX,stin  78704 
Austin,Austin TX 78749 ph: 512-892-5535,Texas,Austin TX 78749 ,Austin TX,TX,stin  78749 
Austin,Austin TX 78723 ph: 512-651-0202,Texas,Austin TX 78723 ,Austin TX,TX,stin  78723 
Austin,Austin TX 78758 ph: 512-837-5163,Texas,Austin TX 78758 ,Austin TX,TX,stin  78758 
Austin,Austin TX 78748 ph: 512-687-0634,Texas,Austin TX 78748 ,Austin TX,TX,stin  78748 
Balcones Heights,Balcones Heights TX 78201 ph: 210-280-0000,Texas,Balcones Heights TX 78201 ,Balcones Heights TX,TX,lcones ights  78201 
Baytown,Baytown TX 77521 ph: 281-427-0265,Texas,Baytown TX 77521 ,Baytown TX,TX,ytown  77521 
Beaumont,Beaumont TX 77708 ph: 409-898-8270,Texas,Beaumont TX 77708 ,Beaumont TX,TX,aumont  77708 
Bee Cave,Bee Cave TX 78738 ph: 512-651-0094,Texas,Bee Cave TX 78738 ,Bee Cave TX,TX,e ve  78738 
Brownsville,Brownsville TX 78526 ph: 956-698-6120,Texas,Brownsville TX 78526 ,Brownsville TX,TX,ownsville  78526 
Bryan,Bryan TX 77802 ph: 979-774-1480,Texas,Bryan TX 77802 ,Bryan TX,TX,yan  77802 
Burleson,Burleson TX 76028 ph: 817-302-0058,Texas,Burleson TX 76028 ,Burleson TX,TX,rleson  76028 
Carrollton,Carrollton TX 75007 ph: 972-245-7526,Texas,Carrollton TX 75007 ,Carrollton TX,TX,rrollton  75007 
Cedar Hill,Cedar Hill TX 75104 ph: 972-291-6149,Texas,Cedar Hill TX 75104 ,Cedar Hill TX,TX,dar ll  75104 
Cedar Park,Cedar Park TX 78613 ph: 512-456-2933,Texas,Cedar Park TX 78613 ,Cedar Park TX,TX,dar rk  78613 
Clear Lake Shores,Clear Lake Shores TX 77565 ph: 281-538-7626,Texas,Clear Lake Shores TX 77565 ,Clear Lake Shores TX,TX,ear ke ores  77565 
College Station,College Station TX 77840 ph: 979-693-8400,Texas,College Station TX 77840 ,College Station TX,TX,llege ation  77840 
Conroe,Conroe TX 77304 ph: 936-760-2663,Texas,Conroe TX 77304 ,Conroe TX,TX,nroe  77304 
Corpus Christi,Corpus Christi TX 78411 ph: 361-993-9342,Texas,Corpus Christi TX 78411 ,Corpus Christi TX,TX,rpus risti  78411 
Cypress,Cypress TX 77429 ph: 281-256-8116,Texas,Cypress TX 77429 ,Cypress TX,TX,press  77429 
Dallas,Dallas TX 75240 ph: 972-239-8161,Texas,Dallas TX 75240 ,Dallas TX,TX,llas  75240 
Dallas,Dallas TX 75248 ph: 214-775-0206,Texas,Dallas TX 75248 ,Dallas TX,TX,llas  75248 
Dallas,Dallas TX 75214 ph: 214-361-2026,Texas,Dallas TX 75214 ,Dallas TX,TX,llas  75214 
Dallas,Dallas TX 75204 ph: 214-826-0331,Texas,Dallas TX 75204 ,Dallas TX,TX,llas  75204 
Dallas,Dallas TX 75237 ph: 469-341-3920,Texas,Dallas TX 75237 ,Dallas TX,TX,llas  75237 
Dallas,Dallas TX 75231 ph: 214-348-0240,Texas,Dallas TX 75231 ,Dallas TX,TX,llas  75231 
Dallas,Dallas TX 75220 ph: 214-357-3980,Texas,Dallas TX 75220 ,Dallas TX,TX,llas  75220 
Denton,Denton TX 76205 ph: 940-220-2122,Texas,Denton TX 76205 ,Denton TX,TX,nton  76205 
Dickinson,Dickinson TX 77539 ph: 281-534-5420,Texas,Dickinson TX 77539 ,Dickinson TX,TX,ckinson  77539 
El Paso,El Paso TX 79936 ph: 915-849-5010,Texas,El Paso TX 79936 ,El Paso TX,TX, so  79936 
El Paso,El Paso TX 79936 ph: 915-590-3560,Texas,El Paso TX 79936 ,El Paso TX,TX, so  79936 
El Paso,El Paso TX 79925 ph: 915-772-9302,Texas,El Paso TX 79925 ,El Paso TX,TX, so  79925 
El Paso,El Paso TX 79912 ph: 915-585-8185,Texas,El Paso TX 79912 ,El Paso TX,TX, so  79912 
Euless,Euless TX 76039 ph: 817-399-8494,Texas,Euless TX 76039 ,Euless TX,TX,less  76039 
Flower Mound,Flower Mound TX 75028 ph: 972-874-6700,Texas,Flower Mound TX 75028 ,Flower Mound TX,TX,ower und  75028 
Fort Worth,Fort Worth TX 76107 ph: 817-302-0290,Texas,Fort Worth TX 76107 ,Fort Worth TX,TX,rt rth  76107 
Fort Worth,Fort Worth TX 76132 ph: 817-423-1600,Texas,Fort Worth TX 76132 ,Fort Worth TX,TX,rt rth  76132 
Fort Worth,Fort Worth TX 76116 ph: 817-566-0565,Texas,Fort Worth TX 76116 ,Fort Worth TX,TX,rt rth  76116 
Fort Worth,Fort Worth TX 76120 ph: 817-274-7611,Texas,Fort Worth TX 76120 ,Fort Worth TX,TX,rt rth  76120 
Frisco,Frisco TX 75034 ph: 972-668-6880,Texas,Frisco TX 75034 ,Frisco TX,TX,isco  75034 
Frisco,Frisco TX 75034 ph: 972-464-5745,Texas,Frisco TX 75034 ,Frisco TX,TX,isco  75034 
Galveston,Galveston TX 77551 ph: 409-740-0102,Texas,Galveston TX 77551 ,Galveston TX,TX,lveston  77551 
Garland,Garland TX 75040 ph: 972-535-0252,Texas,Garland TX 75040 ,Garland TX,TX,rland  75040 
Georgetown,Georgetown TX 78628 ph: 512-869-3163,Texas,Georgetown TX 78628 ,Georgetown TX,TX,orgetown  78628 
Grand Prairie,Grand Prairie TX 75052 ph: 469-348-2100,Texas,Grand Prairie TX 75052 ,Grand Prairie TX,TX,and airie  75052 
Grand Prairie,Grand Prairie TX 75052 ph: 972-642-4719,Texas,Grand Prairie TX 75052 ,Grand Prairie TX,TX,and airie  75052 
Grapevine,Grapevine TX 76051 ph: 817-488-1800,Texas,Grapevine TX 76051 ,Grapevine TX,TX,apevine  76051 
Harker Heights,Harker Heights TX 76548 ph: 254-953-5880,Texas,Harker Heights TX 76548 ,Harker Heights TX,TX,rker ights  76548 
Harlingen,Harlingen TX 78552 ph: 956-421-4900,Texas,Harlingen TX 78552 ,Harlingen TX,TX,rlingen  78552 
Houston,Houston TX 77042 ph: 713-782-9950,Texas,Houston TX 77042 ,Houston TX,TX,uston  77042 
Houston,Houston TX 77065 ph: 281-949-2219,Texas,Houston TX 77065 ,Houston TX,TX,uston  77065 
Houston,Houston TX 77040 ph: 713-939-7878,Texas,Houston TX 77040 ,Houston TX,TX,uston  77040 
Houston,Houston TX 77094 ph: 281-647-9191,Texas,Houston TX 77094 ,Houston TX,TX,uston  77094 
Houston,Houston TX 77070 ph: 281-655-1427,Texas,Houston TX 77070 ,Houston TX,TX,uston  77070 
Houston,Houston TX 77007 ph: 713-331-0376,Texas,Houston TX 77007 ,Houston TX,TX,uston  77007 
Houston,Houston TX 77082 ph: 281-810-5251,Texas,Houston TX 77082 ,Houston TX,TX,uston  77082 
Houston,Houston TX 77096 ph: 713-292-0030,Texas,Houston TX 77096 ,Houston TX,TX,uston  77096 
Houston,Houston TX 77027 ph: 713-960-9608,Texas,Houston TX 77027 ,Houston TX,TX,uston  77027 
Houston,Houston TX 77069 ph: 281-716-1105,Texas,Houston TX 77069 ,Houston TX,TX,uston  77069 
Houston,Houston TX 77084 ph: 281-550-8955,Texas,Houston TX 77084 ,Houston TX,TX,uston  77084 
Houston,Houston TX 77025 ph: 713-666-0967,Texas,Houston TX 77025 ,Houston TX,TX,uston  77025 
Houston,Houston TX 77075 ph: 713-343-8300,Texas,Houston TX 77075 ,Houston TX,TX,uston  77075 
Houston,Houston TX 77063 ph: 713-331-0373,Texas,Houston TX 77063 ,Houston TX,TX,uston  77063 
Houston,Houston TX 77024 ph: 713-300-0227,Texas,Houston TX 77024 ,Houston TX,TX,uston  77024 
Humble,Humble TX 77338 ph: 281-446-1081,Texas,Humble TX 77338 ,Humble TX,TX,mble  77338 
Huntsville,Huntsville TX 77340 ph: 936-649-3073,Texas,Huntsville TX 77340 ,Huntsville TX,TX,ntsville  77340 
Hurst,Hurst TX 76053 ph: 817-282-8808,Texas,Hurst TX 76053 ,Hurst TX,TX,rst  76053 
Irving,Irving TX 75062 ph: 972-252-9888,Texas,Irving TX 75062 ,Irving TX,TX,ving  75062 
Irving,Irving TX 75063 ph: 972-506-9924,Texas,Irving TX 75063 ,Irving TX,TX,ving  75063 
Katy,Katy TX 77494 ph: 281-392-8331,Texas,Katy TX 77494 ,Katy TX,TX,ty  77494 
Kyle,Kyle TX 78640 ph: 512-268-7550,Texas,Kyle TX 78640 ,Kyle TX,TX,le  78640 
Lake Jackson,Lake Jackson TX 77566 ph: 979-299-0009,Texas,Lake Jackson TX 77566 ,Lake Jackson TX,TX,ke ckson  77566 
Lake Worth,Lake Worth TX 76135 ph: 817-302-0083,Texas,Lake Worth TX 76135 ,Lake Worth TX,TX,ke rth  76135 
Laredo,Laredo TX 78043 ph: 956-718-3220,Texas,Laredo TX 78043 ,Laredo TX,TX,redo  78043 
Laredo,Laredo TX 78045 ph: 956-722-6800,Texas,Laredo TX 78045 ,Laredo TX,TX,redo  78045 
Lewisville,Lewisville TX 75056 ph: 469-287-0346,Texas,Lewisville TX 75056 ,Lewisville TX,TX,wisville  75056 
Lewisville,Lewisville TX 75057 ph: 972-459-2605,Texas,Lewisville TX 75057 ,Lewisville TX,TX,wisville  75057 
Longview,Longview TX 75605 ph: 903-323-5000,Texas,Longview TX 75605 ,Longview TX,TX,ngview  75605 
Lubbock,Lubbock TX 79407 ph: 806-788-3600,Texas,Lubbock TX 79407 ,Lubbock TX,TX,bbock  79407 
Lubbock,Lubbock TX 79423 ph: 806-745-7579,Texas,Lubbock TX 79423 ,Lubbock TX,TX,bbock  79423 
Lufkin,Lufkin TX 75901 ph: 936-637-3000,Texas,Lufkin TX 75901 ,Lufkin TX,TX,fkin  75901 
Magnolia,Magnolia TX 77354 ph: 281-296-3049,Texas,Magnolia TX 77354 ,Magnolia TX,TX,gnolia  77354 
Mansfield,Mansfield TX 76063 ph: 817-453-0005,Texas,Mansfield TX 76063 ,Mansfield TX,TX,nsfield  76063 
McAllen,McAllen TX 78504 ph: 956-618-7700,Texas,McAllen TX 78504 ,McAllen TX,TX,len  78504 
McAllen,McAllen TX 78503 ph: 956-682-2611,Texas,McAllen TX 78503 ,McAllen TX,TX,len  78503 
Mcallen,Mcallen TX 78504 ph: 956-994-1815,Texas,Mcallen TX 78504 ,Mcallen TX,TX,allen  78504 
Mckinney,Mckinney TX 75070 ph: 469-525-4974,Texas,Mckinney TX 75070 ,Mckinney TX,TX,kinney  75070 
McKinney,McKinney TX 75070 ph: 972-439-3397,Texas,McKinney TX 75070 ,McKinney TX,TX,nney  75070 
Mesquite,Mesquite TX 75150 ph: 214-302-2960,Texas,Mesquite TX 75150 ,Mesquite TX,TX,squite  75150 
Midland,Midland TX 79707 ph: 432-699-7500,Texas,Midland TX 79707 ,Midland TX,TX,dland  79707 
Mission,Mission TX 78572 ph: 956-928-7280,Texas,Mission TX 78572 ,Mission TX,TX,ssion  78572 
Missouri City,Missouri City TX 77459 ph: 281-403-6662,Texas,Missouri City TX 77459 ,Missouri City TX,TX,ssouri ty  77459 
New Braunfels,New Braunfels TX 78130 ph: 830-608-3280,Texas,New Braunfels TX 78130 ,New Braunfels TX,TX,w aunfels  78130 
North Richland Hills,North Richland Hills TX 76182 ph: 817-503-0548,Texas,North Richland Hills TX 76182 ,North Richland Hills TX,TX,rth chland lls  76182 
Odessa,Odessa TX 79762 ph: 432-366-0398,Texas,Odessa TX 79762 ,Odessa TX,TX,essa  79762 
Pasadena,Pasadena TX 77505 ph: 281-504-0143,Texas,Pasadena TX 77505 ,Pasadena TX,TX,sadena  77505 
Pearland,Pearland TX 77584 ph: 713-436-4892,Texas,Pearland TX 77584 ,Pearland TX,TX,arland  77584 
Pflugerville,Pflugerville TX 78660 ph: 512-687-2064,Texas,Pflugerville TX 78660 ,Pflugerville TX,TX,lugerville  78660 
Plano,Plano TX 75075 ph: 972-424-9575,Texas,Plano TX 75075 ,Plano TX,TX,ano  75075 
Plano,Plano TX 75093 ph: 972-781-6587,Texas,Plano TX 75093 ,Plano TX,TX,ano  75093 
Port Arthur,Port Arthur TX 77642 ph: 409-729-3201,Texas,Port Arthur TX 77642 ,Port Arthur TX,TX,rt thur  77642 
Richardson,Richardson TX 75081 ph: 214-530-0183,Texas,Richardson TX 75081 ,Richardson TX,TX,chardson  75081 
Rockwall,Rockwall TX 75032 ph: 972-772-0894,Texas,Rockwall TX 75032 ,Rockwall TX,TX,ckwall  75032 
Rosenberg,Rosenberg TX 77471 ph: 281-232-1240,Texas,Rosenberg TX 77471 ,Rosenberg TX,TX,senberg  77471 
Round Rock,Round Rock TX 78664 ph: 512-246-7677,Texas,Round Rock TX 78664 ,Round Rock TX,TX,und ck  78664 
Rowlett,Rowlett TX 75088 ph: 972-265-6060,Texas,Rowlett TX 75088 ,Rowlett TX,TX,wlett  75088 
San Angelo,San Angelo TX 76904 ph: 325-949-5555,Texas,San Angelo TX 76904 ,San Angelo TX,TX,n gelo  76904 
San Antonio,San Antonio TX 78209 ph: 210-202-3578,Texas,San Antonio TX 78209 ,San Antonio TX,TX,n tonio  78209 
San Antonio,San Antonio TX 78250 ph: 210-682-2253,Texas,San Antonio TX 78250 ,San Antonio TX,TX,n tonio  78250 
San Antonio,San Antonio TX 78230 ph: 210-690-2222,Texas,San Antonio TX 78230 ,San Antonio TX,TX,n tonio  78230 
San Antonio,San Antonio TX 78232 ph: 210-496-6800,Texas,San Antonio TX 78232 ,San Antonio TX,TX,n tonio  78232 
San Antonio,San Antonio TX 78257 ph: 210-247-0113,Texas,San Antonio TX 78257 ,San Antonio TX,TX,n tonio  78257 
San Antonio,San Antonio TX 78258 ph: 210-764-7876,Texas,San Antonio TX 78258 ,San Antonio TX,TX,n tonio  78258 
San Antonio,San Antonio TX 78258 ph: 210-679-2368,Texas,San Antonio TX 78258 ,San Antonio TX,TX,n tonio  78258 
San Antonio,San Antonio TX 78224 ph: 210-977-8552,Texas,San Antonio TX 78224 ,San Antonio TX,TX,n tonio  78224 
San Antonio,San Antonio TX 78223 ph: 210-247-0082,Texas,San Antonio TX 78223 ,San Antonio TX,TX,n tonio  78223 
San Antonio,San Antonio TX 78253 ph: 210-424-1910,Texas,San Antonio TX 78253 ,San Antonio TX,TX,n tonio  78253 
San Antonio,San Antonio TX 78244 ph: 210-424-3004,Texas,San Antonio TX 78244 ,San Antonio TX,TX,n tonio  78244 
San Antonio,San Antonio TX 78216 ph: 210-424-2301,Texas,San Antonio TX 78216 ,San Antonio TX,TX,n tonio  78216 
San Antonio,San Antonio TX 78245 ph: 210-247-0016,Texas,San Antonio TX 78245 ,San Antonio TX,TX,n tonio  78245 
San Marcos,San Marcos TX 78666 ph: 512-392-7960,Texas,San Marcos TX 78666 ,San Marcos TX,TX,n rcos  78666 
Selma,Selma TX 78154 ph: 210-945-9102,Texas,Selma TX 78154 ,Selma TX,TX,lma  78154 
Sherman,Sherman TX 75092 ph: 903-892-4465,Texas,Sherman TX 75092 ,Sherman TX,TX,erman  75092 
Spring,Spring TX 77388 ph: 281-288-2043,Texas,Spring TX 77388 ,Spring TX,TX,ring  77388 
Sugar Land,Sugar Land TX 77479 ph: 281-340-0550,Texas,Sugar Land TX 77479 ,Sugar Land TX,TX,gar nd  77479 
Temple,Temple TX 76504 ph: 254-295-1057,Texas,Temple TX 76504 ,Temple TX,TX,mple  76504 
Texarkana,Texarkana TX 75503 ph: 903-223-0062,Texas,Texarkana TX 75503 ,Texarkana TX,TX,xarkana  75503 
The Woodlands,The Woodlands TX 77380 ph: 281-364-1281,Texas,The Woodlands TX 77380 ,The Woodlands TX,TX,e odlands  77380 
Tomball,Tomball TX 77377 ph: 281-255-6820,Texas,Tomball TX 77377 ,Tomball TX,TX,mball  77377 
Tyler,Tyler TX 75703 ph: 903-939-1900,Texas,Tyler TX 75703 ,Tyler TX,TX,ler  75703 
Victoria,Victoria TX 77904 ph: 361-578-3612,Texas,Victoria TX 77904 ,Victoria TX,TX,ctoria  77904 
Waco,Waco TX 76710 ph: 254-399-0067,Texas,Waco TX 76710 ,Waco TX,TX,co  76710 
Watauga,Watauga TX 76148 ph: 817-427-8039,Texas,Watauga TX 76148 ,Watauga TX,TX,tauga  76148 
Waxahachie,Waxahachie TX 75165 ph: 972-923-8930,Texas,Waxahachie TX 75165 ,Waxahachie TX,TX,xahachie  75165 
Weatherford,Weatherford TX 76087 ph: 817-598-0309,Texas,Weatherford TX 76087 ,Weatherford TX,TX,atherford  76087 
Webster,Webster TX 77598 ph: 281-819-4116,Texas,Webster TX 77598 ,Webster TX,TX,bster  77598 
Wichita Falls,Wichita Falls TX 76308 ph: 940-691-3310,Texas,Wichita Falls TX 76308 ,Wichita Falls TX,TX,chita lls  76308 
Wylie,Wylie TX 75098 ph: 972-769-3943,Texas,Wylie TX 75098 ,Wylie TX,TX,lie  75098 
American Fork,American Fork UT 84003 ph: 801-756-5449,Utah,American Fork UT 84003 ,American Fork UT,UT,erican rk  84003 
Centerville,Centerville UT 84014 ph: 801-292-0071,Utah,Centerville UT 84014 ,Centerville UT,UT,nterville  84014 
Layton,Layton UT 84041 ph: 801-773-0287,Utah,Layton UT 84041 ,Layton UT,UT,yton  84041 
Orem,Orem UT 84057 ph: 801-224-6007,Utah,Orem UT 84057 ,Orem UT,UT,em  84057 
Riverdale,Riverdale UT 84405 ph: 801-392-1990,Utah,Riverdale UT 84405 ,Riverdale UT,UT,verdale  84405 
Saint George,Saint George UT 84790 ph: 435-627-2030,Utah,Saint George UT 84790 ,Saint George UT,UT,int orge  84790 
Salt Lake City,Salt Lake City UT 84101 ph: 801-401-9562,Utah,Salt Lake City UT 84101 ,Salt Lake City UT,UT,lt ke ty  84101 
Salt Lake City,Salt Lake City UT 84121 ph: 801-255-2292,Utah,Salt Lake City UT 84121 ,Salt Lake City UT,UT,lt ke ty  84121 
Sandy,Sandy UT 84070 ph: 801-255-3301,Utah,Sandy UT 84070 ,Sandy UT,UT,ndy  84070 
South Jordan,South Jordan UT 84095 ph: 801-316-2511,Utah,South Jordan UT 84095 ,South Jordan UT,UT,uth rdan  84095 
West Jordan,West Jordan UT 84084 ph: 801-565-0006,Utah,West Jordan UT 84084 ,West Jordan UT,UT,st rdan  84084 
West Jordan,West Jordan UT 84084 ph: 801-316-0049,Utah,West Jordan UT 84084 ,West Jordan UT,UT,st rdan  84084 
West Valley City,West Valley City UT 84128 ph: 801-449-8022,Utah,West Valley City UT 84128 ,West Valley City UT,UT,st lley ty  84128 
Alexandria,Alexandria VA 22305 ph: 703-706-3840,Virginia,Alexandria VA 22305 ,Alexandria VA,VA,exandria  22305 
Alexandria,Alexandria VA 22306 ph: 703-253-0018,Virginia,Alexandria VA 22306 ,Alexandria VA,VA,exandria  22306 
Bristol,Bristol VA 24202 ph: 276-642-6300,Virginia,Bristol VA 24202 ,Bristol VA,VA,istol  24202 
Chantilly,Chantilly VA 20151 ph: 571-262-0020,Virginia,Chantilly VA 20151 ,Chantilly VA,VA,antilly  20151 
Charlottesville,Charlottesville VA 22911 ph: 434-964-0231,Virginia,Charlottesville VA 22911 ,Charlottesville VA,VA,arlottesville  22911 
Chesapeake,Chesapeake VA 23320 ph: 757-547-1842,Virginia,Chesapeake VA 23320 ,Chesapeake VA,VA,esapeake  23320 
Chesapeake,Chesapeake VA 23322 ph: 757-421-6640,Virginia,Chesapeake VA 23322 ,Chesapeake VA,VA,esapeake  23322 
Chesapeake,Chesapeake VA 23321 ph: 757-465-8400,Virginia,Chesapeake VA 23321 ,Chesapeake VA,VA,esapeake  23321 
Chester,Chester VA 23831 ph: 804-768-9974,Virginia,Chester VA 23831 ,Chester VA,VA,ester  23831 
Christiansburg,Christiansburg VA 24073 ph: 540-381-9459,Virginia,Christiansburg VA 24073 ,Christiansburg VA,VA,ristiansburg  24073 
Colonial Heights,Colonial Heights VA 23834 ph: 804-520-0190,Virginia,Colonial Heights VA 23834 ,Colonial Heights VA,VA,lonial ights  23834 
Culpeper,Culpeper VA 22701 ph: 540-829-6613,Virginia,Culpeper VA 22701 ,Culpeper VA,VA,lpeper  22701 
Danville,Danville VA 24540 ph: 434-799-9950,Virginia,Danville VA 24540 ,Danville VA,VA,nville  24540 
Dumfries,Dumfries VA 22025 ph: 703-586-6132,Virginia,Dumfries VA 22025 ,Dumfries VA,VA,mfries  22025 
Fairfax,Fairfax VA 22031 ph: 571-533-3751,Virginia,Fairfax VA 22031 ,Fairfax VA,VA,irfax  22031 
Fairfax,Fairfax VA 22032 ph: 703-764-5100,Virginia,Fairfax VA 22032 ,Fairfax VA,VA,irfax  22032 
Fairfax,Fairfax VA 22033 ph: 703-449-7100,Virginia,Fairfax VA 22033 ,Fairfax VA,VA,irfax  22033 
Falls Church,Falls Church VA 22041 ph: 703-253-0021,Virginia,Falls Church VA 22041 ,Falls Church VA,VA,lls urch  22041 
Falls Church,Falls Church VA 22044 ph: 703-237-8118,Virginia,Falls Church VA 22044 ,Falls Church VA,VA,lls urch  22044 
Fredericksburg,Fredericksburg VA 22401 ph: 540-786-6800,Virginia,Fredericksburg VA 22401 ,Fredericksburg VA,VA,edericksburg  22401 
Fredericksburg,Fredericksburg VA 22406 ph: 540-374-4820,Virginia,Fredericksburg VA 22406 ,Fredericksburg VA,VA,edericksburg  22406 
Fredericksburg,Fredericksburg VA 22407 ph: 540-834-1440,Virginia,Fredericksburg VA 22407 ,Fredericksburg VA,VA,edericksburg  22407 
Front Royal,Front Royal VA 22630 ph: 540-631-3290,Virginia,Front Royal VA 22630 ,Front Royal VA,VA,ont yal  22630 
Gainesville,Gainesville VA 20155 ph: 571-261-5052,Virginia,Gainesville VA 20155 ,Gainesville VA,VA,inesville  20155 
Glen Allen,Glen Allen VA 23059 ph: 804-262-2390,Virginia,Glen Allen VA 23059 ,Glen Allen VA,VA,en len  23059 
Glen Allen,Glen Allen VA 23060 ph: 804-360-8900,Virginia,Glen Allen VA 23060 ,Glen Allen VA,VA,en len  23060 
Hampton,Hampton VA 23666 ph: 757-951-2300,Virginia,Hampton VA 23666 ,Hampton VA,VA,mpton  23666 
Harrisonburg,Harrisonburg VA 22801 ph: 540-432-1708,Virginia,Harrisonburg VA 22801 ,Harrisonburg VA,VA,rrisonburg  22801 
Leesburg,Leesburg VA 20176 ph: 703-777-8730,Virginia,Leesburg VA 20176 ,Leesburg VA,VA,esburg  20176 
Lynchburg,Lynchburg VA 24502 ph: 434-239-6163,Virginia,Lynchburg VA 24502 ,Lynchburg VA,VA,nchburg  24502 
Manassas,Manassas VA 20109 ph: 703-392-5630,Virginia,Manassas VA 20109 ,Manassas VA,VA,nassas  20109 
Manassas,Manassas VA 20109 ph: 703-257-6969,Virginia,Manassas VA 20109 ,Manassas VA,VA,nassas  20109 
Mechanicsville,Mechanicsville VA 23111 ph: 804-559-5802,Virginia,Mechanicsville VA 23111 ,Mechanicsville VA,VA,chanicsville  23111 
Midlothian,Midlothian VA 23113 ph: 804-419-8140,Virginia,Midlothian VA 23113 ,Midlothian VA,VA,dlothian  23113 
Midlothian,Midlothian VA 23112 ph: 804-639-0580,Virginia,Midlothian VA 23112 ,Midlothian VA,VA,dlothian  23112 
Newport News,Newport News VA 23602 ph: 757-882-8700,Virginia,Newport News VA 23602 ,Newport News VA,VA,wport ws  23602 
Norfolk,Norfolk VA 23502 ph: 757-461-9369,Virginia,Norfolk VA 23502 ,Norfolk VA,VA,rfolk  23502 
Reston,Reston VA 20190 ph: 703-478-0770,Virginia,Reston VA 20190 ,Reston VA,VA,ston  20190 
Richmond,Richmond VA 23235 ph: 804-897-5711,Virginia,Richmond VA 23235 ,Richmond VA,VA,chmond  23235 
Richmond,Richmond VA 23231 ph: 804-836-1860,Virginia,Richmond VA 23231 ,Richmond VA,VA,chmond  23231 
Richmond,Richmond VA 23230 ph: 804-285-3492,Virginia,Richmond VA 23230 ,Richmond VA,VA,chmond  23230 
Richmond,Richmond VA 23225 ph: 804-330-7365,Virginia,Richmond VA 23225 ,Richmond VA,VA,chmond  23225 
Richmond,Richmond VA 23228 ph: 804-672-5347,Virginia,Richmond VA 23228 ,Richmond VA,VA,chmond  23228 
Roanoke,Roanoke VA 24012 ph: 540-265-6932,Virginia,Roanoke VA 24012 ,Roanoke VA,VA,anoke  24012 
Springfield,Springfield VA 22150 ph: 703-921-0220,Virginia,Springfield VA 22150 ,Springfield VA,VA,ringfield  22150 
Stafford,Stafford VA 22556 ph: 540-658-9901,Virginia,Stafford VA 22556 ,Stafford VA,VA,afford  22556 
Sterling,Sterling VA 20166 ph: 703-463-2008,Virginia,Sterling VA 20166 ,Sterling VA,VA,erling  20166 
Sterling,Sterling VA 20164 ph: 703-444-8440,Virginia,Sterling VA 20164 ,Sterling VA,VA,erling  20164 
Virginia Beach,Virginia Beach VA 23462-3004 ph: 757-451-7660,Virginia,Virginia Beach VA 23462-3004 ,Virginia Beach VA,VA,rginia ach  23462-3004 
Virginia Beach,Virginia Beach VA 23453 ph: 757-416-1719,Virginia,Virginia Beach VA 23453 ,Virginia Beach VA,VA,rginia ach  23453 
Virginia Beach,Virginia Beach VA 23454 ph: 757-430-5100,Virginia,Virginia Beach VA 23454 ,Virginia Beach VA,VA,rginia ach  23454 
Virginia Beach,Virginia Beach VA 23451 ph: 757-428-0233,Virginia,Virginia Beach VA 23451 ,Virginia Beach VA,VA,rginia ach  23451 
Waynesboro,Waynesboro VA 22980 ph: 540-941-2280,Virginia,Waynesboro VA 22980 ,Waynesboro VA,VA,ynesboro  22980 
Williamsburg,Williamsburg VA 23185 ph: 757-259-3020,Virginia,Williamsburg VA 23185 ,Williamsburg VA,VA,lliamsburg  23185 
Williamsburg,Williamsburg VA 23188 ph: 757-258-9794,Virginia,Williamsburg VA 23188 ,Williamsburg VA,VA,lliamsburg  23188 
Winchester,Winchester VA 22603 ph: 540-545-4960,Virginia,Winchester VA 22603 ,Winchester VA,VA,nchester  22603 
Winchester,Winchester VA 22601 ph: 540-535-0220,Virginia,Winchester VA 22601 ,Winchester VA,VA,nchester  22601 
Woodbridge,Woodbridge VA 22192 ph: 703-490-3242,Virginia,Woodbridge VA 22192 ,Woodbridge VA,VA,odbridge  22192 
Bellevue,Bellevue WA 98006 ph: 425-562-0830,Washington,Bellevue WA 98006 ,Bellevue WA,WA,llevue  98006 
Bellingham,Bellingham WA 98226 ph: 360-734-0220,Washington,Bellingham WA 98226 ,Bellingham WA,WA,llingham  98226 
Bonney Lake,Bonney Lake WA 98391 ph: 253-862-5660,Washington,Bonney Lake WA 98391 ,Bonney Lake WA,WA,nney ke  98391 
Burlington,Burlington WA 98233 ph: 360-757-6737,Washington,Burlington WA 98233 ,Burlington WA,WA,rlington  98233 
Everett,Everett WA 98208 ph: 425-353-3167,Washington,Everett WA 98208 ,Everett WA,WA,erett  98208 
Federal Way,Federal Way WA 98003 ph: 253-733-7520,Washington,Federal Way WA 98003 ,Federal Way WA,WA,deral y  98003 
Gig Harbor,Gig Harbor WA 98332 ph: 253-858-9777,Washington,Gig Harbor WA 98332 ,Gig Harbor WA,WA,g rbor  98332 
Issaquah,Issaquah WA 98027 ph: 425-392-3357,Washington,Issaquah WA 98027 ,Issaquah WA,WA,saquah  98027 
Kelso,Kelso WA 98626 ph: 360-425-3926,Washington,Kelso WA 98626 ,Kelso WA,WA,lso  98626 
Kennewick,Kennewick WA 99336 ph: 509-735-7272,Washington,Kennewick WA 99336 ,Kennewick WA,WA,nnewick  99336 
Kent,Kent WA 98030 ph: 253-850-9710,Washington,Kent WA 98030 ,Kent WA,WA,nt  98030 
Lacey,Lacey WA 98503 ph: 360-486-8920,Washington,Lacey WA 98503 ,Lacey WA,WA,cey  98503 
Lake Stevens,Lake Stevens WA 98258 ph: 425-397-8144,Washington,Lake Stevens WA 98258 ,Lake Stevens WA,WA,ke evens  98258 
Lakewood,Lakewood WA 98499 ph: 253-581-7171,Washington,Lakewood WA 98499 ,Lakewood WA,WA,kewood  98499 
Lynnwood,Lynnwood WA 98037 ph: 425-670-1435,Washington,Lynnwood WA 98037 ,Lynnwood WA,WA,nnwood  98037 
Marysville,Marysville WA 98271 ph: 360-386-4020,Washington,Marysville WA 98271 ,Marysville WA,WA,rysville  98271 
Olympia,Olympia WA 98502 ph: 360-943-9955,Washington,Olympia WA 98502 ,Olympia WA,WA,ympia  98502 
Puyallup,Puyallup WA 98374 ph: 253-604-1066,Washington,Puyallup WA 98374 ,Puyallup WA,WA,yallup  98374 
Puyallup,Puyallup WA 98373 ph: 253-840-2900,Washington,Puyallup WA 98373 ,Puyallup WA,WA,yallup  98373 
Redmond,Redmond WA 98052 ph: 425-556-9533,Washington,Redmond WA 98052 ,Redmond WA,WA,dmond  98052 
Renton,Renton WA 98057 ph: 425-207-0067,Washington,Renton WA 98057 ,Renton WA,WA,nton  98057 
Richland,Richland WA 99352 ph: 509-627-7500,Washington,Richland WA 99352 ,Richland WA,WA,chland  99352 
Seattle,Seattle WA 98101 ph: 206-494-3250,Washington,Seattle WA 98101 ,Seattle WA,WA,attle  98101 
Seattle,Seattle WA 98126 ph: 206-932-1153,Washington,Seattle WA 98126 ,Seattle WA,WA,attle  98126 
Seattle,Seattle WA 98125 ph: 206-494-0897,Washington,Seattle WA 98125 ,Seattle WA,WA,attle  98125 
Silverdale,Silverdale WA 98383 ph: 360-692-3966,Washington,Silverdale WA 98383 ,Silverdale WA,WA,lverdale  98383 
Spokane,Spokane WA 99216 ph: 509-924-8757,Washington,Spokane WA 99216 ,Spokane WA,WA,okane  99216 
Spokane,Spokane WA 99218 ph: 509-466-3006,Washington,Spokane WA 99218 ,Spokane WA,WA,okane  99218 
Tacoma,Tacoma WA 98405 ph: 253-627-2112,Washington,Tacoma WA 98405 ,Tacoma WA,WA,coma  98405 
Tukwila,Tukwila WA 98188 ph: 206-575-0682,Washington,Tukwila WA 98188 ,Tukwila WA,WA,kwila  98188 
Vancouver,Vancouver WA 98684 ph: 360-449-6420,Washington,Vancouver WA 98684 ,Vancouver WA,WA,ncouver  98684 
Vancouver,Vancouver WA 98662 ph: 360-253-4324,Washington,Vancouver WA 98662 ,Vancouver WA,WA,ncouver  98662 
Vancouver,Vancouver WA 98665 ph: 360-713-0004,Washington,Vancouver WA 98665 ,Vancouver WA,WA,ncouver  98665 
Wenatchee,Wenatchee WA 98801 ph: 509-664-5060,Washington,Wenatchee WA 98801 ,Wenatchee WA,WA,natchee  98801 
Woodinville,Woodinville WA 98072 ph: 425-482-6410,Washington,Woodinville WA 98072 ,Woodinville WA,WA,odinville  98072 
Yakima,Yakima WA 98901 ph: 509-248-3314,Washington,Yakima WA 98901 ,Yakima WA,WA,kima  98901 
Washington,Washington DC 20010 ph: 202-777-3773,Washington DC,Washington DC 20010 ,Washington DC,DC,shington  20010 
Barboursville,Barboursville WV 25504 ph: 304-736-7767,West Virginia,Barboursville WV 25504 ,Barboursville WV,WV,rboursville  25504 
Bridgeport,Bridgeport WV 26330 ph: 304-842-7770,West Virginia,Bridgeport WV 26330 ,Bridgeport WV,WV,idgeport  26330 
Charleston,Charleston WV 25309 ph: 304-746-5445,West Virginia,Charleston WV 25309 ,Charleston WV,WV,arleston  25309 
Martinsburg,Martinsburg WV 25403 ph: 304-264-5200,West Virginia,Martinsburg WV 25403 ,Martinsburg WV,WV,rtinsburg  25403 
Morgantown,Morgantown WV 26501 ph: 304-599-1072,West Virginia,Morgantown WV 26501 ,Morgantown WV,WV,rgantown  26501 
Triadelphia,Triadelphia WV 26059 ph: 304-547-2980,West Virginia,Triadelphia WV 26059 ,Triadelphia WV,WV,iadelphia  26059 
Appleton,Appleton WI 54915 ph: 920-749-9770,Wisconsin,Appleton WI 54915 ,Appleton WI,WI,pleton  54915 
Appleton,Appleton WI 54913 ph: 920-731-5566,Wisconsin,Appleton WI 54913 ,Appleton WI,WI,pleton  54913 
Brookfield,Brookfield WI 53005 ph: 262-395-1625,Wisconsin,Brookfield WI 53005 ,Brookfield WI,WI,ookfield  53005 
Delafield,Delafield WI 53018 ph: 262-646-5200,Wisconsin,Delafield WI 53018 ,Delafield WI,WI,lafield  53018 
Eau Claire,Eau Claire WI 54701 ph: 715-838-0196,Wisconsin,Eau Claire WI 54701 ,Eau Claire WI,WI,u aire  54701 
Fitchburg,Fitchburg WI 53719 ph: 608-819-1522,Wisconsin,Fitchburg WI 53719 ,Fitchburg WI,WI,tchburg  53719 
Fond Du Lac,Fond Du Lac WI 54937 ph: 920-924-0420,Wisconsin,Fond Du Lac WI 54937 ,Fond Du Lac WI,WI,nd  c  54937 
Franklin,Franklin WI 53132 ph: 414-448-4000,Wisconsin,Franklin WI 53132 ,Franklin WI,WI,anklin  53132 
Grafton,Grafton WI 53024 ph: 262-375-6395,Wisconsin,Grafton WI 53024 ,Grafton WI,WI,afton  53024 
Green Bay,Green Bay WI 54304 ph: 920-499-0494,Wisconsin,Green Bay WI 54304 ,Green Bay WI,WI,een y  54304 
Green Bay,Green Bay WI 54311 ph: 920-406-0755,Wisconsin,Green Bay WI 54311 ,Green Bay WI,WI,een y  54311 
Greenfield,Greenfield WI 53221 ph: 414-282-1000,Wisconsin,Greenfield WI 53221 ,Greenfield WI,WI,eenfield  53221 
Hudson,Hudson WI 54016 ph: 715-381-0469,Wisconsin,Hudson WI 54016 ,Hudson WI,WI,dson  54016 
Janesville,Janesville WI 53545 ph: 608-754-8331,Wisconsin,Janesville WI 53545 ,Janesville WI,WI,nesville  53545 
Lake Geneva,Lake Geneva WI 53147 ph: 262-248-5610,Wisconsin,Lake Geneva WI 53147 ,Lake Geneva WI,WI,ke neva  53147 
Madison,Madison WI 53717 ph: 608-827-8800,Wisconsin,Madison WI 53717 ,Madison WI,WI,dison  53717 
Madison,Madison WI 53704 ph: 608-244-4527,Wisconsin,Madison WI 53704 ,Madison WI,WI,dison  53704 
Madison,Madison WI 53705 ph: 608-807-3978,Wisconsin,Madison WI 53705 ,Madison WI,WI,dison  53705 
Marshfield,Marshfield WI 54449 ph: 715-389-2020,Wisconsin,Marshfield WI 54449 ,Marshfield WI,WI,rshfield  54449 
Menomonee Falls,Menomonee Falls WI 53051 ph: 262-255-6119,Wisconsin,Menomonee Falls WI 53051 ,Menomonee Falls WI,WI,nomonee lls  53051 
Milwaukee,Milwaukee WI 53207 ph: 414-483-2000,Wisconsin,Milwaukee WI 53207 ,Milwaukee WI,WI,lwaukee  53207 
Milwaukee,Milwaukee WI 53224 ph: 414-355-6000,Wisconsin,Milwaukee WI 53224 ,Milwaukee WI,WI,lwaukee  53224 
New Berlin,New Berlin WI 53151 ph: 262-207-0013,Wisconsin,New Berlin WI 53151 ,New Berlin WI,WI,w rlin  53151 
Oak Creek,Oak Creek WI 53154 ph: 414-216-0001,Wisconsin,Oak Creek WI 53154 ,Oak Creek WI,WI,k eek  53154 
Onalaska,Onalaska WI 54650 ph: 608-781-8050,Wisconsin,Onalaska WI 54650 ,Onalaska WI,WI,alaska  54650 
Oshkosh,Oshkosh WI 54902 ph: 920-426-5003,Wisconsin,Oshkosh WI 54902 ,Oshkosh WI,WI,hkosh  54902 
Pleasant Prairie,Pleasant Prairie WI 53158 ph: 262-842-1170,Wisconsin,Pleasant Prairie WI 53158 ,Pleasant Prairie WI,WI,easant airie  53158 
Racine,Racine WI 53406 ph: 262-554-6998,Wisconsin,Racine WI 53406 ,Racine WI,WI,cine  53406 
Schofield,Schofield WI 54476 ph: 715-355-4494,Wisconsin,Schofield WI 54476 ,Schofield WI,WI,hofield  54476 
Sheboygan Falls,Sheboygan Falls WI 53085 ph: 920-451-6802,Wisconsin,Sheboygan Falls WI 53085 ,Sheboygan Falls WI,WI,eboygan lls  53085 
Stevens Point,Stevens Point WI 54481 ph: 715-341-8790,Wisconsin,Stevens Point WI 54481 ,Stevens Point WI,WI,evens int  54481 
Sturgeon Bay,Sturgeon Bay WI 54235 ph: 920-743-5775,Wisconsin,Sturgeon Bay WI 54235 ,Sturgeon Bay WI,WI,urgeon y  54235 
Sun Prairie,Sun Prairie WI 53590 ph: 608-834-5600,Wisconsin,Sun Prairie WI 53590 ,Sun Prairie WI,WI,n airie  53590 
Superior,Superior WI 54880 ph: 715-392-9791,Wisconsin,Superior WI 54880 ,Superior WI,WI,perior  54880 
Waukesha,Waukesha WI 53189 ph: 262-832-1272,Wisconsin,Waukesha WI 53189 ,Waukesha WI,WI,ukesha  53189 
Waukesha,Waukesha WI 53186 ph: 262-784-8646,Wisconsin,Waukesha WI 53186 ,Waukesha WI,WI,ukesha  53186 
Wauwatosa,Wauwatosa WI 53222 ph: 414-847-1100,Wisconsin,Wauwatosa WI 53222 ,Wauwatosa WI,WI,uwatosa  53222 
West Allis,West Allis WI 53227 ph: 414-545-8000,Wisconsin,West Allis WI 53227 ,West Allis WI,WI,st lis  53227 
West Milwaukee,West Milwaukee WI 53214 ph: 414-203-0106,Wisconsin,West Milwaukee WI 53214 ,West Milwaukee WI,WI,st lwaukee  53214 
Casper,Casper WY 82609 ph: 307-265-8214,Wyoming,Casper WY 82609 ,Casper WY,WY,sper  82609 
Cheyenne,Cheyenne WY 82009 ph: 307-637-8888,Wyoming,Cheyenne WY 82009 ,Cheyenne WY,WY,eyenne  82009 
